<?xml version="1.0" encoding="UTF-8"?>
<seiscomp xmlns="http://geofon.gfz-potsdam.de/ns/seiscomp3-schema/0.10" version="0.10"><EventParameters><pick publicID="Pick/20220601042202.632994.33815"><time><value>2022-06-01T04:21:05.197087Z</value></time><waveformID networkCode="CM" stationCode="BRJC" locationCode="00" channelCode="HHN"/><phaseHint>S</phaseHint><evaluationMode>manual</evaluationMode><creationInfo><agencyID>SGC</agencyID><creationTime>2022-06-01T04:22:02.633031Z</creationTime></creationInfo></pick><pick publicID="Pick/20220601042202.633292.33819"><time><value>2022-06-01T04:21:08.617821Z</value></time><waveformID networkCode="CM" stationCode="RUS" locationCode="00" channelCode="HHN"/><phaseHint>S</phaseHint><evaluationMode>manual</evaluationMode><creationInfo><agencyID>SGC</agencyID><creationTime>2022-06-01T04:22:02.633328Z</creationTime></creationInfo></pick><pick publicID="Pick/20220601042734.721497.38123"><time><value>2022-06-01T04:21:06.896513Z</value></time><waveformID networkCode="CM" stationCode="CPAMP" locationCode="10" channelCode="HNN"/><filterID>BW(3,1,5)</filterID><phaseHint>S</phaseHint><evaluationMode>manual</evaluationMode><creationInfo><agencyID>SGC</agencyID><creationTime>2022-06-01T04:27:34.721558Z</creationTime></creationInfo></pick><pick publicID="Pick/20220601042734.721778.38125"><time><value>2022-06-01T04:21:14.147077Z</value></time><waveformID networkCode="CM" stationCode="CCUC3" locationCode="10" channelCode="HNN"/><filterID>BW(3,1,5)</filterID><phaseHint>S</phaseHint><evaluationMode>manual</evaluationMode><creationInfo><agencyID>SGC</agencyID><creationTime>2022-06-01T04:27:34.721835Z</creationTime></creationInfo></pick><pick publicID="Pick/20220601042734.722853.38133"><time><value>2022-06-01T04:21:23.832151Z</value></time><waveformID networkCode="CM" stationCode="ZAR" locationCode="00" channelCode="HHN"/><filterID>BW(3,1,5)</filterID><phaseHint>S</phaseHint><evaluationMode>manual</evaluationMode><creationInfo><agencyID>SGC</agencyID><creationTime>2022-06-01T04:27:34.722905Z</creationTime></creationInfo></pick><pick publicID="Pick/20220601042734.723052.38135"><time><value>2022-06-01T04:21:30.00366Z</value></time><waveformID networkCode="CM" stationCode="NOR" locationCode="00" channelCode="HHN"/><filterID>BW(3,1,5)</filterID><phaseHint>S</phaseHint><evaluationMode>manual</evaluationMode><creationInfo><agencyID>SGC</agencyID><creationTime>2022-06-01T04:27:34.723104Z</creationTime></creationInfo></pick><pick publicID="Pick/20220601042734.723249.38137"><time><value>2022-06-01T04:21:33.51726Z</value></time><waveformID networkCode="CM" stationCode="CHI" locationCode="00" channelCode="HHN"/><filterID>BW(3,1,5)</filterID><phaseHint>S</phaseHint><evaluationMode>manual</evaluationMode><creationInfo><agencyID>SGC</agencyID><creationTime>2022-06-01T04:27:34.7233Z</creationTime></creationInfo></pick><pick publicID="Pick/20220601042734.724642.38151"><time><value>2022-06-01T04:21:44.315493Z</value><lowerUncertainty>0.1000000015</lowerUncertainty><upperUncertainty>0.1000000015</upperUncertainty></time><waveformID networkCode="CM" stationCode="GUY2C" locationCode="00" channelCode="HHN"/><phaseHint>S</phaseHint><evaluationMode>manual</evaluationMode><creationInfo><agencyID>SGC</agencyID><creationTime>2022-06-01T04:27:34.724691Z</creationTime></creationInfo></pick><pick publicID="Pick/20220601042734.725238.38157"><time><value>2022-06-01T04:21:47.336885Z</value></time><waveformID networkCode="CM" stationCode="PIRM" locationCode="00" channelCode="HHN"/><phaseHint>S</phaseHint><evaluationMode>manual</evaluationMode><creationInfo><agencyID>SGC</agencyID><creationTime>2022-06-01T04:27:34.725287Z</creationTime></creationInfo></pick><pick publicID="Pick/20220601042734.727871.38183"><time><value>2022-06-01T04:21:22.022318Z</value><lowerUncertainty>0.1000000015</lowerUncertainty><upperUncertainty>0.1000000015</upperUncertainty></time><waveformID networkCode="CM" stationCode="LCBC" locationCode="00" channelCode="HHZ"/><filterID>BW(4,10,15)</filterID><phaseHint>P</phaseHint><evaluationMode>manual</evaluationMode><creationInfo><agencyID>SGC</agencyID><creationTime>2022-06-01T04:27:34.727922Z</creationTime></creationInfo></pick><pick publicID="Pick/20220601042734.728174.38186"><time><value>2022-06-01T04:21:30.495825Z</value><lowerUncertainty>0.5</lowerUncertainty><upperUncertainty>0.5</upperUncertainty></time><waveformID networkCode="CM" stationCode="SOL" locationCode="20" channelCode="EHZ"/><filterID>BW(3,1,5)</filterID><phaseHint>P</phaseHint><evaluationMode>manual</evaluationMode><creationInfo><agencyID>SGC</agencyID><creationTime>2022-06-01T04:27:34.728226Z</creationTime></creationInfo></pick><pick publicID="Pick/20220601042825.30963.38207"><time><value>2022-06-01T04:22:11.841202Z</value><lowerUncertainty>0.5</lowerUncertainty><upperUncertainty>0.5</upperUncertainty></time><waveformID networkCode="CM" stationCode="TUM" locationCode="00" channelCode="HHZ"/><filterID>BW(3,5,10)</filterID><phaseHint>P</phaseHint><evaluationMode>manual</evaluationMode><creationInfo><agencyID>SGC</agencyID><creationTime>2022-06-01T04:28:25.309687Z</creationTime></creationInfo></pick><pick publicID="Pick/20220601051527.990992.40739"><time><value>2022-06-01T04:20:46.428792Z</value></time><waveformID networkCode="CM" stationCode="BAR2" locationCode="00" channelCode="HHZ"/><phaseHint>P</phaseHint><polarity>negative</polarity><evaluationMode>manual</evaluationMode><creationInfo><agencyID>SGC</agencyID><creationTime>2022-06-01T05:15:27.991157Z</creationTime></creationInfo></pick><pick publicID="Pick/20220601051527.991253.40740"><time><value>2022-06-01T04:21:01.709516Z</value></time><waveformID networkCode="CM" stationCode="BAR2" locationCode="00" channelCode="HHN"/><phaseHint>S</phaseHint><evaluationMode>manual</evaluationMode><creationInfo><agencyID>SGC</agencyID><creationTime>2022-06-01T05:15:27.991326Z</creationTime></creationInfo></pick><pick publicID="Pick/20220601051527.991406.40741"><time><value>2022-06-01T04:20:46.249986Z</value></time><waveformID networkCode="CM" stationCode="PDSC" locationCode="10" channelCode="HNZ"/><phaseHint>P</phaseHint><evaluationMode>manual</evaluationMode><creationInfo><agencyID>SGC</agencyID><creationTime>2022-06-01T05:15:27.991474Z</creationTime></creationInfo></pick><pick publicID="Pick/20220601051527.991535.40742"><time><value>2022-06-01T04:21:01.36757Z</value></time><waveformID networkCode="CM" stationCode="PDSC" locationCode="10" channelCode="HNN"/><phaseHint>S</phaseHint><evaluationMode>manual</evaluationMode><creationInfo><agencyID>SGC</agencyID><creationTime>2022-06-01T05:15:27.9916Z</creationTime></creationInfo></pick><pick publicID="Pick/20220601051527.991692.40743"><time><value>2022-06-01T04:20:48.090053Z</value></time><waveformID networkCode="CM" stationCode="BRJC" locationCode="00" channelCode="HHZ"/><phaseHint>P</phaseHint><polarity>positive</polarity><evaluationMode>manual</evaluationMode><creationInfo><agencyID>SGC</agencyID><creationTime>2022-06-01T05:15:27.991758Z</creationTime></creationInfo></pick><pick publicID="Pick/20220601051527.991806.40744"><time><value>2022-06-01T04:20:49.398052Z</value></time><waveformID networkCode="CM" stationCode="PAM" locationCode="20" channelCode="EHZ"/><phaseHint>P</phaseHint><polarity>negative</polarity><evaluationMode>manual</evaluationMode><creationInfo><agencyID>SGC</agencyID><creationTime>2022-06-01T05:15:27.991871Z</creationTime></creationInfo></pick><pick publicID="Pick/20220601051527.991914.40745"><time><value>2022-06-01T04:21:06.237207Z</value></time><waveformID networkCode="CM" stationCode="PAM" locationCode="20" channelCode="EHN"/><phaseHint>S</phaseHint><evaluationMode>manual</evaluationMode><creationInfo><agencyID>SGC</agencyID><creationTime>2022-06-01T05:15:27.991976Z</creationTime></creationInfo></pick><pick publicID="Pick/20220601051527.992066.40746"><time><value>2022-06-01T04:20:49.640012Z</value></time><waveformID networkCode="CM" stationCode="CPAMP" locationCode="10" channelCode="HNZ"/><phaseHint>P</phaseHint><evaluationMode>manual</evaluationMode><creationInfo><agencyID>SGC</agencyID><creationTime>2022-06-01T05:15:27.992129Z</creationTime></creationInfo></pick><pick publicID="Pick/20220601051527.992217.40747"><time><value>2022-06-01T04:20:50.368379Z</value></time><waveformID networkCode="CM" stationCode="RUS" locationCode="00" channelCode="HHZ"/><phaseHint>P</phaseHint><polarity>negative</polarity><evaluationMode>manual</evaluationMode><creationInfo><agencyID>SGC</agencyID><creationTime>2022-06-01T05:15:27.99228Z</creationTime></creationInfo></pick><pick publicID="Pick/20220601051527.99235.40748"><time><value>2022-06-01T04:20:53.650008Z</value></time><waveformID networkCode="CM" stationCode="CCUC3" locationCode="10" channelCode="HNZ"/><phaseHint>P</phaseHint><evaluationMode>manual</evaluationMode><creationInfo><agencyID>SGC</agencyID><creationTime>2022-06-01T05:15:27.992413Z</creationTime></creationInfo></pick><pick publicID="Pick/20220601051527.99247.40749"><time><value>2022-06-01T04:20:52.828517Z</value></time><waveformID networkCode="CM" stationCode="PTB" locationCode="00" channelCode="HHZ"/><phaseHint>P</phaseHint><polarity>positive</polarity><evaluationMode>manual</evaluationMode><creationInfo><agencyID>SGC</agencyID><creationTime>2022-06-01T05:15:27.992534Z</creationTime></creationInfo></pick><pick publicID="Pick/20220601051527.992577.40750"><time><value>2022-06-01T04:21:14.022939Z</value></time><waveformID networkCode="CM" stationCode="PTB" locationCode="00" channelCode="HHN"/><phaseHint>S</phaseHint><evaluationMode>manual</evaluationMode><creationInfo><agencyID>SGC</agencyID><creationTime>2022-06-01T05:15:27.992639Z</creationTime></creationInfo></pick><pick publicID="Pick/20220601051527.992698.40751"><time><value>2022-06-01T04:20:54.948247Z</value></time><waveformID networkCode="CM" stationCode="TAM" locationCode="00" channelCode="HHZ"/><phaseHint>P</phaseHint><polarity>negative</polarity><evaluationMode>manual</evaluationMode><creationInfo><agencyID>SGC</agencyID><creationTime>2022-06-01T05:15:27.992761Z</creationTime></creationInfo></pick><pick publicID="Pick/20220601051527.992807.40752"><time><value>2022-06-01T04:21:16.668016Z</value></time><waveformID networkCode="CM" stationCode="TAM" locationCode="00" channelCode="HHN"/><phaseHint>S</phaseHint><evaluationMode>manual</evaluationMode><creationInfo><agencyID>SGC</agencyID><creationTime>2022-06-01T05:15:27.992869Z</creationTime></creationInfo></pick><pick publicID="Pick/20220601051527.99293.40753"><time><value>2022-06-01T04:20:54.658693Z</value></time><waveformID networkCode="CM" stationCode="OCA" locationCode="00" channelCode="HHZ"/><phaseHint>P</phaseHint><evaluationMode>manual</evaluationMode><creationInfo><agencyID>SGC</agencyID><creationTime>2022-06-01T05:15:27.992993Z</creationTime></creationInfo></pick><pick publicID="Pick/20220601051527.993047.40754"><time><value>2022-06-01T04:21:16.660554Z</value></time><waveformID networkCode="CM" stationCode="OCA" locationCode="00" channelCode="HHN"/><phaseHint>S</phaseHint><evaluationMode>manual</evaluationMode><creationInfo><agencyID>SGC</agencyID><creationTime>2022-06-01T05:15:27.993108Z</creationTime></creationInfo></pick><pick publicID="Pick/20220601051527.993166.40755"><time><value>2022-06-01T04:20:55.168287Z</value></time><waveformID networkCode="CM" stationCode="SPBC" locationCode="00" channelCode="HHZ"/><phaseHint>P</phaseHint><polarity>positive</polarity><evaluationMode>manual</evaluationMode><creationInfo><agencyID>SGC</agencyID><creationTime>2022-06-01T05:15:27.993228Z</creationTime></creationInfo></pick><pick publicID="Pick/20220601051527.993271.40756"><time><value>2022-06-01T04:21:17.53885Z</value></time><waveformID networkCode="CM" stationCode="SPBC" locationCode="00" channelCode="HHN"/><phaseHint>S</phaseHint><evaluationMode>manual</evaluationMode><creationInfo><agencyID>SGC</agencyID><creationTime>2022-06-01T05:15:27.993331Z</creationTime></creationInfo></pick><pick publicID="Pick/20220601051527.993391.40757"><time><value>2022-06-01T04:20:56.929849Z</value></time><waveformID networkCode="CM" stationCode="YPLC" locationCode="00" channelCode="HHZ"/><phaseHint>P</phaseHint><polarity>negative</polarity><evaluationMode>manual</evaluationMode><creationInfo><agencyID>SGC</agencyID><creationTime>2022-06-01T05:15:27.993452Z</creationTime></creationInfo></pick><pick publicID="Pick/20220601051527.993495.40758"><time><value>2022-06-01T04:21:20.667482Z</value></time><waveformID networkCode="CM" stationCode="YPLC" locationCode="00" channelCode="HHN"/><phaseHint>S</phaseHint><evaluationMode>manual</evaluationMode><creationInfo><agencyID>SGC</agencyID><creationTime>2022-06-01T05:15:27.993556Z</creationTime></creationInfo></pick><pick publicID="Pick/20220601051527.993644.40759"><time><value>2022-06-01T04:20:58.658345Z</value></time><waveformID networkCode="CM" stationCode="ZAR" locationCode="00" channelCode="HHZ"/><phaseHint>P</phaseHint><polarity>positive</polarity><evaluationMode>manual</evaluationMode><creationInfo><agencyID>SGC</agencyID><creationTime>2022-06-01T05:15:27.993706Z</creationTime></creationInfo></pick><pick publicID="Pick/20220601051527.993776.40760"><time><value>2022-06-01T04:21:02.038251Z</value></time><waveformID networkCode="CM" stationCode="NOR" locationCode="00" channelCode="HHZ"/><phaseHint>P</phaseHint><polarity>positive</polarity><evaluationMode>manual</evaluationMode><creationInfo><agencyID>SGC</agencyID><creationTime>2022-06-01T05:15:27.99385Z</creationTime></creationInfo></pick><pick publicID="Pick/20220601051527.993921.40761"><time><value>2022-06-01T04:21:04.658181Z</value></time><waveformID networkCode="CM" stationCode="CHI" locationCode="00" channelCode="HHZ"/><phaseHint>P</phaseHint><evaluationMode>manual</evaluationMode><creationInfo><agencyID>SGC</agencyID><creationTime>2022-06-01T05:15:27.993983Z</creationTime></creationInfo></pick><pick publicID="Pick/20220601051527.994041.40762"><time><value>2022-06-01T04:21:06.078286Z</value></time><waveformID networkCode="CM" stationCode="HEL" locationCode="00" channelCode="HHZ"/><phaseHint>P</phaseHint><evaluationMode>manual</evaluationMode><creationInfo><agencyID>SGC</agencyID><creationTime>2022-06-01T05:15:27.994102Z</creationTime></creationInfo></pick><pick publicID="Pick/20220601051527.994154.40763"><time><value>2022-06-01T04:21:37.696512Z</value></time><waveformID networkCode="CM" stationCode="HEL" locationCode="00" channelCode="HHN"/><phaseHint>S</phaseHint><evaluationMode>manual</evaluationMode><creationInfo><agencyID>SGC</agencyID><creationTime>2022-06-01T05:15:27.994212Z</creationTime></creationInfo></pick><pick publicID="Pick/20220601051527.994269.40764"><time><value>2022-06-01T04:21:06.158426Z</value></time><waveformID networkCode="CM" stationCode="URE" locationCode="00" channelCode="HHZ"/><phaseHint>P</phaseHint><evaluationMode>manual</evaluationMode><creationInfo><agencyID>SGC</agencyID><creationTime>2022-06-01T05:15:27.994328Z</creationTime></creationInfo></pick><pick publicID="Pick/20220601051527.994411.40765"><time><value>2022-06-01T04:21:37.094301Z</value></time><waveformID networkCode="CM" stationCode="URE" locationCode="00" channelCode="HHN"/><phaseHint>S</phaseHint><evaluationMode>manual</evaluationMode><creationInfo><agencyID>SGC</agencyID><creationTime>2022-06-01T05:15:27.994474Z</creationTime></creationInfo></pick><pick publicID="Pick/20220601051527.994531.40766"><time><value>2022-06-01T04:21:08.110025Z</value></time><waveformID networkCode="CM" stationCode="DRL03" locationCode="30" channelCode="HHZ"/><phaseHint>P</phaseHint><evaluationMode>manual</evaluationMode><creationInfo><agencyID>SGC</agencyID><creationTime>2022-06-01T05:15:27.994592Z</creationTime></creationInfo></pick><pick publicID="Pick/20220601051527.994653.40767"><time><value>2022-06-01T04:21:40.573304Z</value></time><waveformID networkCode="CM" stationCode="DRL03" locationCode="30" channelCode="HHN"/><phaseHint>S</phaseHint><evaluationMode>manual</evaluationMode><creationInfo><agencyID>SGC</agencyID><creationTime>2022-06-01T05:15:27.994707Z</creationTime></creationInfo></pick><pick publicID="Pick/20220601051527.994785.40768"><time><value>2022-06-01T04:21:10.178403Z</value></time><waveformID networkCode="CM" stationCode="GUY2C" locationCode="00" channelCode="HHZ"/><phaseHint>P</phaseHint><polarity>positive</polarity><evaluationMode>manual</evaluationMode><creationInfo><agencyID>SGC</agencyID><creationTime>2022-06-01T05:15:27.994841Z</creationTime></creationInfo></pick><pick publicID="Pick/20220601051527.994885.40769"><time><value>2022-06-01T04:21:09.68831Z</value></time><waveformID networkCode="CM" stationCode="VIL" locationCode="20" channelCode="EHZ"/><phaseHint>P</phaseHint><evaluationMode>manual</evaluationMode><creationInfo><agencyID>SGC</agencyID><creationTime>2022-06-01T05:15:27.994941Z</creationTime></creationInfo></pick><pick publicID="Pick/20220601051527.994992.40770"><time><value>2022-06-01T04:21:43.935251Z</value></time><waveformID networkCode="CM" stationCode="VIL" locationCode="20" channelCode="EHN"/><phaseHint>S</phaseHint><evaluationMode>manual</evaluationMode><creationInfo><agencyID>SGC</agencyID><creationTime>2022-06-01T05:15:27.995046Z</creationTime></creationInfo></pick><pick publicID="Pick/20220601051527.9951.40771"><time><value>2022-06-01T04:21:09.628446Z</value></time><waveformID networkCode="CM" stationCode="PTGC" locationCode="00" channelCode="HHZ"/><phaseHint>P</phaseHint><polarity>negative</polarity><evaluationMode>manual</evaluationMode><creationInfo><agencyID>SGC</agencyID><creationTime>2022-06-01T05:15:27.995158Z</creationTime></creationInfo></pick><pick publicID="Pick/20220601051527.995197.40772"><time><value>2022-06-01T04:21:42.111192Z</value></time><waveformID networkCode="CM" stationCode="PTGC" locationCode="00" channelCode="HHN"/><phaseHint>S</phaseHint><evaluationMode>manual</evaluationMode><creationInfo><agencyID>SGC</agencyID><creationTime>2022-06-01T05:15:27.995253Z</creationTime></creationInfo></pick><pick publicID="Pick/20220601051527.995332.40773"><time><value>2022-06-01T04:21:12.019971Z</value></time><waveformID networkCode="CM" stationCode="PIRM" locationCode="00" channelCode="HHZ"/><phaseHint>P</phaseHint><evaluationMode>manual</evaluationMode><creationInfo><agencyID>SGC</agencyID><creationTime>2022-06-01T05:15:27.995387Z</creationTime></creationInfo></pick><pick publicID="Pick/20220601051527.99544.40774"><time><value>2022-06-01T04:21:12.360158Z</value></time><waveformID networkCode="CM" stationCode="RIO2C" locationCode="00" channelCode="HHZ"/><phaseHint>P</phaseHint><polarity>positive</polarity><evaluationMode>manual</evaluationMode><creationInfo><agencyID>SGC</agencyID><creationTime>2022-06-01T05:15:27.995498Z</creationTime></creationInfo></pick><pick publicID="Pick/20220601051527.995536.40775"><time><value>2022-06-01T04:21:48.226762Z</value></time><waveformID networkCode="CM" stationCode="RIO2C" locationCode="00" channelCode="HHN"/><phaseHint>S</phaseHint><evaluationMode>manual</evaluationMode><creationInfo><agencyID>SGC</agencyID><creationTime>2022-06-01T05:15:27.995592Z</creationTime></creationInfo></pick><pick publicID="Pick/20220601051527.995644.40776"><time><value>2022-06-01T04:21:11.350007Z</value></time><waveformID networkCode="CM" stationCode="ACH1" locationCode="00" channelCode="HHZ"/><phaseHint>P</phaseHint><evaluationMode>manual</evaluationMode><creationInfo><agencyID>SGC</agencyID><creationTime>2022-06-01T05:15:27.995699Z</creationTime></creationInfo></pick><pick publicID="Pick/20220601051527.995747.40777"><time><value>2022-06-01T04:21:46.808053Z</value></time><waveformID networkCode="CM" stationCode="ACH1" locationCode="00" channelCode="HHN"/><phaseHint>S</phaseHint><evaluationMode>manual</evaluationMode><creationInfo><agencyID>SGC</agencyID><creationTime>2022-06-01T05:15:27.995801Z</creationTime></creationInfo></pick><pick publicID="Pick/20220601051527.995853.40778"><time><value>2022-06-01T04:21:12.804464Z</va