<?xml version="1.0" encoding="UTF-8"?>
<seiscomp xmlns="http://geofon.gfz-potsdam.de/ns/seiscomp3-schema/0.10" version="0.10"><EventParameters><pick publicID="Pick/20220602003250.215066.35138"><time><value>2022-06-01T23:37:54.665171Z</value></time><waveformID networkCode="CM" stationCode="SPBC" locationCode="00" channelCode="HHZ"/><phaseHint>P</phaseHint><evaluationMode>manual</evaluationMode><creationInfo><agencyID>SGC</agencyID><creationTime>2022-06-02T00:32:50.215098Z</creationTime></creationInfo></pick><pick publicID="Pick/20220602003250.214997.35137"><time><value>2022-06-01T23:38:10.580934Z</value></time><waveformID networkCode="CM" stationCode="SPBC" locationCode="00" channelCode="HHN"/><phaseHint>S</phaseHint><evaluationMode>manual</evaluationMode><creationInfo><agencyID>SGC</agencyID><creationTime>2022-06-02T00:32:50.215032Z</creationTime></creationInfo></pick><pick publicID="Pick/20220602003250.214752.35135"><time><value>2022-06-01T23:37:55.515145Z</value></time><waveformID networkCode="CM" stationCode="CHI" locationCode="00" channelCode="HHZ"/><phaseHint>P</phaseHint><evaluationMode>manual</evaluationMode><creationInfo><agencyID>SGC</agencyID><creationTime>2022-06-02T00:32:50.214837Z</creationTime></creationInfo></pick><pick publicID="Pick/20220602003250.214911.35136"><time><value>2022-06-01T23:38:12.047139Z</value></time><waveformID networkCode="CM" stationCode="CHI" locationCode="00" channelCode="HHN"/><phaseHint>S</phaseHint><evaluationMode>manual</evaluationMode><creationInfo><agencyID>SGC</agencyID><creationTime>2022-06-02T00:32:50.214956Z</creationTime></creationInfo></pick><pick publicID="Pick/20220603003134.544838.40040"><time><value>2022-06-01T23:37:57.203057Z</value></time><waveformID networkCode="CM" stationCode="ROSC" channelCode="BHZ"/><phaseHint>P</phaseHint><evaluationMode>manual</evaluationMode><creationInfo><agencyID>SGC</agencyID><creationTime>2022-06-03T00:31:34.544968Z</creationTime></creationInfo></pick><pick publicID="Pick/20220602003752.076247.35164"><time><value>2022-06-01T23:38:16.154364Z</value></time><waveformID networkCode="CM" stationCode="ROSC" channelCode="BHN"/><phaseHint>S</phaseHint><evaluationMode>manual</evaluationMode><creationInfo><agencyID>SGC</agencyID><creationTime>2022-06-02T00:37:52.07632Z</creationTime></creationInfo></pick><pick publicID="Pick/20220602003752.076513.35166"><time><value>2022-06-01T23:37:57.327441Z</value></time><waveformID networkCode="CM" stationCode="CVER" locationCode="00" channelCode="HHZ"/><phaseHint>P</phaseHint><evaluationMode>manual</evaluationMode><creationInfo><agencyID>SGC</agencyID><creationTime>2022-06-02T00:37:52.076575Z</creationTime></creationInfo></pick><pick publicID="Pick/20220602003752.076386.35165"><time><value>2022-06-01T23:38:15.941871Z</value></time><waveformID networkCode="CM" stationCode="CVER" locationCode="00" channelCode="HHN"/><phaseHint>S</phaseHint><evaluationMode>manual</evaluationMode><creationInfo><agencyID>SGC</agencyID><creationTime>2022-06-02T00:37:52.076452Z</creationTime></creationInfo></pick><pick publicID="Pick/20220602003250.215134.35139"><time><value>2022-06-01T23:37:57.788826Z</value></time><waveformID networkCode="CM" stationCode="RUS" locationCode="00" channelCode="HHZ"/><phaseHint>P</phaseHint><evaluationMode>manual</evaluationMode><creationInfo><agencyID>SGC</agencyID><creationTime>2022-06-02T00:32:50.215167Z</creationTime></creationInfo></pick><pick publicID="Pick/20220602003250.2152.35140"><time><value>2022-06-01T23:38:16.212012Z</value></time><waveformID networkCode="CM" stationCode="RUS" locationCode="00" channelCode="HHN"/><phaseHint>S</phaseHint><evaluationMode>manual</evaluationMode><creationInfo><agencyID>SGC</agencyID><creationTime>2022-06-02T00:32:50.215234Z</creationTime></creationInfo></pick><pick publicID="Pick/20220602003752.077001.35169"><time><value>2022-06-01T23:37:59.10176Z</value></time><waveformID networkCode="CM" stationCode="NOR" locationCode="00" channelCode="HHZ"/><phaseHint>P</phaseHint><evaluationMode>manual</evaluationMode><creationInfo><agencyID>SGC</agencyID><creationTime>2022-06-02T00:37:52.077065Z</creationTime></creationInfo></pick><pick publicID="Pick/20220602003752.076876.35168"><time><value>2022-06-01T23:38:18.874281Z</value></time><waveformID networkCode="CM" stationCode="NOR" locationCode="00" channelCode="HHN"/><phaseHint>S</phaseHint><evaluationMode>manual</evaluationMode><creationInfo><agencyID>SGC</agencyID><creationTime>2022-06-02T00:37:52.07694Z</creationTime></creationInfo></pick><pick publicID="Pick/20220602003250.215267.35141"><time><value>2022-06-01T23:37:58.702548Z</value></time><waveformID networkCode="CM" stationCode="VIL" locationCode="20" channelCode="EHZ"/><phaseHint>P</phaseHint><evaluationMode>manual</evaluationMode><creationInfo><agencyID>SGC</agencyID><creationTime>2022-06-02T00:32:50.2153Z</creationTime></creationInfo></pick><pick publicID="Pick/20220602003752.076743.35167"><time><value>2022-06-01T23:38:19.426764Z</value></time><waveformID networkCode="CM" stationCode="VIL" locationCode="20" channelCode="EHN"/><phaseHint>S</phaseHint><evaluationMode>manual</evaluationMode><creationInfo><agencyID>SGC</agencyID><creationTime>2022-06-02T00:37:52.076812Z</creationTime></creationInfo></pick><pick publicID="Pick/20220602003752.077124.35170"><time><value>2022-06-01T23:38:00.185475Z</value><lowerUncertainty>0.1000000015</lowerUncertainty><upperUncertainty>0.1000000015</upperUncertainty></time><waveformID networkCode="CM" stationCode="ACH1" locationCode="00" channelCode="HHZ"/><phaseHint>P</phaseHint><evaluationMode>manual</evaluationMode><creationInfo><agencyID>SGC</agencyID><creationTime>2022-06-02T00:37:52.07719Z</creationTime></creationInfo></pick><pick publicID="Pick/20220602003752.077246.35171"><time><value>2022-06-01T23:38:21.24358Z</value></time><waveformID networkCode="CM" stationCode="ACH1" locationCode="00" channelCode="HHN"/><phaseHint>S</phaseHint><evaluationMode>manual</evaluationMode><creationInfo><agencyID>SGC</agencyID><creationTime>2022-06-02T00:37:52.077306Z</creationTime></creationInfo></pick><pick publicID="Pick/20220603003134.545253.40041"><time><value>2022-06-01T23:38:01.640964Z</value></time><waveformID networkCode="CM" stationCode="YPLC" locationCode="00" channelCode="HHZ"/><phaseHint>P</phaseHint><evaluationMode>manual</evaluationMode><creationInfo><agencyID>SGC</agencyID><creationTime>2022-06-03T00:31:34.545321Z</creationTime></creationInfo></pick><pick publicID="Pick/20220602003250.215458.35144"><time><value>2022-06-01T23:38:21.588099Z</value></time><waveformID networkCode="CM" stationCode="YPLC" locationCode="00" channelCode="HHN"/><phaseHint>S</phaseHint><evaluationMode>manual</evaluationMode><creationInfo><agencyID>SGC</agencyID><creationTime>2022-06-02T00:32:50.21549Z</creationTime></creationInfo></pick><pick publicID="Pick/20220602003752.077428.35172"><time><value>2022-06-01T23:38:02.023543Z</value><lowerUncertainty>0.1000000015</lowerUncertainty><upperUncertainty>0.1000000015</upperUncertainty></time><waveformID networkCode="CM" stationCode="BAR2" locationCode="00" channelCode="HHZ"/><filterID>BW(3,5,10)</filterID><phaseHint>P</phaseHint><evaluationMode>manual</evaluationMode><creationInfo><agencyID>SGC</agencyID><creationTime>2022-06-02T00:37:52.077497Z</creationTime></creationInfo></pick><pick publicID="Pick/20220602003752.077554.35173"><time><value>2022-06-01T23:38:24.292861Z</value></time><waveformID networkCode="CM" stationCode="BAR2" locationCode="00" channelCode="HHN"/><phaseHint>S</phaseHint><evaluationMode>manual</evaluationMode><creationInfo><agencyID>SGC</agencyID><creationTime>2022-06-02T00:37:52.077616Z</creationTime></creationInfo></pick><pick publicID="Pick/20220602003752.077684.35174"><time><value>2022-06-01T23:38:01.556057Z</value></time><waveformID networkCode="CM" stationCode="PTB" locationCode="00" channelCode="HHZ"/><phaseHint>P</phaseHint><evaluationMode>manual</evaluationMode><creationInfo><agencyID>SGC</agencyID><creationTime>2022-06-02T00:37:52.077747Z</creationTime></creationInfo></pick><pick publicID="Pick/20220602003752.077808.35175"><time><value>2022-06-01T23:38:23.623507Z</value></time><waveformID networkCode="CM" stationCode="PTB" locationCode="00" channelCode="HHN"/><phaseHint>S</phaseHint><evaluationMode>manual</evaluationMode><creationInfo><agencyID>SGC</agencyID><creationTime>2022-06-02T00:37:52.077869Z</creationTime></creationInfo></pick><pick publicID="Pick/20220602003250.215524.35145"><time><value>2022-06-01T23:38:04.121134Z</value><lowerUncertainty>0.1000000015</lowerUncertainty><upperUncertainty>0.1000000015</upperUncertainty></time><waveformID networkCode="CM" stationCode="PIRM" locationCode="00" channelCode="HHZ"/><phaseHint>P</phaseHint><evaluationMode>manual</evaluationMode><creationInfo><agencyID>SGC</agencyID><creationTime>2022-06-02T00:32:50.215558Z</creationTime></creationInfo></pick><pick publicID="Pick/20220602003250.21559.35146"><time><value>2022-06-01T23:38:27.261676Z</value></time><waveformID networkCode="CM" stationCode="PIRM" locationCode="00" channelCode="HHN"/><phaseHint>S</phaseHint><evaluationMode>manual</evaluationMode><creationInfo><agencyID>SGC</agencyID><creationTime>2022-06-02T00:32:50.215622Z</creationTime></creationInfo></pick><pick publicID="Pick/20220602003250.215653.35147"><time><value>2022-06-01T23:38:04.333629Z</value><lowerUncertainty>0.1000000015</lowerUncertainty><upperUncertainty>0.1000000015</upperUncertainty></time><waveformID networkCode="CM" stationCode="GUY2C" locationCode="00" channelCode="HHZ"/><phaseHint>P</phaseHint><evaluationMode>manual</evaluationMode><creationInfo><agencyID>SGC</agencyID><creationTime>2022-06-02T00:32:50.215685Z</creationTime></creationInfo></pick><pick publicID="Pick/20220602003250.215714.35148"><time><value>2022-06-01T23:38:29.322857Z</value><lowerUncertainty>0.1000000015</lowerUncertainty><upperUncertainty>0.1000000015</upperUncertainty></time><waveformID networkCode="CM" stationCode="GUY2C" locationCode="00" channelCode="HHN"/><phaseHint>S</phaseHint><evaluationMode>manual</evaluationMode><creationInfo><agencyID>SGC</agencyID><creationTime>2022-06-02T00:32:50.215745Z</creationTime></creationInfo></pick><pick publicID="Pick/20220602003752.078043.35176"><time><value>2022-06-01T23:38:05.168447Z</value></time><waveformID networkCode="CM" stationCode="BRJC" locationCode="00" channelCode="HHZ"/><phaseHint>P</phaseHint><evaluationMode>manual</evaluationMode><creationInfo><agencyID>SGC</agencyID><creationTime>2022-06-02T00:37:52.078109Z</creationTime></creationInfo></pick><pick publicID="Pick/20220602003752.078162.35177"><time><value>2022-06-01T23:38:29.307708Z</value></time><waveformID networkCode="CM" stationCode="BRJC" locationCode="00" channelCode="HHN"/><phaseHint>S</phaseHint><evaluationMode>manual</evaluationMode><creationInfo><agencyID>SGC</agencyID><creationTime>2022-06-02T00:37:52.078224Z</creationTime></creationInfo></pick><pick publicID="Pick/20220602003752.078329.35178"><time><value>2022-06-01T23:38:06.783396Z</value></time><waveformID networkCode="CM" stationCode="PTGC" locationCode="00" channelCode="HHZ"/><phaseHint>P</phaseHint><evaluationMode>manual</evaluationMode><creationInfo><agencyID>SGC</agencyID><creationTime>2022-06-02T00:37:52.078417Z</creationTime></creationInfo></pick><pick publicID="Pick/20220602003250.215778.35149"><time><value>2022-06-01T23:38:31.022805Z</value></time><waveformID networkCode="CM" stationCode="PTGC" locationCode="00" channelCode="HHN"/><phaseHint>S</phaseHint><evaluationMode>manual</evaluationMode><creationInfo><agencyID>SGC</agencyID><creationTime>2022-06-02T00:32:50.21581Z</creationTime></creationInfo></pick><pick publicID="Pick/20220602003250.215904.35151"><time><value>2022-06-01T23:38:07.223533Z</value></time><waveformID networkCode="CM" stationCode="PRA" locationCode="00" channelCode="HHZ"/><phaseHint>P</phaseHint><evaluationMode>manual</evaluationMode><creationInfo><agencyID>SGC</agencyID><creationTime>2022-06-02T00:32:50.215936Z</creationTime></creationInfo></pick><pick publicID="Pick/20220602003250.215966.35152"><time><value>2022-06-01T23:38:33.147734Z</value></time><waveformID networkCode="CM" stationCode="PRA" locationCode="00" channelCode="HHN"/><phaseHint>S</phaseHint><evaluationMode>manual</evaluationMode><creationInfo><agencyID>SGC</agencyID><creationTime>2022-06-02T00:32:50.215997Z</creationTime></creationInfo></pick><pick publicID="Pick/20220602003250.216155.35155"><time><value>2022-06-01T23:38:08.795981Z</value></time><waveformID networkCode="CM" stationCode="HEL" locationCode="00" channelCode="HHZ"/><phaseHint>P</phaseHint><evaluationMode>manual</evaluationMode><creationInfo><agencyID>SGC</agencyID><creationTime>2022-06-02T00:32:50.216187Z</creationTime></creationInfo></pick><pick publicID="Pick/20220602003250.216216.35156"><time><value>2022-06-01T23:38:35.187676Z</value></time><waveformID networkCode="CM" stationCode="HEL" locationCode="00" channelCode="HHN"/><phaseHint>S</phaseHint><evaluationMode>manual</evaluationMode><creationInfo><agencyID>SGC</agencyID><creationTime>2022-06-02T00:32:50.216246Z</creationTime></creationInfo></pick><pick publicID="Pick/20220602003250.216093.35154"><time><value>2022-06-01T23:38:08.137251Z</value></time><waveformID networkCode="CM" stationCode="ORTC" locationCode="00" channelCode="HHZ"/><phaseHint>P</phaseHint><evaluationMode>manual</evaluationMode><creationInfo><agencyID>SGC</agencyID><creationTime>2022-06-02T00:32:50.216123Z</creationTime></creationInfo></pick><pick publicID="Pick/20220602003250.21603.35153"><time><value>2022-06-01T23:38:34.91143Z</value></time><waveformID networkCode="CM" stationCode="ORTC" locationCode="00" channelCode="HHN"/><phaseHint>S</phaseHint><evaluationMode>manual</evaluationMode><creationInfo><agencyID>SGC</agencyID><creationTime>2022-06-02T00:32:50.216062Z</creationTime></creationInfo></pick><pick publicID="Pick/20220602003752.079283.35182"><time><value>2022-06-01T23:38:12.435723Z</value><lowerUncertainty>0.1000000015</lowerUncertainty><upperUncertainty>0.1000000015</upperUncertainty></time><waveformID networkCode="CM" stationCode="PAM" locationCode="20" channelCode="EHZ"/><filterID>BW(3,5,10)</filterID><phaseHint>P</phaseHint><evaluationMode>manual</evaluationMode><creationInfo><agencyID>SGC</agencyID><creationTime>2022-06-02T00:37:52.07935Z</creationTime></creationInfo></pick><pick publicID="Pick/20220602003752.079411.35183"><time><value>2022-06-01T23:38:43.162282Z</value></time><waveformID networkCode="CM" stationCode="PAM" locationCode="20" channelCode="EHN"/><filterID>BW(3,5,10)</filterID><phaseHint>S</phaseHint><evaluationMode>manual</evaluationMode><creationInfo><agencyID>SGC</agencyID><creationTime>2022-06-02T00:37:52.079476Z</creationTime></creationInfo></pick><pick publicID="Pick/20220602003250.216277.35157"><time><value>2022-06-01T23:38:12.397748Z</value><lowerUncertainty>0.1000000015</lowerUncertainty><upperUncertainty>0.1000000015</upperUncertainty></time><waveformID networkCode="CM" stationCode="CBOC" locationCode="00" channelCode="HHZ"/><phaseHint>P</phaseHint><evaluationMode>manual</evaluationMode><creationInfo><agencyID>SGC</agencyID><creationTime>2022-06-02T00:32:50.216308Z</creationTime></creationInfo></pick><pick publicID="Pick/20220602003250.216338.35158"><time><value>2022-06-01T23:38:42.444328Z</value></time><waveformID networkCode="CM" stationCode="CBOC" locationCode="00" channelCode="HHN"/><phaseHint>S</phaseHint><evaluationMode>manual</evaluationMode><creationInfo><agencyID>SGC</agencyID><creationTime>2022-06-02T00:32:50.216369Z</creationTime></creationInfo></pick><pick publicID="Pick/20220602003752.079607.35184"><time><value>2022-06-01T23:38:12.903209Z</value><lowerUncertainty>0.1000000015</lowerUncertainty><upperUncertainty>0.1000000015</upperUncertainty></time><waveformID networkCode="CM" stationCode="ZAR" locationCode="00" channelCode="HHZ"/><filterID>BW(3,1,5)</filterID><phaseHint>P</phaseHint><evaluationMode>manual</evaluationMode><creationInfo><agencyID>SGC</agencyID><creationTime>2022-06-02T00:37:52.079674Z</creationTime></creationInfo></pick><pick publicID="Pick/20220602003752.079742.35185"><time><value>2022-06-01T23:38:43.374776Z</value></time><waveformID networkCode="CM" stationCode="ZAR" locationCode="00" channelCode="HHN"/><phaseHint>S</phaseHint><evaluationMode>manual</evaluationMode><creationInfo><agencyID>SGC</agencyID><creationTime>2022-06-02T00:37:52.079806Z</creationTime></creationInfo></pick><pick publicID="Pick/20220602003752.079881.35186"><time><value>2022-06-01T23:38:18.215551Z</value></time><waveformID networkCode="CM" stationCode="QUBC" locationCode="00" channelCode="HHZ"/><phaseHint>P</phaseHint><evaluationMode>manual</evaluationMode><creationInfo><agencyID>SGC</agencyID><creationTime>2022-06-02T00:37:52.079945Z</creationTime></creationInfo></pick><pick publicID="Pick/20220602003752.080008.35187"><time><value>2022-06-01T23:38:16.6006Z</value><lowerUncertainty>0.1000000015</lowerUncertainty><upperUncertainty>0.1000000015</upperUncertainty></time><waveformID networkCode="CM" stationCode="PGA6" locationCode="00" channelCode="HHZ"/><phaseHint>P</phaseHint><evaluationMode>manual</evaluationMode><creationInfo><agencyID>SGC</agencyID><creationTime>2022-06-02T00:37:52.080073Z</creationTime></creationInfo></pick><pick publicID="Pick/20220602003752.080133.35188"><time><value>2022-06-01T23:38:49.749585Z</value></time><waveformID networkCode="CM" stationCode="PGA6" locationCode="00" channelCode="HHN"/><phaseHint>S</phaseHint><evaluationMode>manual</evaluationMode><creationInfo><agencyID>SGC</agencyID><creationTime>2022-06-02T00:37:52.080196Z</creationTime></creationInfo></pick><pick publicID="Pick/20220602003752.080263.35189"><time><value>2022-06-01T23:38:20.425483Z</value><lowerUncertainty>0.1000000015</lowerUncertainty><upperUncertainty>0.1000000015</upperUncertainty></time><waveformID networkCode="CM" stationCode="OCA" locationCode="00" channelCode="HHZ"/><phaseHint>P</phaseHint><evaluationMode>manual</evaluationMode><creationInfo><agencyID>SGC</agencyID><creationTime>2022-06-02T00:37:52.080327Z</creationTime></creationInfo></pick><pick publicID="Pick/20220602003752.080386.35190"><time><value>2022-06-01T23:38:56.591876Z</value></time><waveformID networkCode="CM" stationCode="OCA" locationCode="00" channelCode="HHN"/><phaseHint>S</phaseHint><evaluationMode>manual</evaluationMode><creationInfo><agencyID>SGC</agencyID><creationTime>2022-06-02T00:37:52.080447Z</creationTime></creationInfo></pick><pick publicID="Pick/20220602003752.080517.35191"><time><value>2022-06-01T23:38:18.215555Z</value><lowerUncertainty>0.1000000015</lowerUncertainty><upperUncertainty>0.1000000015</upperUncertainty></time><waveformID networkCode="CM" stationCode="URE" locationCode="00" channelCode="HHZ"/><phaseHint>P</phaseHint><evaluationMode>manual</evaluationMode><creationInfo><agencyID>SGC</agencyID><creationTime>2022-06-02T00:37:52.080582Z</creationTime></creationInfo></pick><pick publicID="Pick/20220602003752.080645.35192"><time><value>2022-06-01T23:38:55.316919Z</value></time><waveformID networkCode="CM" stationCode="URE" locationCode="00" channelCode="HHN"/><phaseHint>S</phaseHint><evaluationMode>manual</evaluationMode><creationInfo><agencyID>SGC</agencyID><creationTime>2022-06-02T00:37:52.080707Z</creationTime></creationInfo></pick><pick publicID="Pick/20220602003752.080788.35193"><time><value>2022-06-01T23:38:36.659996Z</value><lowerUncertainty>0.1000000015</lowerUncertainty><upperUncertainty>0.1000000015</upperUncertainty></time><waveformID networkCode="CM" stationCode="DRL03" locationCode="30" channelCode="HHZ"/><filterID>BW(3,5,10)</filterID><phaseHint>P</phaseHint><evaluationMode>manual</evaluationMode><creationInfo><agencyID>SGC</agencyID><creationTime>2022-06-02T00:37:52.080856Z</creationTime></creationInfo></pick><pick publicID="Pick/20220602003752.080915.35194"><time><value>2022-06-01T23:39:20.688648Z</value><lowerUncertainty>0.1000000015</lowerUncertainty><u