<?xml version="1.0" encoding="UTF-8"?>
<seiscomp xmlns="http://geofon.gfz-potsdam.de/ns/seiscomp3-schema/0.12" version="0.12">
  <EventParameters publicID="smi:local/catalog/027432da-e43a-41f2-b6e0-90ac84a7bb84">
    <pick publicID="smi:local/20191224.195640.49-P-CM.URMC.00.HH">
      <time>
        <value>2019-12-24T19:56:40.498393Z</value>
        <uncertainty>0.2</uncertainty>
        <confidenceLevel>79.0</confidenceLevel>
      </time>
      <waveformID networkCode="CM" stationCode="URMC" locationCode="00" channelCode="HHZ">
        <resourceURI>smi:local/CM.URMC.00.HHZ</resourceURI>
      </waveformID>
      <methodID>smi:local/EQTransformer</methodID>
      <phaseHint>P</phaseHint>
      <evaluationMode>automatic</evaluationMode>
      <creationInfo>
        <author>EQTransformer</author>
        <creationTime>2023-01-19T14:09:46.277109Z</creationTime>
      </creationInfo>
      <comment>
        <text>{"probability": 0.79, "GaMMA_probability": 1.965125602997957e-06, "snr": 27.0, "detection_probability": 0.87, "event_start_time": "2019-12-24 19:56:40.338393", "event_end_time": "2019-12-24 19:56:46.028393"}</text>
        <id>smi:local/e6daf532-02a6-4023-8950-1a084a44b4e7</id>
      </comment>
    </pick>
    <pick publicID="smi:local/20191224.195644.42-S-CM.URMC.00.HH">
      <time>
        <value>2019-12-24T19:56:44.428393Z</value>
        <uncertainty>0.2</uncertainty>
        <confidenceLevel>62.0</confidenceLevel>
      </time>
      <waveformID networkCode="CM" stationCode="URMC" locationCode="00" channelCode="HHZ">
        <resourceURI>smi:local/CM.URMC.00.HHZ</resourceURI>
      </waveformID>
      <methodID>smi:local/EQTransformer</methodID>
      <phaseHint>S</phaseHint>
      <evaluationMode>automatic</evaluationMode>
      <creationInfo>
        <author>EQTransformer</author>
        <creationTime>2023-01-19T14:09:46.277974Z</creationTime>
      </creationInfo>
      <comment>
        <text>{"probability": 0.62, "GaMMA_probability": 2.4283749093416853e-06, "snr": 11.8, "detection_probability": 0.87, "event_start_time": "2019-12-24 19:56:40.338393", "event_end_time": "2019-12-24 19:56:46.028393"}</text>
        <id>smi:local/7fdd4bef-4309-4a81-86d8-11cfe09351c4</id>
      </comment>
    </pick>
    <pick publicID="smi:local/20191224.195655.86-P-CM.ORTC.00.HH">
      <time>
        <value>2019-12-24T19:56:55.868393Z</value>
        <uncertainty>0.2</uncertainty>
        <confidenceLevel>65.0</confidenceLevel>
      </time>
      <waveformID networkCode="CM" stationCode="ORTC" locationCode="00" channelCode="HHZ">
        <resourceURI>smi:local/CM.ORTC.00.HHZ</resourceURI>
      </waveformID>
      <methodID>smi:local/EQTransformer</methodID>
      <phaseHint>P</phaseHint>
      <evaluationMode>automatic</evaluationMode>
      <creationInfo>
        <author>EQTransformer</author>
        <creationTime>2023-01-19T14:09:46.278510Z</creationTime>
      </creationInfo>
      <comment>
        <text>{"probability": 0.65, "GaMMA_probability": 8.232169860340049e-06, "snr": 11.9, "detection_probability": 0.96, "event_start_time": "2019-12-24 19:56:55.498393", "event_end_time": "2019-12-24 19:57:22.998393"}</text>
        <id>smi:local/b8ef492e-dedb-456a-ae0f-86bee074aa9f</id>
      </comment>
    </pick>
    <pick publicID="smi:local/20191224.195657.64-P-CM.CHI.00.HH">
      <time>
        <value>2019-12-24T19:56:57.648394Z</value>
        <uncertainty>0.2</uncertainty>
        <confidenceLevel>54.0</confidenceLevel>
      </time>
      <waveformID networkCode="CM" stationCode="CHI" locationCode="00" channelCode="HHZ">
        <resourceURI>smi:local/CM.CHI.00.HHZ</resourceURI>
      </waveformID>
      <methodID>smi:local/EQTransformer</methodID>
      <phaseHint>P</phaseHint>
      <evaluationMode>automatic</evaluationMode>
      <creationInfo>
        <author>EQTransformer</author>
        <creationTime>2023-01-19T14:09:46.279060Z</creationTime>
      </creationInfo>
      <comment>
        <text>{"probability": 0.54, "GaMMA_probability": 1.083986087858577e-05, "snr": 18.1, "detection_probability": 0.88, "event_start_time": "2019-12-24 19:56:57.348394", "event_end_time": "2019-12-24 19:57:22.168394"}</text>
        <id>smi:local/a16f63a3-e59c-4a0f-b9af-c1bd9b624ac2</id>
      </comment>
    </pick>
    <pick publicID="smi:local/20191224.195710.48-S-CM.CHI.00.HH">
      <time>
        <value>2019-12-24T19:57:10.488394Z</value>
        <uncertainty>0.2</uncertainty>
        <confidenceLevel>4.0</confidenceLevel>
      </time>
      <waveformID networkCode="CM" stationCode="CHI" locationCode="00" channelCode="HHZ">
        <resourceURI>smi:local/CM.CHI.00.HHZ</resourceURI>
      </waveformID>
      <methodID>smi:local/EQTransformer</methodID>
      <phaseHint>S</phaseHint>
      <evaluationMode>automatic</evaluationMode>
      <creationInfo>
        <author>EQTransformer</author>
        <creationTime>2023-01-19T14:09:46.279624Z</creationTime>
      </creationInfo>
      <comment>
        <text>{"probability": 0.04, "GaMMA_probability": 7.70645104884309e-06, "snr": 2.7, "detection_probability": 0.88, "event_start_time": "2019-12-24 19:56:57.348394", "event_end_time": "2019-12-24 19:57:22.168394"}</text>
        <id>smi:local/696a14fe-c366-42d7-9a5b-8cfc2de6f0db</id>
      </comment>
    </pick>
    <pick publicID="smi:local/20191224.191035.99-P-CM.ORTC.00.HH">
      <time>
        <value>2019-12-24T19:10:35.998393Z</value>
        <uncertainty>0.2</uncertainty>
        <confidenceLevel>92.0</confidenceLevel>
      </time>
      <waveformID networkCode="CM" stationCode="ORTC" locationCode="00" channelCode="HHZ">
        <resourceURI>smi:local/CM.ORTC.00.HHZ</resourceURI>
      </waveformID>
      <methodID>smi:local/EQTransformer</methodID>
      <phaseHint>P</phaseHint>
      <evaluationMode>automatic</evaluationMode>
      <creationInfo>
        <author>EQTransformer</author>
        <creationTime>2023-01-19T14:09:46.295295Z</creationTime>
      </creationInfo>
      <comment>
        <text>{"probability": 0.92, "GaMMA_probability": 1.965125602997957e-06, "snr": 2.5, "detection_probability": 0.99, "event_start_time": "2019-12-24 19:10:35.948393", "event_end_time": "2019-12-24 19:11:04.798393"}</text>
        <id>smi:local/df5bd4dd-4a5b-4400-9485-7ad73f34f693</id>
      </comment>
    </pick>
    <pick publicID="smi:local/20191224.191038.10-P-CM.CHI.00.HH">
      <time>
        <value>2019-12-24T19:10:38.108394Z</value>
        <uncertainty>0.2</uncertainty>
        <confidenceLevel>46.0</confidenceLevel>
      </time>
      <waveformID networkCode="CM" stationCode="CHI" locationCode="00" channelCode="HHZ">
        <resourceURI>smi:local/CM.CHI.00.HHZ</resourceURI>
      </waveformID>
      <methodID>smi:local/EQTransformer</methodID>
      <phaseHint>P</phaseHint>
      <evaluationMode>automatic</evaluationMode>
      <creationInfo>
        <author>EQTransformer</author>
        <creationTime>2023-01-19T14:09:46.295805Z</creationTime>
      </creationInfo>
      <comment>
        <text>{"probability": 0.46, "GaMMA_probability": 2.4283749093416853e-06, "snr": 2.6, "detection_probability": 0.93, "event_start_time": "2019-12-24 19:10:37.918394", "event_end_time": "2019-12-24 19:11:03.618394"}</text>
        <id>smi:local/40798378-0433-431f-8e95-4f62fe85633b</id>
      </comment>
    </pick>
    <pick publicID="smi:local/20191224.191055.92-S-CM.CHI.00.HH">
      <time>
        <value>2019-12-24T19:10:55.928394Z</value>
        <uncertainty>0.2</uncertainty>
        <confidenceLevel>18.0</confidenceLevel>
      </time>
      <waveformID networkCode="CM" stationCode="CHI" locationCode="00" channelCode="HHZ">
        <resourceURI>smi:local/CM.CHI.00.HHZ</resourceURI>
      </waveformID>
      <methodID>smi:local/EQTransformer</methodID>
      <phaseHint>S</phaseHint>
      <evaluationMode>automatic</evaluationMode>
      <creationInfo>
        <author>EQTransformer</author>
        <creationTime>2023-01-19T14:09:46.296322Z</creationTime>
      </creationInfo>
      <comment>
        <text>{"probability": 0.18, "GaMMA_probability": 8.232169860340049e-06, "snr": 1.6, "detection_probability": 0.93, "event_start_time": "2019-12-24 19:10:37.918394", "event_end_time": "2019-12-24 19:11:03.618394"}</text>
        <id>smi:local/c5cd4f40-d21d-4d49-95ae-b6e62ee729e0</id>
      </comment>
    </pick>
    <pick publicID="smi:local/20191224.191056.33-S-CM.ORTC.00.HH">
      <time>
        <value>2019-12-24T19:10:56.338393Z</value>
        <uncertainty>0.2</uncertainty>
        <confidenceLevel>54.0</confidenceLevel>
      </time>
      <waveformID networkCode="CM" stationCode="ORTC" locationCode="00" channelCode="HHZ">
        <resourceURI>smi:local/CM.ORTC.00.HHZ</resourceURI>
      </waveformID>
      <methodID>smi:local/EQTransformer</methodID>
      <phaseHint>S</phaseHint>
      <evaluationMode>automatic</evaluationMode>
      <creationInfo>
        <author>EQTransformer</author>
        <creationTime>2023-01-19T14:09:46.296883Z</creationTime>
      </creationInfo>
      <comment>
        <text>{"probability": 0.54, "GaMMA_probability": 1.083986087858577e-05, "snr": 13.2, "detection_probability": 0.99, "event_start_time": "2019-12-24 19:10:35.948393", "event_end_time": "2019-12-24 19:11:04.798393"}</text>
        <id>smi:local/4ea6199d-4cc2-423f-aa3d-3dcc9a029e62</id>
      </comment>
    </pick>
    <pick publicID="smi:local/20191224.191111.34-S-CM.URMC.00.HH">
      <time>
        <value>2019-12-24T19:11:11.348393Z</value>
        <uncertainty>0.2</uncertainty>
        <confidenceLevel>46.0</confidenceLevel>
      </time>
      <waveformID networkCode="CM" stationCode="URMC" locationCode="00" channelCode="HHZ">
        <resourceURI>smi:local/CM.URMC.00.HHZ</resourceURI>
      </waveformID>
      <methodID>smi:local/EQTransformer</methodID>
      <phaseHint>S</phaseHint>
      <evaluationMode>automatic</evaluationMode>
      <creationInfo>
        <author>EQTransformer</author>
        <creationTime>2023-01-19T14:09:46.297425Z</creationTime>
      </creationInfo>
      <comment>
        <text>{"probability": 0.46, "GaMMA_probability": 7.70645104884309e-06, "snr": 18.0, "detection_probability": 0.89, "event_start_time": "2019-12-24 19:11:06.968393", "event_end_time": "2019-12-24 19:11:13.388393"}</text>
        <id>smi:local/3fa6c85e-e3e6-47ae-aa68-39023fe68dcc</id>
      </comment>
    </pick>
    <pick publicID="smi:local/20191224.193210.98-P-CM.ORTC.00.HH">
      <time>
        <value>2019-12-24T19:32:10.988393Z</value>
        <uncertainty>0.2</uncertainty>
        <confidenceLevel>72.0</confidenceLevel>
      </time>
      <waveformID networkCode="CM" stationCode="ORTC" locationCode="00" channelCode="HHZ">
        <resourceURI>smi:local/CM.ORTC.00.HHZ</resourceURI>
      </waveformID>
      <methodID>smi:local/EQTransformer</methodID>
      <phaseHint>P</phaseHint>
      <evaluationMode>automatic</evaluationMode>
      <creationInfo>
        <author>EQTransformer</author>
        <creationTime>2023-01-19T14:09:46.314510Z</creationTime>
      </creationInfo>
      <comment>
        <text>{"probability": 0.72, "GaMMA_probability": 1.965125602997957e-06, "snr": 12.1, "detection_probability": 0.3, "event_start_time": "2019-12-24 19:32:10.958393", "event_end_time": "2019-12-24 19:32:29.988393"}</text>
        <id>smi:local/4170a8bd-614e-41ae-8df0-efc914ebabb3</id>
      </comment>
    </pick>
    <pick publicID="smi:local/20191224.193216.08-P-CM.CHI.00.HH">
      <time>
        <value>2019-12-24T19:32:16.088394Z</value>
        <uncertainty>0.2</uncertainty>
        <confidenceLevel>10.0</confidenceLevel>
      </time>
      <waveformID networkCode="CM" stationCode="CHI" locationCode="00" channelCode="HHZ">
        <resourceURI>smi:local/CM.CHI.00.HHZ</resourceURI>
      </waveformID>
      <methodID>smi:local/EQTransformer</methodID>
      <phaseHint>P</phaseHint>
      <evaluationMode>automatic</evaluationMode>
      <creationInfo>
        <author>EQTransformer</author>
        <creationTime>2023-01-19T14:09:46.315113Z</creationTime>
      </creationInfo>
      <comment>
        <text>{"probability": 0.1, "GaMMA_probability": 2.4283749093416853e-06, "snr": 2.9, "detection_probability": 0.61, "event_start_time": "2019-12-24 19:32:11.998394", "event_end_time": "2019-12-24 19:32:37.278394"}</text>
        <id>smi:local/8a3aec49-8628-4510-9083-314bbe50425c</id>
      </comment>
    </pick>
    <pick publicID="smi:local/20191224.193222.13-P-CM.URMC.00.HH">
      <time>
        <value>2019-12-24T19:32:22.138393Z</value>
        <uncertainty>0.2</uncertainty>
        <confidenceLevel>49.0</confidenceLevel>
      </time>
      <waveformID networkCode="CM" stationCode="URMC" locationCode="00" channelCode="HHZ">
        <resourceURI>smi:local/CM.URMC.00.HHZ</resourceURI>
      </waveformID>
      <methodID>smi:local/EQTransformer</methodID>
      <phaseHint>P</phaseHint>
      <evaluationMode>automatic</evaluationMode>
      <creationInfo>
        <author>EQTransformer</author>
        <creationTime>2023-01-19T14:09:46.315640Z</creationTime>
      </creationInfo>
      <comment>
        <text>{"probability": 0.49, "GaMMA_probability": 8.232169860340049e-06, "snr": 13.9, "detection_probability": 0.94, "event_start_time": "2019-12-24 19:32:21.958393", "event_end_time": "2019-12-24 19:32:28.438393"}</text>
        <id>smi:local/05d465dc-3925-4436-bf85-aeb1977fa0c3</id>
      </comment>
    </pick>
    <pick publicID="smi:local/20191224.193226.24-S-CM.ORTC.00.HH">
      <time>
        <value>2019-12-24T19:32:26.248393Z</value>
        <uncertainty>0.2</uncertainty>
        <confidenceLevel>6.0</confidenceLevel>
      </time>
      <waveformID networkCode="CM" stationCode="ORTC" locationCode="00" channelCode="HHZ">
        <resourceURI>smi:local/CM.ORTC.00.HHZ</resourceURI>
      </waveformID>
      <methodID>smi:local/EQTransformer</methodID>
      <phaseHint>S</phaseHint>
      <evaluationMode>automatic</evaluationMode>
      <creationInfo>
        <author>EQTransformer</author>
        <creationTime>2023-01-19T14:09:46.316107Z</creationTime>
      </creationInfo>
      <comment>
        <text>{"probability": 0.06, "GaMMA_probability": 1.083986087858577e-05, "snr": 5.0, "detection_probability": 0.3, "event_start_time": "2019-12-24 19:32:10.958393", "event_end_time": "2019-12-24 19:32:29.988393"}</text>
        <id>smi:local/a8ae93b5-969b-4bde-9e04-0f3413efaed7</id>
      </comment>
    </pick>
    <pick publicID="smi:local/20191224.193230.59-S-CM.CHI.00.HH">
      <time>
        <value>2019-12-24T19:32:30.598394Z</value>
        <uncertainty>0.2</uncertainty>
        <confidenceLevel>35.0</confidenceLevel>
      </time>
      <waveformID networkCode="CM" stationCode="CHI" locationCode="00" channelCode="HHZ">
        <resourceURI>smi:local/CM.CHI.00.HHZ</resourceURI>
      </waveformID>
      <methodID>smi:local/EQTransformer</methodID>
      <phaseHint>S</phaseHint>
      <evaluationMode>automatic</evaluationMode>
      <creationInfo>
        <author>EQTransformer</author>
        <creationTime>2023-01-19T14:09:46.316634Z</creationTime>
      </creationInfo>
      <comment>
        <text>{"probability": 0.35, "GaMMA_probability": 7.70645104884309e-06, "snr": 2.9, "detection_probability": 0.61, "event_start_time": "2019-12-24 19:32:11.998394", "event_end_time": "2019-12-24 19:32:37.278394"}</text>
        <id>smi:local/505318e8-9b43-460c-822d-c4f9286e6eaa</id>
      </comment>
    </pick>
    <pick publicID="smi:local/20191224.192527.94-P-CM.URMC.00.HH">
      <time>
        <value>2019-12-24T19:25:27.948393Z</value>
        <uncertainty>0.2</uncertainty>
        <confidenceLevel>78.0</confidenceLevel>
      </time>
      <waveformID networkCode="CM" stationCode="URMC" locationCode="00" channelCode="HHZ">
        <resourceURI>smi:local/CM.URMC.00.HHZ</resourceURI>
      </waveformID>
      <methodID>smi:local/EQTransformer</methodID>
      <phaseHint>P</phaseHint>
      <evaluationMode>automatic</evaluationMode>
      <creationInfo>
        <author>EQTransformer</author>
        <creationTime>2023-01-19T14:09:46.332073Z</creationTime>
      </creationInfo>
      <comment>
        <text>{"probability": 0.78, "GaMMA_probability": 1.965125602997957e-06, "snr": 17.2, "detection_probability": 0.9, "event_start_time": "2019-12-24 19:25:27.828393", "event_end_time": "2019-12-24 19:25:33.848393"}</text>
        <id>smi:local/f11e88a6-e759-44ec-af5c-2cf878293171</id>
      </comment>
    </pick>
    <pick publicID="smi:local/20191224.192531.73-S-CM.URMC.00.HH">
      <time>
        <value>2019-12-24T19:25:31.738393Z</value>
        <uncertainty>0.2</uncertainty>
        <confidenceLevel>28.999999999999996</confidenceLevel>
      </time>
      <waveformID networkCode="CM" stationCode="URMC" locationCode="00" channelCode="HHZ">
        <resourceURI>smi:local/CM.URMC.00.HHZ</resourceURI>
      </waveformID>
      <methodID>smi:local/EQTransformer</methodID>
      <phaseHint>S</phaseHint>
      <evaluationMode>automatic</evaluationMode>
      <creationInfo>
        <author>EQTransformer</author>
        <creationTime>2023-01-19T14:09:46.332641Z</creationTime>
      </creationInfo>
      <comment>
        <text>{"probability": 0.29, "GaMMA_probability": 2.4283749093416853e-06, "snr": 17.1, "detection_probability": 0.9, "event_start_time": "2019-12-24 19:25:27.828393", "event_end_time": "2019-12-24 19:25:33.848393"}</text>
        <id>smi:local/439bc412-02a3-4fe9-9703-83975995cf8b</id>
      </comment>
    </pick>
    <pick publicID="smi:local/20191224.192542.83-P-CM.ORTC.00.HH">
      <time>
        <value>2019-12-24T19:25:42.838393Z</value>
        <uncertainty>0.2</uncertainty>
        <confidenceLevel>72.0</confidenceLevel>
      </time>
      <waveformID networkCode="CM" stationCode="ORTC" locationCode="00" channelCode="HHZ">
        <resourceURI>smi:local/CM.ORTC.00.HHZ</resourceURI>
      </waveformID>
      <methodID>smi:local/EQTransformer</methodID>
      <phaseHint>P</phaseHint>
      <evaluationMode>automatic</evaluationMode>
      <creationInfo>
        <author>EQTransformer</author>
        <creationTime>2023-01-19T14:09:46.333173Z</creationTime>
      </creationInfo>
      <comment>
        <text>{"probability": 0.72, "GaMMA_probability": 8.232169860340049e-06, "snr": 14.7, "detection_probability": 0.86, "event_start_time": "2019-12-24 19:25:42.748393", "event_end_time": "2019-12-24 19:26:04.598393"}</text>
        <id>smi:local/e543be1c-26e4-403f-89fe-13d75bcece72</id>
      </comment>
    </pick>
    <pick publicID="smi:local/20191224.192545.43-P-CM.CHI.00.HH">
      <time>
        <value>2019-12-24T19:25:45.438394Z</value>
        <uncertainty>0.2</uncertainty>
        <confidenceLevel>7.000000000000001</confidenceLevel>
      </time>
      <waveformID networkCode="CM" stationCode="CHI" locationCode="00" channelCode="HHZ">
        <resourceURI>smi:local/CM.CHI.00.HHZ</resourceURI>
      </waveformID>
      <methodID>smi:local/EQTransformer</methodID>
      <phaseHint>P</phaseHint>
      <evaluationMode>automatic</evaluationMode>
      <creationInfo>
        <author>EQTransformer</author>
        <creationTime>2023-01-19T14:09:46.333647Z</creationTime>
      </creationInfo>
      <comment>
        <text>{"probability": 0.07, "GaMMA_probability": 1.083986087858577e-05, "snr": 6.7, "detection_probability": 0.11, "event_start_time": "2019-12-24 19:25:45.518394", "event_end_time": "2019-12-24 19:25:49.348394"}</text>
        <id>smi:local/d00aaf9f-bff5-4257-a43d-f67b46d1294b</id>
      </comment>
    </pick>
    <pick publicID="smi:local/20191224.192558.24-S-CM.ORTC.00.HH">
      <time>
        <value>2019-12-24T19:25:58.248393Z</value>
        <uncertainty>0.2</uncertainty>
        <confidenceLevel>45.0</confidenceLevel>
      </time>
      <waveformID networkCode="CM" stationCode="ORTC" locationCode="00" channelCode="HHZ">
        <resourceURI>smi:local/CM.ORTC.00.HHZ</resourceURI>
      </waveformID>
