<?xml version="1.0" encoding="UTF-8"?>
<seiscomp xmlns="http://geofon.gfz-potsdam.de/ns/seiscomp3-schema/0.12" version="0.12">
  <EventParameters publicID="smi:local/catalog/d730246b-1d87-4e2a-9cc5-3b44952443b7">
    <pick publicID="smi:local/20191224.191550.27-P-CM.URMC.00.HH">
      <time>
        <value>2019-12-24T19:15:50.278394Z</value>
        <uncertainty>0.2</uncertainty>
        <confidenceLevel>96.603584</confidenceLevel>
      </time>
      <waveformID networkCode="CM" stationCode="URMC" locationCode="00" channelCode="HHZ">
        <resourceURI>smi:local/CM.URMC.00.HHZ</resourceURI>
      </waveformID>
      <methodID>smi:local/PhaseNet</methodID>
      <phaseHint>P</phaseHint>
      <evaluationMode>automatic</evaluationMode>
      <creationInfo>
        <author>PhaseNet</author>
        <creationTime>2023-01-19T13:23:30.422487Z</creationTime>
      </creationInfo>
      <comment>
        <text>{"probability": 0.96603584, "GaMMA_probability": 5.201637313177043e-06}</text>
        <id>smi:local/1d1c9fc4-1564-45b1-a5ab-004dbd2b7772</id>
      </comment>
    </pick>
    <pick publicID="smi:local/20191224.191554.64-S-CM.URMC.00.HH">
      <time>
        <value>2019-12-24T19:15:54.648393Z</value>
        <uncertainty>0.2</uncertainty>
        <confidenceLevel>70.729774</confidenceLevel>
      </time>
      <waveformID networkCode="CM" stationCode="URMC" locationCode="00" channelCode="HHZ">
        <resourceURI>smi:local/CM.URMC.00.HHZ</resourceURI>
      </waveformID>
      <methodID>smi:local/PhaseNet</methodID>
      <phaseHint>S</phaseHint>
      <evaluationMode>automatic</evaluationMode>
      <creationInfo>
        <author>PhaseNet</author>
        <creationTime>2023-01-19T13:23:30.423263Z</creationTime>
      </creationInfo>
      <comment>
        <text>{"probability": 0.70729774, "GaMMA_probability": 4.428122102475832e-06}</text>
        <id>smi:local/913d5949-5ce9-4527-a8c2-66d2391a56ff</id>
      </comment>
    </pick>
    <pick publicID="smi:local/20191224.191604.90-P-CM.ORTC.00.HH">
      <time>
        <value>2019-12-24T19:16:04.908393Z</value>
        <uncertainty>0.2</uncertainty>
        <confidenceLevel>89.216805</confidenceLevel>
      </time>
      <waveformID networkCode="CM" stationCode="ORTC" locationCode="00" channelCode="HHZ">
        <resourceURI>smi:local/CM.ORTC.00.HHZ</resourceURI>
      </waveformID>
      <methodID>smi:local/PhaseNet</methodID>
      <phaseHint>P</phaseHint>
      <evaluationMode>automatic</evaluationMode>
      <creationInfo>
        <author>PhaseNet</author>
        <creationTime>2023-01-19T13:23:30.423749Z</creationTime>
      </creationInfo>
      <comment>
        <text>{"probability": 0.89216805, "GaMMA_probability": 5.6457404771063765e-06}</text>
        <id>smi:local/8325c530-6a6b-45b2-bbc1-cbf726ca539d</id>
      </comment>
    </pick>
    <pick publicID="smi:local/20191224.191606.98-P-CM.CHI.00.HH">
      <time>
        <value>2019-12-24T19:16:06.988394Z</value>
        <uncertainty>0.2</uncertainty>
        <confidenceLevel>87.56902</confidenceLevel>
      </time>
      <waveformID networkCode="CM" stationCode="CHI" locationCode="00" channelCode="HHZ">
        <resourceURI>smi:local/CM.CHI.00.HHZ</resourceURI>
      </waveformID>
      <methodID>smi:local/PhaseNet</methodID>
      <phaseHint>P</phaseHint>
      <evaluationMode>automatic</evaluationMode>
      <creationInfo>
        <author>PhaseNet</author>
        <creationTime>2023-01-19T13:23:30.424299Z</creationTime>
      </creationInfo>
      <comment>
        <text>{"probability": 0.8756902, "GaMMA_probability": 7.64358984363595e-06}</text>
        <id>smi:local/2101313b-4b70-424e-a37f-29e8b577c206</id>
      </comment>
    </pick>
    <pick publicID="smi:local/20191224.191624.36-S-CM.ORTC.00.HH">
      <time>
        <value>2019-12-24T19:16:24.368393Z</value>
        <uncertainty>0.2</uncertainty>
        <confidenceLevel>78.22291</confidenceLevel>
      </time>
      <waveformID networkCode="CM" stationCode="ORTC" locationCode="00" channelCode="HHZ">
        <resourceURI>smi:local/CM.ORTC.00.HHZ</resourceURI>
      </waveformID>
      <methodID>smi:local/PhaseNet</methodID>
      <phaseHint>S</phaseHint>
      <evaluationMode>automatic</evaluationMode>
      <creationInfo>
        <author>PhaseNet</author>
        <creationTime>2023-01-19T13:23:30.424745Z</creationTime>
      </creationInfo>
      <comment>
        <text>{"probability": 0.7822291, "GaMMA_probability": 8.809264191329742e-06}</text>
        <id>smi:local/fb2eb339-c107-47c4-be2d-b1573c6529b2</id>
      </comment>
    </pick>
    <pick publicID="smi:local/20191224.194815.17-P-CM.URMC.00.HH">
      <time>
        <value>2019-12-24T19:48:15.178394Z</value>
        <uncertainty>0.2</uncertainty>
        <confidenceLevel>90.58251</confidenceLevel>
      </time>
      <waveformID networkCode="CM" stationCode="URMC" locationCode="00" channelCode="HHZ">
        <resourceURI>smi:local/CM.URMC.00.HHZ</resourceURI>
      </waveformID>
      <methodID>smi:local/PhaseNet</methodID>
      <phaseHint>P</phaseHint>
      <evaluationMode>automatic</evaluationMode>
      <creationInfo>
        <author>PhaseNet</author>
        <creationTime>2023-01-19T13:23:30.439876Z</creationTime>
      </creationInfo>
      <comment>
        <text>{"probability": 0.9058251, "GaMMA_probability": 5.201637313177043e-06}</text>
        <id>smi:local/8b7162e2-8db3-4ad3-a63e-afd0ff424ea0</id>
      </comment>
    </pick>
    <pick publicID="smi:local/20191224.194818.91-S-CM.URMC.00.HH">
      <time>
        <value>2019-12-24T19:48:18.918393Z</value>
        <uncertainty>0.2</uncertainty>
        <confidenceLevel>87.36466</confidenceLevel>
      </time>
      <waveformID networkCode="CM" stationCode="URMC" locationCode="00" channelCode="HHZ">
        <resourceURI>smi:local/CM.URMC.00.HHZ</resourceURI>
      </waveformID>
      <methodID>smi:local/PhaseNet</methodID>
      <phaseHint>S</phaseHint>
      <evaluationMode>automatic</evaluationMode>
      <creationInfo>
        <author>PhaseNet</author>
        <creationTime>2023-01-19T13:23:30.440412Z</creationTime>
      </creationInfo>
      <comment>
        <text>{"probability": 0.8736466, "GaMMA_probability": 4.428122102475832e-06}</text>
        <id>smi:local/c832dcae-b810-47d1-956f-7f0481b6ff56</id>
      </comment>
    </pick>
    <pick publicID="smi:local/20191224.194830.48-P-CM.ORTC.00.HH">
      <time>
        <value>2019-12-24T19:48:30.488393Z</value>
        <uncertainty>0.2</uncertainty>
        <confidenceLevel>88.27814000000001</confidenceLevel>
      </time>
      <waveformID networkCode="CM" stationCode="ORTC" locationCode="00" channelCode="HHZ">
        <resourceURI>smi:local/CM.ORTC.00.HHZ</resourceURI>
      </waveformID>
      <methodID>smi:local/PhaseNet</methodID>
      <phaseHint>P</phaseHint>
      <evaluationMode>automatic</evaluationMode>
      <creationInfo>
        <author>PhaseNet</author>
        <creationTime>2023-01-19T13:23:30.440885Z</creationTime>
      </creationInfo>
      <comment>
        <text>{"probability": 0.8827814, "GaMMA_probability": 5.6457404771063765e-06}</text>
        <id>smi:local/bc16510c-dea6-489e-b17c-9b12ce5b6105</id>
      </comment>
    </pick>
    <pick publicID="smi:local/20191224.194833.28-P-CM.CHI.00.HH">
      <time>
        <value>2019-12-24T19:48:33.288394Z</value>
        <uncertainty>0.2</uncertainty>
        <confidenceLevel>78.189105</confidenceLevel>
      </time>
      <waveformID networkCode="CM" stationCode="CHI" locationCode="00" channelCode="HHZ">
        <resourceURI>smi:local/CM.CHI.00.HHZ</resourceURI>
      </waveformID>
      <methodID>smi:local/PhaseNet</methodID>
      <phaseHint>P</phaseHint>
      <evaluationMode>automatic</evaluationMode>
      <creationInfo>
        <author>PhaseNet</author>
        <creationTime>2023-01-19T13:23:30.441327Z</creationTime>
      </creationInfo>
      <comment>
        <text>{"probability": 0.78189105, "GaMMA_probability": 7.64358984363595e-06}</text>
        <id>smi:local/e018890e-2115-4e2c-9f49-b0312313fc09</id>
      </comment>
    </pick>
    <pick publicID="smi:local/20191224.194845.99-S-CM.ORTC.00.HH">
      <time>
        <value>2019-12-24T19:48:45.998393Z</value>
        <uncertainty>0.2</uncertainty>
        <confidenceLevel>63.68468000000001</confidenceLevel>
      </time>
      <waveformID networkCode="CM" stationCode="ORTC" locationCode="00" channelCode="HHZ">
        <resourceURI>smi:local/CM.ORTC.00.HHZ</resourceURI>
      </waveformID>
      <methodID>smi:local/PhaseNet</methodID>
      <phaseHint>S</phaseHint>
      <evaluationMode>automatic</evaluationMode>
      <creationInfo>
        <author>PhaseNet</author>
        <creationTime>2023-01-19T13:23:30.441802Z</creationTime>
      </creationInfo>
      <comment>
        <text>{"probability": 0.6368468, "GaMMA_probability": 8.809264191329742e-06}</text>
        <id>smi:local/9824a800-8d2f-4ad1-af1b-608e1125f128</id>
      </comment>
    </pick>
    <pick publicID="smi:local/20191224.195339.47-P-CM.URMC.00.HH">
      <time>
        <value>2019-12-24T19:53:39.478393Z</value>
        <uncertainty>0.2</uncertainty>
        <confidenceLevel>94.60664</confidenceLevel>
      </time>
      <waveformID networkCode="CM" stationCode="URMC" locationCode="00" channelCode="HHZ">
        <resourceURI>smi:local/CM.URMC.00.HHZ</resourceURI>
      </waveformID>
      <methodID>smi:local/PhaseNet</methodID>
      <phaseHint>P</phaseHint>
      <evaluationMode>automatic</evaluationMode>
      <creationInfo>
        <author>PhaseNet</author>
        <creationTime>2023-01-19T13:23:30.456758Z</creationTime>
      </creationInfo>
      <comment>
        <text>{"probability": 0.9460664, "GaMMA_probability": 5.201637313177043e-06}</text>
        <id>smi:local/7ca5e61c-e13a-4d33-99e1-e504852e9f14</id>
      </comment>
    </pick>
    <pick publicID="smi:local/20191224.195343.64-S-CM.URMC.00.HH">
      <time>
        <value>2019-12-24T19:53:43.648393Z</value>
        <uncertainty>0.2</uncertainty>
        <confidenceLevel>67.21146999999999</confidenceLevel>
      </time>
      <waveformID networkCode="CM" stationCode="URMC" locationCode="00" channelCode="HHZ">
        <resourceURI>smi:local/CM.URMC.00.HHZ</resourceURI>
      </waveformID>
      <methodID>smi:local/PhaseNet</methodID>
      <phaseHint>S</phaseHint>
      <evaluationMode>automatic</evaluationMode>
      <creationInfo>
        <author>PhaseNet</author>
        <creationTime>2023-01-19T13:23:30.457254Z</creationTime>
      </creationInfo>
      <comment>
        <text>{"probability": 0.6721147, "GaMMA_probability": 4.428122102475832e-06}</text>
        <id>smi:local/d15c88a2-c6d4-4dd2-9bba-c16bd0ef5162</id>
      </comment>
    </pick>
    <pick publicID="smi:local/20191224.195355.18-P-CM.ORTC.00.HH">
      <time>
        <value>2019-12-24T19:53:55.188393Z</value>
        <uncertainty>0.2</uncertainty>
        <confidenceLevel>87.94163999999999</confidenceLevel>
      </time>
      <waveformID networkCode="CM" stationCode="ORTC" locationCode="00" channelCode="HHZ">
        <resourceURI>smi:local/CM.ORTC.00.HHZ</resourceURI>
      </waveformID>
      <methodID>smi:local/PhaseNet</methodID>
      <phaseHint>P</phaseHint>
      <evaluationMode>automatic</evaluationMode>
      <creationInfo>
        <author>PhaseNet</author>
        <creationTime>2023-01-19T13:23:30.457818Z</creationTime>
      </creationInfo>
      <comment>
        <text>{"probability": 0.8794164, "GaMMA_probability": 5.6457404771063765e-06}</text>
        <id>smi:local/0851a6ab-2720-4e57-afa3-1d2bb3d90f9e</id>
      </comment>
    </pick>
    <pick publicID="smi:local/20191224.195357.49-P-CM.CHI.00.HH">
      <time>
        <value>2019-12-24T19:53:57.498393Z</value>
        <uncertainty>0.2</uncertainty>
        <confidenceLevel>90.04247</confidenceLevel>
      </time>
      <waveformID networkCode="CM" stationCode="CHI" locationCode="00" channelCode="HHZ">
        <resourceURI>smi:local/CM.CHI.00.HHZ</resourceURI>
      </waveformID>
      <methodID>smi:local/PhaseNet</methodID>
      <phaseHint>P</phaseHint>
      <evaluationMode>automatic</evaluationMode>
      <creationInfo>
        <author>PhaseNet</author>
        <creationTime>2023-01-19T13:23:30.458293Z</creationTime>
      </creationInfo>
      <comment>
        <text>{"probability": 0.9004247, "GaMMA_probability": 7.64358984363595e-06}</text>
        <id>smi:local/de4d01b7-3ede-4cd3-802c-09f4d4f00137</id>
      </comment>
    </pick>
    <pick publicID="smi:local/20191224.195415.80-S-CM.ORTC.00.HH">
      <time>
        <value>2019-12-24T19:54:15.808393Z</value>
        <uncertainty>0.2</uncertainty>
        <confidenceLevel>75.2254</confidenceLevel>
      </time>
      <waveformID networkCode="CM" stationCode="ORTC" locationCode="00" channelCode="HHZ">
        <resourceURI>smi:local/CM.ORTC.00.HHZ</resourceURI>
      </waveformID>
      <methodID>smi:local/PhaseNet</methodID>
      <phaseHint>S</phaseHint>
      <evaluationMode>automatic</evaluationMode>
      <creationInfo>
        <author>PhaseNet</author>
        <creationTime>2023-01-19T13:23:30.458744Z</creationTime>
      </creationInfo>
      <comment>
        <text>{"probability": 0.752254, "GaMMA_probability": 8.809264191329742e-06}</text>
        <id>smi:local/181f9945-e7d4-449b-a809-a456f0757f17</id>
      </comment>
    </pick>
    <pick publicID="smi:local/20191224.195851.62-P-CM.URMC.00.HH">
      <time>
        <value>2019-12-24T19:58:51.628394Z</value>
        <uncertainty>0.2</uncertainty>
        <confidenceLevel>97.05776</confidenceLevel>
      </time>
      <waveformID networkCode="CM" stationCode="URMC" locationCode="00" channelCode="HHZ">
        <resourceURI>smi:local/CM.URMC.00.HHZ</resourceURI>
      </waveformID>
      <methodID>smi:local/PhaseNet</methodID>
      <phaseHint>P</phaseHint>
      <evaluationMode>automatic</evaluationMode>
      <creationInfo>
        <author>PhaseNet</author>
        <creationTime>2023-01-19T13:23:30.473852Z</creationTime>
      </creationInfo>
      <comment>
        <text>{"probability": 0.9705776, "GaMMA_probability": 5.201637313177043e-06}</text>
        <id>smi:local/0d710c00-5624-4b9a-8d9d-3a0034dadea1</id>
      </comment>
    </pick>
    <pick publicID="smi:local/20191224.195856.04-S-CM.URMC.00.HH">
      <time>
        <value>2019-12-24T19:58:56.048394Z</value>
        <uncertainty>0.2</uncertainty>
        <confidenceLevel>72.555536</confidenceLevel>
      </time>
      <waveformID networkCode="CM" stationCode="URMC" locationCode="00" channelCode="HHZ">
        <resourceURI>smi:local/CM.URMC.00.HHZ</resourceURI>
      </waveformID>
      <methodID>smi:local/PhaseNet</methodID>
      <phaseHint>S</phaseHint>
      <evaluationMode>automatic</evaluationMode>
      <creationInfo>
        <author>PhaseNet</author>
        <creationTime>2023-01-19T13:23:30.474388Z</creationTime>
      </creationInfo>
      <comment>
        <text>{"probability": 0.72555536, "GaMMA_probability": 4.428122102475832e-06}</text>
        <id>smi:local/2e6f74cc-8c1a-434a-8723-f46396b32a13</id>
      </comment>
    </pick>
    <pick publicID="smi:local/20191224.195906.54-P-CM.ORTC.00.HH">
      <time>
        <value>2019-12-24T19:59:06.548393Z</value>
        <uncertainty>0.2</uncertainty>
        <confidenceLevel>89.14113</confidenceLevel>
      </time>
      <waveformID networkCode="CM" stationCode="ORTC" locationCode="00" channelCode="HHZ">
        <resourceURI>smi:local/CM.ORTC.00.HHZ</resourceURI>
      </waveformID>
      <methodID>smi:local/PhaseNet</methodID>
      <phaseHint>P</phaseHint>
      <evaluationMode>automatic</evaluationMode>
      <creationInfo>
        <author>PhaseNet</author>
        <creationTime>2023-01-19T13:23:30.474862Z</creationTime>
      </creationInfo>
      <comment>
        <text>{"probability": 0.8914113, "GaMMA_probability": 5.6457404771063765e-06}</text>
        <id>smi:local/9338220f-a2ea-4318-83d4-62435d04405d</id>
      </comment>
    </pick>
    <pick publicID="smi:local/20191224.195908.68-P-CM.CHI.00.HH">
      <time>
        <value>2019-12-24T19:59:08.688393Z</value>
        <uncertainty>0.2</uncertainty>
        <confidenceLevel>77.216065</confidenceLevel>
      </time>
      <waveformID networkCode="CM" stationCode="CHI" locationCode="00" channelCode="HHZ">
        <resourceURI>smi:local/CM.CHI.00.HHZ</resourceURI>
      </waveformID>
      <methodID>smi:local/PhaseNet</methodID>
      <phaseHint>P</phaseHint>
      <evaluationMode>automatic</evaluationMode>
      <creationInfo>
        <author>PhaseNet</author>
        <creationTime>2023-01-19T13:23:30.475296Z</creationTime>
      </creationInfo>
      <comment>
        <text>{"probability": 0.77216065, "GaMMA_probability": 7.64358984363595e-06}</text>
        <id>smi:local/11f69245-ea8c-43eb-8e4b-836aadf2e7a9</id>
      </comment>
    </pick>
    <pick publicID="smi:local/20191224.195925.84-S-CM.ORTC.00.HH">
      <time>
        <value>2019-12-24T19:59:25.848393Z</value>
        <uncertainty>0.2</uncertainty>
        <confidenceLevel>67.43254</confidenceLevel>
      </time>
      <waveformID networkCode="CM" stationCode="ORTC" locationCode="00" channelCode="HHZ">
        <resourceURI>smi:local/CM.ORTC.00.HHZ</resourceURI>
      </waveformID>
      <methodID>smi:local/PhaseNet</methodID>
      <phaseHint>S</phaseHint>
      <evaluationMode>automatic</evaluationMode>
      <creationInfo>
        <author>PhaseNet</author>
        <creationTime>2023-01-19T13:23:30.475758Z</creationTime>
      </creationInfo>
      <comment>
        <text>{"probability": 0.6743254, "GaMMA_probability": 8.809264191329742e-06}</text>
        <id>smi:local/a35026b9-83fc-4fda-b2be-48d0d1496683</id>
      </comment>
    </pick>
    <pick publicID="smi:local/20191224.195640.50-P-CM.URMC.00.HH">
      <time>
        <value>2019-12-24T19:56:40.508394Z</value>
        <uncertainty>0.2</uncertainty>
        <confidenceLevel>97.49333</confidenceLevel>
      </time>
      <waveformID networkCode="CM" stationCode="URMC" locationCode="00" channelCode="HHZ">
        <resourceURI>smi:local/CM.URMC.00.HHZ</resourceURI>
      </waveformID>
      <methodID>smi:local/PhaseNet</methodID>
      <phaseHint>P</phaseHint>
      <evaluationMode>automatic</evaluationMode>
      <creationInfo>
        <author>PhaseNet</author>
        <creationTime>2023-01-19T13:23:30.490881Z</creationTime>
      </creationInfo>
      <comment>
        <text>{"probability": 0.9749333, "GaMMA_probability": 5.201637313177043e-06}</text>
        <id>smi:local/6e551c67-afd6-4545-8d41-7ccce89eb589</id>
      </comment>
    </pick>
    <pick publicID="smi:local/20191224.195644.67-S-CM.URMC.00.HH">
      <time>
        <value>2019-12-24T19:56:44.678393Z</value>
        <uncertainty>0.2</uncertainty>
        <confidenceLevel>69.17173</confidenceLevel>
      </time>
      <waveformID networkCode="CM" stationCode="URMC" locationCode="00" channelCode="HHZ">
        <resourceURI>smi:local/CM.URMC.00.HHZ</resourceURI>
      </waveformID>
      <methodID>smi:local/PhaseNet</methodID>
      <phaseHint>S</phaseHint>
      <evaluationMode>automatic</evaluationMode>
      <creationInfo>
        <author>PhaseNet</author>
        <creationTime>2023-01-19T13:23:30.491415Z</creationTime>
      </creationInfo>
      <comment>
        <text>{"probability": 0.6917173, "GaMMA_probability": 4.428122102475832e-06}</text>
        <id>smi:local/733c24b4-2209-45f1-afef-9c2c9dee2368</id>
      </comment>
    </pick>
    <pick publicID="smi:local/20191224.195655.78-P-CM.ORTC.00.HH">
      <time>
        <value>2019-12-24T19:56:55.788393Z</value>
        <uncertainty>0.2</uncertainty>
        <confidenceLevel>94.193286</confidenceLevel>
      </time>
      <waveformID networkCode="CM" stationCode="ORTC" locationCode="00" channelCode="HHZ">
        <resourceURI>smi:local/CM.ORTC.00.HHZ</resourceURI>
      </waveformID>
      <methodID>smi:local/PhaseNet</methodID>
