<?xml version="1.0" encoding="UTF-8"?>
<seiscomp xmlns="http://geofon.gfz-potsdam.de/ns/seiscomp3-schema/0.12" version="0.12">
  <EventParameters publicID="smi:local/catalog/0a695cf4-d9c6-4ed0-86a5-f4c8bcf4ff8e">
    <pick publicID="smi:local/20191224.191909.79-P-CM.URMC.00.HH">
      <time>
        <value>2019-12-24T19:19:09.798394Z</value>
        <uncertainty>0.2</uncertainty>
        <confidenceLevel>74.11977</confidenceLevel>
      </time>
      <waveformID networkCode="CM" stationCode="URMC" locationCode="0" channelCode="HHZ">
        <resourceURI>smi:local/CM.URMC.0.HHZ</resourceURI>
      </waveformID>
      <methodID>smi:local/PhaseNet</methodID>
      <phaseHint>P</phaseHint>
      <evaluationMode>automatic</evaluationMode>
      <creationInfo>
        <author>PhaseNet</author>
        <creationTime>2023-01-18T21:05:22.584283Z</creationTime>
      </creationInfo>
      <comment>
        <text>{"probability": 0.7411977, "GaMMA_probability": 0.00018371977650998795}</text>
        <id>smi:local/98423098-0ecd-4ccb-a71f-5c6e3dc70a38</id>
      </comment>
    </pick>
    <pick publicID="smi:local/20191224.191914.63-S-CM.URMC.00.HH">
      <time>
        <value>2019-12-24T19:19:14.638394Z</value>
        <uncertainty>0.2</uncertainty>
        <confidenceLevel>55.75569</confidenceLevel>
      </time>
      <waveformID networkCode="CM" stationCode="URMC" locationCode="0" channelCode="HHZ">
        <resourceURI>smi:local/CM.URMC.0.HHZ</resourceURI>
      </waveformID>
      <methodID>smi:local/PhaseNet</methodID>
      <phaseHint>S</phaseHint>
      <evaluationMode>automatic</evaluationMode>
      <creationInfo>
        <author>PhaseNet</author>
        <creationTime>2023-01-18T21:05:22.585689Z</creationTime>
      </creationInfo>
      <comment>
        <text>{"probability": 0.5575569, "GaMMA_probability": 0.00011716417973286477}</text>
        <id>smi:local/967f692a-704f-42cb-9ae5-f89341ddcd93</id>
      </comment>
    </pick>
    <pick publicID="smi:local/20191224.191925.10-P-CM.ORTC.00.HH">
      <time>
        <value>2019-12-24T19:19:25.108393Z</value>
        <uncertainty>0.2</uncertainty>
        <confidenceLevel>87.23526</confidenceLevel>
      </time>
      <waveformID networkCode="CM" stationCode="ORTC" locationCode="0" channelCode="HHZ">
        <resourceURI>smi:local/CM.ORTC.0.HHZ</resourceURI>
      </waveformID>
      <methodID>smi:local/PhaseNet</methodID>
      <phaseHint>P</phaseHint>
      <evaluationMode>automatic</evaluationMode>
      <creationInfo>
        <author>PhaseNet</author>
        <creationTime>2023-01-18T21:05:22.586404Z</creationTime>
      </creationInfo>
      <comment>
        <text>{"probability": 0.8723526, "GaMMA_probability": 0.00021577998186249594}</text>
        <id>smi:local/19fe1924-e9fd-4156-9787-8204dec7eb2d</id>
      </comment>
    </pick>
    <pick publicID="smi:local/20191224.191927.34-P-CM.CHI.00.HH">
      <time>
        <value>2019-12-24T19:19:27.348393Z</value>
        <uncertainty>0.2</uncertainty>
        <confidenceLevel>83.13040000000001</confidenceLevel>
      </time>
      <waveformID networkCode="CM" stationCode="CHI" locationCode="0" channelCode="HHZ">
        <resourceURI>smi:local/CM.CHI.0.HHZ</resourceURI>
      </waveformID>
      <methodID>smi:local/PhaseNet</methodID>
      <phaseHint>P</phaseHint>
      <evaluationMode>automatic</evaluationMode>
      <creationInfo>
        <author>PhaseNet</author>
        <creationTime>2023-01-18T21:05:22.587197Z</creationTime>
      </creationInfo>
      <comment>
        <text>{"probability": 0.831304, "GaMMA_probability": 0.0001537969489727168}</text>
        <id>smi:local/ba6b1cee-eec5-445d-a025-8305885a2b16</id>
      </comment>
    </pick>
    <pick publicID="smi:local/20191224.191941.68-S-CM.ORTC.00.HH">
      <time>
        <value>2019-12-24T19:19:41.688393Z</value>
        <uncertainty>0.2</uncertainty>
        <confidenceLevel>39.24527</confidenceLevel>
      </time>
      <waveformID networkCode="CM" stationCode="ORTC" locationCode="0" channelCode="HHZ">
        <resourceURI>smi:local/CM.ORTC.0.HHZ</resourceURI>
      </waveformID>
      <methodID>smi:local/PhaseNet</methodID>
      <phaseHint>S</phaseHint>
      <evaluationMode>automatic</evaluationMode>
      <creationInfo>
        <author>PhaseNet</author>
        <creationTime>2023-01-18T21:05:22.587902Z</creationTime>
      </creationInfo>
      <comment>
        <text>{"probability": 0.3924527, "GaMMA_probability": 0.00018977274686674157}</text>
        <id>smi:local/0e5f2262-4c86-49a4-b4ef-7fdd135d5837</id>
      </comment>
    </pick>
    <pick publicID="smi:local/20191224.191946.28-S-CM.CHI.00.HH">
      <time>
        <value>2019-12-24T19:19:46.288394Z</value>
        <uncertainty>0.2</uncertainty>
        <confidenceLevel>41.407344</confidenceLevel>
      </time>
      <waveformID networkCode="CM" stationCode="CHI" locationCode="0" channelCode="HHZ">
        <resourceURI>smi:local/CM.CHI.0.HHZ</resourceURI>
      </waveformID>
      <methodID>smi:local/PhaseNet</methodID>
      <phaseHint>S</phaseHint>
      <evaluationMode>automatic</evaluationMode>
      <creationInfo>
        <author>PhaseNet</author>
        <creationTime>2023-01-18T21:05:22.588594Z</creationTime>
      </creationInfo>
      <comment>
        <text>{"probability": 0.41407344, "GaMMA_probability": 9.000200971958937e-05}</text>
        <id>smi:local/be07dad3-95af-40ca-9449-87f094ff9ff0</id>
      </comment>
    </pick>
    <pick publicID="smi:local/20191224.190358.20-P-CM.URMC.00.HH">
      <time>
        <value>2019-12-24T19:03:58.208394Z</value>
        <uncertainty>0.2</uncertainty>
        <confidenceLevel>70.09184</confidenceLevel>
      </time>
      <waveformID networkCode="CM" stationCode="URMC" locationCode="0" channelCode="HHZ">
        <resourceURI>smi:local/CM.URMC.0.HHZ</resourceURI>
      </waveformID>
      <methodID>smi:local/PhaseNet</methodID>
      <phaseHint>P</phaseHint>
      <evaluationMode>automatic</evaluationMode>
      <creationInfo>
        <author>PhaseNet</author>
        <creationTime>2023-01-18T21:05:22.625988Z</creationTime>
      </creationInfo>
      <comment>
        <text>{"probability": 0.7009184, "GaMMA_probability": 0.00018371977650998795}</text>
        <id>smi:local/072700ce-2d4c-455d-b829-3664746dbbeb</id>
      </comment>
    </pick>
    <pick publicID="smi:local/20191224.190403.44-S-CM.URMC.00.HH">
      <time>
        <value>2019-12-24T19:04:03.448394Z</value>
        <uncertainty>0.2</uncertainty>
        <confidenceLevel>38.392693</confidenceLevel>
      </time>
      <waveformID networkCode="CM" stationCode="URMC" locationCode="0" channelCode="HHZ">
        <resourceURI>smi:local/CM.URMC.0.HHZ</resourceURI>
      </waveformID>
      <methodID>smi:local/PhaseNet</methodID>
      <phaseHint>S</phaseHint>
      <evaluationMode>automatic</evaluationMode>
      <creationInfo>
        <author>PhaseNet</author>
        <creationTime>2023-01-18T21:05:22.627070Z</creationTime>
      </creationInfo>
      <comment>
        <text>{"probability": 0.38392693, "GaMMA_probability": 0.00011716417973286477}</text>
        <id>smi:local/7741ef1e-4bea-4d21-ba03-2ff4a8f2d706</id>
      </comment>
    </pick>
    <pick publicID="smi:local/20191224.190413.46-P-CM.ORTC.00.HH">
      <time>
        <value>2019-12-24T19:04:13.468393Z</value>
        <uncertainty>0.2</uncertainty>
        <confidenceLevel>86.393636</confidenceLevel>
      </time>
      <waveformID networkCode="CM" stationCode="ORTC" locationCode="0" channelCode="HHZ">
        <resourceURI>smi:local/CM.ORTC.0.HHZ</resourceURI>
      </waveformID>
      <methodID>smi:local/PhaseNet</methodID>
      <phaseHint>P</phaseHint>
      <evaluationMode>automatic</evaluationMode>
      <creationInfo>
        <author>PhaseNet</author>
        <creationTime>2023-01-18T21:05:22.628175Z</creationTime>
      </creationInfo>
      <comment>
        <text>{"probability": 0.86393636, "GaMMA_probability": 0.00021577998186249594}</text>
        <id>smi:local/e454e646-2c87-4aa8-819d-b8ad311f6f17</id>
      </comment>
    </pick>
    <pick publicID="smi:local/20191224.190415.35-P-CM.CHI.00.HH">
      <time>
        <value>2019-12-24T19:04:15.358393Z</value>
        <uncertainty>0.2</uncertainty>
        <confidenceLevel>53.59241</confidenceLevel>
      </time>
      <waveformID networkCode="CM" stationCode="CHI" locationCode="0" channelCode="HHZ">
        <resourceURI>smi:local/CM.CHI.0.HHZ</resourceURI>
      </waveformID>
      <methodID>smi:local/PhaseNet</methodID>
      <phaseHint>P</phaseHint>
      <evaluationMode>automatic</evaluationMode>
      <creationInfo>
        <author>PhaseNet</author>
        <creationTime>2023-01-18T21:05:22.629001Z</creationTime>
      </creationInfo>
      <comment>
        <text>{"probability": 0.5359241, "GaMMA_probability": 0.0001537969489727168}</text>
        <id>smi:local/0164a526-9884-4d38-bdee-f634e30abb1f</id>
      </comment>
    </pick>
    <pick publicID="smi:local/20191224.190433.79-S-CM.ORTC.00.HH">
      <time>
        <value>2019-12-24T19:04:33.798393Z</value>
        <uncertainty>0.2</uncertainty>
        <confidenceLevel>55.89716</confidenceLevel>
      </time>
      <waveformID networkCode="CM" stationCode="ORTC" locationCode="0" channelCode="HHZ">
        <resourceURI>smi:local/CM.ORTC.0.HHZ</resourceURI>
      </waveformID>
      <methodID>smi:local/PhaseNet</methodID>
      <phaseHint>S</phaseHint>
      <evaluationMode>automatic</evaluationMode>
      <creationInfo>
        <author>PhaseNet</author>
        <creationTime>2023-01-18T21:05:22.629674Z</creationTime>
      </creationInfo>
      <comment>
        <text>{"probability": 0.5589716, "GaMMA_probability": 0.00018977274686674157}</text>
        <id>smi:local/8a541b19-1f45-4821-bcfe-3c4113cae689</id>
      </comment>
    </pick>
    <pick publicID="smi:local/20191224.190434.08-S-CM.CHI.00.HH">
      <time>
        <value>2019-12-24T19:04:34.088394Z</value>
        <uncertainty>0.2</uncertainty>
        <confidenceLevel>46.891022</confidenceLevel>
      </time>
      <waveformID networkCode="CM" stationCode="CHI" locationCode="0" channelCode="HHZ">
        <resourceURI>smi:local/CM.CHI.0.HHZ</resourceURI>
      </waveformID>
      <methodID>smi:local/PhaseNet</methodID>
      <phaseHint>S</phaseHint>
      <evaluationMode>automatic</evaluationMode>
      <creationInfo>
        <author>PhaseNet</author>
        <creationTime>2023-01-18T21:05:22.630546Z</creationTime>
      </creationInfo>
      <comment>
        <text>{"probability": 0.46891022, "GaMMA_probability": 9.000200971958937e-05}</text>
        <id>smi:local/19054f4a-4e39-4170-b653-acfcf26f1059</id>
      </comment>
    </pick>
    <pick publicID="smi:local/20191224.190236.07-P-CM.URMC.00.HH">
      <time>
        <value>2019-12-24T19:02:36.078394Z</value>
        <uncertainty>0.2</uncertainty>
        <confidenceLevel>76.89173</confidenceLevel>
      </time>
      <waveformID networkCode="CM" stationCode="URMC" locationCode="0" channelCode="HHZ">
        <resourceURI>smi:local/CM.URMC.0.HHZ</resourceURI>
      </waveformID>
      <methodID>smi:local/PhaseNet</methodID>
      <phaseHint>P</phaseHint>
      <evaluationMode>automatic</evaluationMode>
      <creationInfo>
        <author>PhaseNet</author>
        <creationTime>2023-01-18T21:05:22.671391Z</creationTime>
      </creationInfo>
      <comment>
        <text>{"probability": 0.7689173, "GaMMA_probability": 0.00018371977650998795}</text>
        <id>smi:local/1c7740e1-bafb-4a1f-9deb-1fe71d15d730</id>
      </comment>
    </pick>
    <pick publicID="smi:local/20191224.190240.34-S-CM.URMC.00.HH">
      <time>
        <value>2019-12-24T19:02:40.348393Z</value>
        <uncertainty>0.2</uncertainty>
        <confidenceLevel>58.497745</confidenceLevel>
      </time>
      <waveformID networkCode="CM" stationCode="URMC" locationCode="0" channelCode="HHZ">
        <resourceURI>smi:local/CM.URMC.0.HHZ</resourceURI>
      </waveformID>
      <methodID>smi:local/PhaseNet</methodID>
      <phaseHint>S</phaseHint>
      <evaluationMode>automatic</evaluationMode>
      <creationInfo>
        <author>PhaseNet</author>
        <creationTime>2023-01-18T21:05:22.672097Z</creationTime>
      </creationInfo>
      <comment>
        <text>{"probability": 0.58497745, "GaMMA_probability": 0.00011716417973286477}</text>
        <id>smi:local/6fe9e92a-d1bd-4905-a0d4-43d02b456dd3</id>
      </comment>
    </pick>
    <pick publicID="smi:local/20191224.190251.55-P-CM.ORTC.00.HH">
      <time>
        <value>2019-12-24T19:02:51.558393Z</value>
        <uncertainty>0.2</uncertainty>
        <confidenceLevel>34.377933</confidenceLevel>
      </time>
      <waveformID networkCode="CM" stationCode="ORTC" locationCode="0" channelCode="HHZ">
        <resourceURI>smi:local/CM.ORTC.0.HHZ</resourceURI>
      </waveformID>
      <methodID>smi:local/PhaseNet</methodID>
      <phaseHint>P</phaseHint>
      <evaluationMode>automatic</evaluationMode>
      <creationInfo>
        <author>PhaseNet</author>
        <creationTime>2023-01-18T21:05:22.672629Z</creationTime>
      </creationInfo>
      <comment>
        <text>{"probability": 0.34377933, "GaMMA_probability": 0.00021577998186249594}</text>
        <id>smi:local/0a8449d7-8ee8-4910-a2b8-875e5cdb7bd0</id>
      </comment>
    </pick>
    <pick publicID="smi:local/20191224.190310.54-S-CM.ORTC.00.HH">
      <time>
        <value>2019-12-24T19:03:10.548393Z</value>
        <uncertainty>0.2</uncertainty>
        <confidenceLevel>30.462873000000002</confidenceLevel>
      </time>
      <waveformID networkCode="CM" stationCode="ORTC" locationCode="0" channelCode="HHZ">
        <resourceURI>smi:local/CM.ORTC.0.HHZ</resourceURI>
      </waveformID>
      <methodID>smi:local/PhaseNet</methodID>
      <phaseHint>S</phaseHint>
      <evaluationMode>automatic</evaluationMode>
      <creationInfo>
        <author>PhaseNet</author>
        <creationTime>2023-01-18T21:05:22.673400Z</creationTime>
      </creationInfo>
      <comment>
        <text>{"probability": 0.30462873, "GaMMA_probability": 0.0001537969489727168}</text>
        <id>smi:local/3e581519-020f-4ff3-8f3b-e9cdd9339cfc</id>
      </comment>
    </pick>
    <pick publicID="smi:local/20191224.190317.62-S-CM.CHI.00.HH">
      <time>
        <value>2019-12-24T19:03:17.628394Z</value>
        <uncertainty>0.2</uncertainty>
        <confidenceLevel>39.13176</confidenceLevel>
      </time>
      <waveformID networkCode="CM" stationCode="CHI" locationCode="0" channelCode="HHZ">
        <resourceURI>smi:local/CM.CHI.0.HHZ</resourceURI>
      </waveformID>
      <methodID>smi:local/PhaseNet</methodID>
      <phaseHint>S</phaseHint>
      <evaluationMode>automatic</evaluationMode>
      <creationInfo>
        <author>PhaseNet</author>
        <creationTime>2023-01-18T21:05:22.674103Z</creationTime>
      </creationInfo>
      <comment>
        <text>{"probability": 0.3913176, "GaMMA_probability": 0.00018977274686674157}</text>
        <id>smi:local/5ed519e9-0140-4b2a-88d7-0712423c354d</id>
      </comment>
    </pick>
    <pick publicID="smi:local/20191224.190903.42-P-CM.URMC.00.HH">
      <time>
        <value>2019-12-24T19:09:03.428394Z</value>
        <uncertainty>0.2</uncertainty>
        <confidenceLevel>97.68084</confidenceLevel>
      </time>
      <waveformID networkCode="CM" stationCode="URMC" locationCode="0" channelCode="HHZ">
        <resourceURI>smi:local/CM.URMC.0.HHZ</resourceURI>
      </waveformID>
      <methodID>smi:local/PhaseNet</methodID>
      <phaseHint>P</phaseHint>
      <evaluationMode>automatic</evaluationMode>
      <creationInfo>
        <author>PhaseNet</author>
        <creationTime>2023-01-18T21:05:22.709546Z</creationTime>
      </creationInfo>
      <comment>
        <text>{"probability": 0.9768084, "GaMMA_probability": 0.00018371977650998795}</text>
        <id>smi:local/eb889be9-7870-47c5-a30e-73e5854d194e</id>
      </comment>
    </pick>
    <pick publicID="smi:local/20191224.190907.64-S-CM.URMC.00.HH">
      <time>
        <value>2019-12-24T19:09:07.648394Z</value>
        <uncertainty>0.2</uncertainty>
        <confidenceLevel>86.53695</confidenceLevel>
      </time>
      <waveformID networkCode="CM" stationCode="URMC" locationCode="0" channelCode="HHZ">
        <resourceURI>smi:local/CM.URMC.0.HHZ</resourceURI>
      </waveformID>
      <methodID>smi:local/PhaseNet</methodID>
      <phaseHint>S</phaseHint>
      <evaluationMode>automatic</evaluationMode>
      <creationInfo>
        <author>PhaseNet</author>
        <creationTime>2023-01-18T21:05:22.711630Z</creationTime>
      </creationInfo>
      <comment>
        <text>{"probability": 0.8653695, "GaMMA_probability": 0.00011716417973286477}</text>
        <id>smi:local/7d167285-5aad-4645-b6cf-fe6458ad4791</id>
      </comment>
    </pick>
    <pick publicID="smi:local/20191224.190919.15-P-CM.ORTC.00.HH">
      <time>
        <value>2019-12-24T19:09:19.158393Z</value>
        <uncertainty>0.2</uncertainty>
        <confidenceLevel>62.525254</confidenceLevel>
      </time>
      <waveformID networkCode="CM" stationCode="ORTC" locationCode="0" channelCode="HHZ">
        <resourceURI>smi:local/CM.ORTC.0.HHZ</resourceURI>
      </waveformID>
      <methodID>smi:local/PhaseNet</methodID>
      <phaseHint>P</phaseHint>
      <evaluationMode>automatic</evaluationMode>
      <creationInfo>
        <author>PhaseNet</author>
        <creationTime>2023-01-18T21:05:22.712926Z</creationTime>
      </creationInfo>
      <comment>
        <text>{"probability": 0.62525254, "GaMMA_probability": 0.00021577998186249594}</text>
        <id>smi:local/ce8e85ee-0a73-439f-b89e-9316f5065a35</id>
      </comment>
    </pick>
    <pick publicID="smi:local/20191224.190938.92-S-CM.ORTC.00.HH">
      <time>
        <value>2019-12-24T19:09:38.928393Z</value>
        <uncertainty>0.2</uncertainty>
        <confidenceLevel>46.395874</confidenceLevel>
      </time>
      <waveformID networkCode="CM" stationCode="ORTC" locationCode="0" channelCode="HHZ">
        <resourceURI>smi:local/CM.ORTC.0.HHZ</resourceURI>
      </waveformID>
      <methodID>smi:local/PhaseNet</methodID>
      <phaseHint>S</phaseHint>
      <evaluationMode>automatic</evaluationMode>
      <creationInfo>
        <author>PhaseNet</author>
        <creationTime>2023-01-18T21:05:22.713931Z</creationTime>
      </creationInfo>
      <comment>
        <text>{"probability": 0.46395874, "GaMMA_probability": 0.0001537969489727168}</text>
        <id>smi:local/af0a622c-f9a3-4df2-8efe-eba3ee1cd565</id>
      </comment>
    </pick>
    <pick publicID="smi:local/20191224.190945.70-S-CM.CHI.00.HH">
      <time>
        <value>2019-12-24T19:09:45.708394Z</value>
        <uncertainty>0.2</uncertainty>
        <confidenceLevel>34.389678</confidenceLevel>
      </time>
      <waveformID networkCode="CM" stationCode="CHI" locationCode="0" channelCode="HHZ">
        <resourceURI>smi:local/CM.CHI.0.HHZ</resourceURI>
      </waveformID>
      <methodID>smi:local/PhaseNet</methodID>
      <phaseHint>S</phaseHint>
      <evaluationMode>automatic</evaluationMode>
      <creationInfo>
        <author>PhaseNet</author>
        <creationTime>2023-01-18T21:05:22.715004Z</creationTime>
      </creationInfo>
      <comment>
        <text>{"probability": 0.34389678, "GaMMA_probability": 0.00018977274686674157}</text>
        <id>smi:local/dc3ba8a8-7e5d-42e2-86e4-a493da40e33a</id>
      </comment>
    </pick>
    <pick publicID="smi:local/20191224.191429.48-P-CM.URMC.00.HH">
      <time>
        <value>2019-12-24T19:14:29.488393Z</value>
        <uncertainty>0.2</uncertainty>
        <confidenceLevel>47.078118</confidenceLevel>
      </time>
      <waveformID networkCode="CM" stationCode="URMC" locationCode="0" channelCode="HHZ">
        <resourceURI>smi:local/CM.URMC.0.HHZ</resourceURI>
      </waveformID>
      <methodID>smi:local/PhaseNet</methodID>
      <phaseHint>P</phaseHint>
