<?xml version='1.0' encoding='utf-8'?>
<q:quakeml xmlns="http://quakeml.org/xmlns/bed/1.2" xmlns:q="http://quakeml.org/xmlns/quakeml/1.2">
  <eventParameters publicID="smi:local/b7293423-33bb-49d5-a2c7-320e1f978c66">
    <event publicID="smi:local/3caee489-06aa-49aa-bf8a-3b9eea4f4bdb">
      <preferredOriginID>smi:local/834d350b-a30c-4796-9b80-f48e225797cc</preferredOriginID>
      <origin publicID="smi:local/834d350b-a30c-4796-9b80-f48e225797cc">
        <time>
          <value>2017-10-15T06:35:11.760000Z</value>
        </time>
        <latitude>
          <value>7.6231</value>
        </latitude>
        <longitude>
          <value>-74.0455</value>
        </longitude>
      </origin>
      <pick publicID="smi:local/90c457b1-0561-4c46-81cc-0ba8a0a2cd6f">
        <time>
          <value>2017-10-15T06:35:06.760000Z</value>
        </time>
        <waveformID networkCode="CM" stationCode="VMM09"></waveformID>
        <methodID>smi:local/EqTransformer</methodID>
        <phaseHint>P</phaseHint>
      </pick>
      <pick publicID="smi:local/f3412bfb-960a-4857-ab1d-2d460f35effa">
        <time>
          <value>2017-10-15T06:35:22.620000Z</value>
        </time>
        <waveformID networkCode="CM" stationCode="VMM09"></waveformID>
        <methodID>smi:local/EqTransformer</methodID>
        <phaseHint>S</phaseHint>
      </pick>
      <pick publicID="smi:local/1d40f4df-0d2c-4f28-9a47-f1a07f6f6e78">
        <time>
          <value>2017-10-15T06:35:07.710000Z</value>
        </time>
        <waveformID networkCode="CM" stationCode="VMM10"></waveformID>
        <methodID>smi:local/EqTransformer</methodID>
        <phaseHint>P</phaseHint>
      </pick>
      <pick publicID="smi:local/a97f8632-84e4-4a51-8780-c47f5c5cf01c">
        <time>
          <value>2017-10-15T06:35:25.020000Z</value>
        </time>
        <waveformID networkCode="CM" stationCode="VMM10"></waveformID>
        <methodID>smi:local/EqTransformer</methodID>
        <phaseHint>S</phaseHint>
      </pick>
      <pick publicID="smi:local/e294adf5-5ac5-4a02-908e-c4cbf6f0c7fb">
        <time>
          <value>2017-10-15T06:35:11.960000Z</value>
        </time>
        <waveformID networkCode="CM" stationCode="SNPBC"></waveformID>
        <methodID>smi:local/EqTransformer</methodID>
        <phaseHint>P</phaseHint>
      </pick>
      <pick publicID="smi:local/5cfc3209-8a97-4446-8736-06d57f724186">
        <time>
          <value>2017-10-15T06:35:33.650000Z</value>
        </time>
        <waveformID networkCode="CM" stationCode="SNPBC"></waveformID>
        <methodID>smi:local/EqTransformer</methodID>
        <phaseHint>S</phaseHint>
      </pick>
      <pick publicID="smi:local/6f97dc7c-4b15-4055-bb73-e8109e5a6e9c">
        <time>
          <value>2017-10-15T06:35:15.210000Z</value>
        </time>
        <waveformID networkCode="CM" stationCode="VMM12"></waveformID>
        <methodID>smi:local/EqTransformer</methodID>
        <phaseHint>P</phaseHint>
      </pick>
      <pick publicID="smi:local/c8173d7a-4bf5-48a1-a527-1d6cb3c5868d">
        <time>
          <value>2017-10-15T06:35:38.150000Z</value>
        </time>
        <waveformID networkCode="CM" stationCode="VMM12"></waveformID>
        <methodID>smi:local/EqTransformer</methodID>
        <phaseHint>S</phaseHint>
      </pick>
    </event>
    <event publicID="smi:local/cdb241cd-8b52-496f-9382-563a503e499f">
      <preferredOriginID>smi:local/aa6d2b14-57ff-4957-b0af-6fd5755100b2</preferredOriginID>
      <origin publicID="smi:local/aa6d2b14-57ff-4957-b0af-6fd5755100b2">
        <time>
          <value>2017-10-15T06:40:44.470000Z</value>
        </time>
        <latitude>
          <value>8.5121</value>
        </latitude>
        <longitude>
          <value>-73.585</value>
        </longitude>
      </origin>
      <pick publicID="smi:local/bbc4be83-fa78-44ca-be68-22b90fc4a67b">
        <time>
          <value>2017-10-15T06:40:41.940000Z</value>
        </time>
        <waveformID networkCode="CM" stationCode="VMM12"></waveformID>
        <methodID>smi:local/EqTransformer</methodID>
        <phaseHint>P</phaseHint>
      </pick>
      <pick publicID="smi:local/62bf723a-6a4b-4108-8c9f-3acd463fe456">
        <time>
          <value>2017-10-15T06:41:16.560000Z</value>
        </time>
        <waveformID networkCode="CM" stationCode="VMM12"></waveformID>
        <methodID>smi:local/EqTransformer</methodID>
        <phaseHint>S</phaseHint>
      </pick>
      <pick publicID="smi:local/6a49be86-6470-441d-8356-9b34edf5ae70">
        <time>
          <value>2017-10-15T06:40:47.010000Z</value>
        </time>
        <waveformID networkCode="CM" stationCode="AGCC"></waveformID>
        <methodID>smi:local/EqTransformer</methodID>
        <phaseHint>P</phaseHint>
      </pick>
      <pick publicID="smi:local/a11faf0f-169c-4bff-96ec-e055b9adc629">
        <time>
          <value>2017-10-15T06:41:25.960000Z</value>
        </time>
        <waveformID networkCode="CM" stationCode="AGCC"></waveformID>
        <methodID>smi:local/EqTransformer</methodID>
        <phaseHint>S</phaseHint>
      </pick>
      <pick publicID="smi:local/dd74b396-df4b-417a-b91c-e51683cee11c">
        <time>
          <value>2017-10-15T06:41:06.390000Z</value>
        </time>
        <waveformID networkCode="CM" stationCode="SNPBC"></waveformID>
        <methodID>smi:local/EqTransformer</methodID>
        <phaseHint>S</phaseHint>
      </pick>
    </event>
    <event publicID="smi:local/f053e4dc-aa64-437b-8d2e-c2e86b7db343">
      <preferredOriginID>smi:local/55e7360c-53f2-4d3f-b36f-da783a2c286a</preferredOriginID>
      <origin publicID="smi:local/55e7360c-53f2-4d3f-b36f-da783a2c286a">
        <time>
          <value>2017-10-15T06:47:19.450000Z</value>
        </time>
        <latitude>
          <value>7.6257</value>
        </latitude>
        <longitude>
          <value>-73.3171</value>
        </longitude>
      </origin>
      <pick publicID="smi:local/b90a9b76-7375-4867-87f8-4d1027efca2a">
        <time>
          <value>2017-10-15T06:47:17.900000Z</value>
        </time>
        <waveformID networkCode="CM" stationCode="VMM10"></waveformID>
        <methodID>smi:local/EqTransformer</methodID>
        <phaseHint>P</phaseHint>
      </pick>
      <pick publicID="smi:local/0f81aa46-b98d-42b3-bd81-00d540dbac08">
        <time>
          <value>2017-10-15T06:47:34.420000Z</value>
        </time>
        <waveformID networkCode="CM" stationCode="VMM10"></waveformID>
        <methodID>smi:local/EqTransformer</methodID>
        <phaseHint>S</phaseHint>
      </pick>
      <pick publicID="smi:local/faa8487d-aad3-4fd0-8cf6-efd83614d126">
        <time>
          <value>2017-10-15T06:47:19.390000Z</value>
        </time>
        <waveformID networkCode="CM" stationCode="EZNC"></waveformID>
        <methodID>smi:local/EqTransformer</methodID>
        <phaseHint>P</phaseHint>
      </pick>
      <pick publicID="smi:local/4a6492ce-c4ca-410f-b6cf-8a1b674cbfe9">
        <time>
          <value>2017-10-15T06:47:19.560000Z</value>
        </time>
        <waveformID networkCode="CM" stationCode="EZNC"></waveformID>
        <methodID>smi:local/EqTransformer</methodID>
        <phaseHint>S</phaseHint>
      </pick>
      <pick publicID="smi:local/f2aa3c0f-456c-40d8-8d92-30f5b7629bde">
        <time>
          <value>2017-10-15T06:47:22.240000Z</value>
        </time>
        <waveformID networkCode="CM" stationCode="SNPBC"></waveformID>
        <methodID>smi:local/EqTransformer</methodID>
        <phaseHint>P</phaseHint>
      </pick>
      <pick publicID="smi:local/667839bc-1bda-41d8-86c8-008d0311335b">
        <time>
          <value>2017-10-15T06:47:42.320000Z</value>
        </time>
        <waveformID networkCode="CM" stationCode="SNPBC"></waveformID>
        <methodID>smi:local/EqTransformer</methodID>
        <phaseHint>S</phaseHint>
      </pick>
      <pick publicID="smi:local/9a1714a6-7ea6-4661-8d52-9d03f24c8300">
        <time>
          <value>2017-10-15T06:47:32.540000Z</value>
        </time>
        <waveformID networkCode="CM" stationCode="VMM09"></waveformID>
        <methodID>smi:local/EqTransformer</methodID>
        <phaseHint>S</phaseHint>
      </pick>
    </event>
    <event publicID="smi:local/39fac07b-843a-439b-b5da-b5c109d29341">
      <preferredOriginID>smi:local/5d0f3573-dc6a-4f3f-9ebd-9675b163a910</preferredOriginID>
      <origin publicID="smi:local/5d0f3573-dc6a-4f3f-9ebd-9675b163a910">
        <time>
          <value>2017-10-15T06:51:56.100000Z</value>
        </time>
        <latitude>
          <value>8.5121</value>
        </latitude>
        <longitude>
          <value>-73.585</value>
        </longitude>
      </origin>
      <pick publicID="smi:local/a1ab5445-2c0c-49bc-8104-2081548c0ce4">
        <time>
          <value>2017-10-15T06:51:51.220000Z</value>
        </time>
        <waveformID networkCode="CM" stationCode="SNPBC"></waveformID>
        <methodID>smi:local/EqTransformer</methodID>
        <phaseHint>P</phaseHint>
      </pick>
      <pick publicID="smi:local/b4446113-21b8-4dce-8fed-0cff2b17862a">
        <time>
          <value>2017-10-15T06:52:12.080000Z</value>
        </time>
        <waveformID networkCode="CM" stationCode="SNPBC"></waveformID>
        <methodID>smi:local/EqTransformer</methodID>
        <phaseHint>S</phaseHint>
      </pick>
      <pick publicID="smi:local/3d11365c-346b-49b4-8a55-15b09f32017d">
        <time>
          <value>2017-10-15T06:51:52.060000Z</value>
        </time>
        <waveformID networkCode="CM" stationCode="EZNC"></waveformID>
        <methodID>smi:local/EqTransformer</methodID>
        <phaseHint>P</phaseHint>
      </pick>
      <pick publicID="smi:local/9bba945f-a11c-4476-9cff-fef1a11951e1">
        <time>
          <value>2017-10-15T06:52:06.120000Z</value>
        </time>
        <waveformID networkCode="CM" stationCode="EZNC"></waveformID>
        <methodID>smi:local/EqTransformer</methodID>
        <phaseHint>S</phaseHint>
      </pick>
      <pick publicID="smi:local/fafeaddb-6a5d-4768-ac28-4a97d269577f">
        <time>
          <value>2017-10-15T06:51:53.980000Z</value>
        </time>
        <waveformID networkCode="CM" stationCode="VMM12"></waveformID>
        <methodID>smi:local/EqTransformer</methodID>
        <phaseHint>P</phaseHint>
      </pick>
      <pick publicID="smi:local/4b602ac3-e06d-4658-a3c0-e8360ce1cf4e">
        <time>
          <value>2017-10-15T06:52:17.310000Z</value>
        </time>
        <waveformID networkCode="CM" stationCode="VMM12"></waveformID>
        <methodID>smi:local/EqTransformer</methodID>
        <phaseHint>S</phaseHint>
      </pick>
      <pick publicID="smi:local/180b1748-5b69-417f-8ee3-ee1ee24f5c74">
        <time>
          <value>2017-10-15T06:51:56.970000Z</value>
        </time>
        <waveformID networkCode="CM" stationCode="AGCC"></waveformID>
        <methodID>smi:local/EqTransformer</methodID>
        <phaseHint>P</phaseHint>
      </pick>
      <pick publicID="smi:local/95d0eba7-cc8e-401b-a396-0382a28e7bad">
        <time>
          <value>2017-10-15T06:52:22.290000Z</value>
        </time>
        <waveformID networkCode="CM" stationCode="AGCC"></waveformID>
        <methodID>smi:local/EqTransformer</methodID>
        <phaseHint>S</phaseHint>
      </pick>
      <pick publicID="smi:local/b22202ca-a324-4d81-8ff9-8ac6c7bd064f">
        <time>
          <value>2017-10-15T06:52:01.640000Z</value>
        </time>
        <waveformID networkCode="CM" stationCode="VMM09"></waveformID>
        <methodID>smi:local/EqTransformer</methodID>
        <phaseHint>S</phaseHint>
      </pick>
    </event>
  </eventParameters>
</q:quakeml>
