<?xml version="1.0" encoding="UTF-8"?>
<seiscomp xmlns="http://geofon.gfz-potsdam.de/ns/seiscomp3-schema/0.12" version="0.12">
  <EventParameters publicID="smi:local/catalog/aa4e3190-ef9f-4392-bf4d-2802677e40f5">
    <pick publicID="smi:local/20191224.190356.03-P-CM.CLEJA.10.HN">
      <time>
        <value>2019-12-24T19:03:56.030000Z</value>
        <uncertainty>0.2</uncertainty>
        <confidenceLevel>54.0</confidenceLevel>
      </time>
      <waveformID networkCode="CM" stationCode="CLEJA" locationCode="10" channelCode="HNZ">
        <resourceURI>smi:local/CM.CLEJA.10.HNZ</resourceURI>
      </waveformID>
      <methodID>smi:local/EQTransformer</methodID>
      <phaseHint>P</phaseHint>
      <evaluationMode>automatic</evaluationMode>
      <creationInfo>
        <author>EQTransformer</author>
        <creationTime>2023-05-16T03:16:13.062496Z</creationTime>
      </creationInfo>
      <comment>
        <text>{"probability": 0.54, "GaMMA_probability": 8.137991977191389e-05, "snr": 42.6, "detection_probability": 0.63, "event_start_time": "2019-12-24 19:03:55.790000", "event_end_time": "2019-12-24 19:04:01.770000"}</text>
        <id>smi:local/576a9ecb-faba-4563-b352-a7954e8c1099</id>
      </comment>
    </pick>
    <pick publicID="smi:local/20191224.190358.25-P-CM.URMC.00.HH">
      <time>
        <value>2019-12-24T19:03:58.258393Z</value>
        <uncertainty>0.2</uncertainty>
        <confidenceLevel>52.0</confidenceLevel>
      </time>
      <waveformID networkCode="CM" stationCode="URMC" locationCode="00" channelCode="HHZ">
        <resourceURI>smi:local/CM.URMC.00.HHZ</resourceURI>
      </waveformID>
      <methodID>smi:local/EQTransformer</methodID>
      <phaseHint>P</phaseHint>
      <evaluationMode>automatic</evaluationMode>
      <creationInfo>
        <author>EQTransformer</author>
        <creationTime>2023-05-16T03:16:13.065416Z</creationTime>
      </creationInfo>
      <comment>
        <text>{"probability": 0.52, "GaMMA_probability": 0.00011894114273385493, "snr": 40.5, "detection_probability": 0.58, "event_start_time": "2019-12-24 19:03:58.028393", "event_end_time": "2019-12-24 19:04:04.568393"}</text>
        <id>smi:local/ba3f6854-d410-4638-8ad0-87f8de0cd4de</id>
      </comment>
    </pick>
    <pick publicID="smi:local/20191224.190402.74-S-CM.URMC.00.HH">
      <time>
        <value>2019-12-24T19:04:02.748393Z</value>
        <uncertainty>0.2</uncertainty>
        <confidenceLevel>37.0</confidenceLevel>
      </time>
      <waveformID networkCode="CM" stationCode="URMC" locationCode="00" channelCode="HHZ">
        <resourceURI>smi:local/CM.URMC.00.HHZ</resourceURI>
      </waveformID>
      <methodID>smi:local/EQTransformer</methodID>
      <phaseHint>S</phaseHint>
      <evaluationMode>automatic</evaluationMode>
      <creationInfo>
        <author>EQTransformer</author>
        <creationTime>2023-05-16T03:16:13.066024Z</creationTime>
      </creationInfo>
      <comment>
        <text>{"probability": 0.37, "GaMMA_probability": 0.00032551780044517455, "snr": 5.9, "detection_probability": 0.58, "event_start_time": "2019-12-24 19:03:58.028393", "event_end_time": "2019-12-24 19:04:04.568393"}</text>
        <id>smi:local/52f5abed-252f-4de5-a373-5d0c89d62f38</id>
      </comment>
    </pick>
    <pick publicID="smi:local/20191224.190414.06-P-CM.ORTC.00.HH">
      <time>
        <value>2019-12-24T19:04:14.068393Z</value>
        <uncertainty>0.2</uncertainty>
        <confidenceLevel>14.000000000000002</confidenceLevel>
      </time>
      <waveformID networkCode="CM" stationCode="ORTC" locationCode="00" channelCode="HHZ">
        <resourceURI>smi:local/CM.ORTC.00.HHZ</resourceURI>
      </waveformID>
      <methodID>smi:local/EQTransformer</methodID>
      <phaseHint>P</phaseHint>
      <evaluationMode>automatic</evaluationMode>
      <creationInfo>
        <author>EQTransformer</author>
        <creationTime>2023-05-16T03:16:13.066633Z</creationTime>
      </creationInfo>
      <comment>
        <text>{"probability": 0.14, "GaMMA_probability": 0.000406905130389544, "snr": 1.8, "detection_probability": 0.84, "event_start_time": "2019-12-24 19:04:11.998393", "event_end_time": "2019-12-24 19:04:41.888393"}</text>
        <id>smi:local/3326a2d3-7867-4607-9d6d-894dfc559983</id>
      </comment>
    </pick>
    <pick publicID="smi:local/20191224.190415.99-P-CM.CHI.00.HH">
      <time>
        <value>2019-12-24T19:04:15.998394Z</value>
        <uncertainty>0.2</uncertainty>
        <confidenceLevel>90.0</confidenceLevel>
      </time>
      <waveformID networkCode="CM" stationCode="CHI" locationCode="00" channelCode="HHZ">
        <resourceURI>smi:local/CM.CHI.00.HHZ</resourceURI>
      </waveformID>
      <methodID>smi:local/EQTransformer</methodID>
      <phaseHint>P</phaseHint>
      <evaluationMode>automatic</evaluationMode>
      <creationInfo>
        <author>EQTransformer</author>
        <creationTime>2023-05-16T03:16:13.067250Z</creationTime>
      </creationInfo>
      <comment>
        <text>{"probability": 0.9, "GaMMA_probability": 0.0006203639623485591, "snr": 16.5, "detection_probability": 0.97, "event_start_time": "2019-12-24 19:04:15.808394", "event_end_time": "2019-12-24 19:04:41.408394"}</text>
        <id>smi:local/4d0ece5c-6b96-453c-b1e1-5d3544f1ab0d</id>
      </comment>
    </pick>
    <pick publicID="smi:local/20191224.190433.60-S-CM.CHI.00.HH">
      <time>
        <value>2019-12-24T19:04:33.608394Z</value>
        <uncertainty>0.2</uncertainty>
        <confidenceLevel>43.0</confidenceLevel>
      </time>
      <waveformID networkCode="CM" stationCode="CHI" locationCode="00" channelCode="HHZ">
        <resourceURI>smi:local/CM.CHI.00.HHZ</resourceURI>
      </waveformID>
      <methodID>smi:local/EQTransformer</methodID>
      <phaseHint>S</phaseHint>
      <evaluationMode>automatic</evaluationMode>
      <creationInfo>
        <author>EQTransformer</author>
        <creationTime>2023-05-16T03:16:13.067822Z</creationTime>
      </creationInfo>
      <comment>
        <text>{"probability": 0.43, "GaMMA_probability": 0.0007655215316410832, "snr": 4.2, "detection_probability": 0.97, "event_start_time": "2019-12-24 19:04:15.808394", "event_end_time": "2019-12-24 19:04:41.408394"}</text>
        <id>smi:local/00263ee3-bc3b-4491-862d-80969e262b71</id>
      </comment>
    </pick>
    <pick publicID="smi:local/20191224.190433.83-S-CM.ORTC.00.HH">
      <time>
        <value>2019-12-24T19:04:33.838393Z</value>
        <uncertainty>0.2</uncertainty>
        <confidenceLevel>27.0</confidenceLevel>
      </time>
      <waveformID networkCode="CM" stationCode="ORTC" locationCode="00" channelCode="HHZ">
        <resourceURI>smi:local/CM.ORTC.00.HHZ</resourceURI>
      </waveformID>
      <methodID>smi:local/EQTransformer</methodID>
      <phaseHint>S</phaseHint>
      <evaluationMode>automatic</evaluationMode>
      <creationInfo>
        <author>EQTransformer</author>
        <creationTime>2023-05-16T03:16:13.068328Z</creationTime>
      </creationInfo>
      <comment>
        <text>{"probability": 0.27, "GaMMA_probability": 7.80677613353015e-05, "snr": 6.2, "detection_probability": 0.84, "event_start_time": "2019-12-24 19:04:11.998393", "event_end_time": "2019-12-24 19:04:41.888393"}</text>
        <id>smi:local/dca8c439-257c-43d3-9087-18d1e206f333</id>
      </comment>
    </pick>
    <pick publicID="smi:local/20191224.190901.52-P-CM.CLEJA.10.HN">
      <time>
        <value>2019-12-24T19:09:01.520000Z</value>
        <uncertainty>0.2</uncertainty>
        <confidenceLevel>78.0</confidenceLevel>
      </time>
      <waveformID networkCode="CM" stationCode="CLEJA" locationCode="10" channelCode="HNZ">
        <resourceURI>smi:local/CM.CLEJA.10.HNZ</resourceURI>
      </waveformID>
      <methodID>smi:local/EQTransformer</methodID>
      <phaseHint>P</phaseHint>
      <evaluationMode>automatic</evaluationMode>
      <creationInfo>
        <author>EQTransformer</author>
        <creationTime>2023-05-16T03:16:13.084543Z</creationTime>
      </creationInfo>
      <comment>
        <text>{"probability": 0.78, "GaMMA_probability": 8.137991977191389e-05, "snr": 12.4, "detection_probability": 0.95, "event_start_time": "2019-12-24 19:09:01.490000", "event_end_time": "2019-12-24 19:09:05.610000"}</text>
        <id>smi:local/68ca69bf-4ee3-411b-a196-87bf82f1be31</id>
      </comment>
    </pick>
    <pick publicID="smi:local/20191224.190903.42-P-CM.URMC.00.HH">
      <time>
        <value>2019-12-24T19:09:03.428393Z</value>
        <uncertainty>0.2</uncertainty>
        <confidenceLevel>82.0</confidenceLevel>
      </time>
      <waveformID networkCode="CM" stationCode="URMC" locationCode="00" channelCode="HHZ">
        <resourceURI>smi:local/CM.URMC.00.HHZ</resourceURI>
      </waveformID>
      <methodID>smi:local/EQTransformer</methodID>
      <phaseHint>P</phaseHint>
      <evaluationMode>automatic</evaluationMode>
      <creationInfo>
        <author>EQTransformer</author>
        <creationTime>2023-05-16T03:16:13.085113Z</creationTime>
      </creationInfo>
      <comment>
        <text>{"probability": 0.82, "GaMMA_probability": 0.00011894114273385493, "snr": 12.8, "detection_probability": 0.92, "event_start_time": "2019-12-24 19:09:03.368393", "event_end_time": "2019-12-24 19:09:09.018393"}</text>
        <id>smi:local/3c8cd769-468a-44c0-afa7-9e4db915b1f9</id>
      </comment>
    </pick>
    <pick publicID="smi:local/20191224.190904.40-S-CM.CLEJA.10.HN">
      <time>
        <value>2019-12-24T19:09:04.400000Z</value>
        <uncertainty>0.2</uncertainty>
        <confidenceLevel>78.0</confidenceLevel>
      </time>
      <waveformID networkCode="CM" stationCode="CLEJA" locationCode="10" channelCode="HNZ">
        <resourceURI>smi:local/CM.CLEJA.10.HNZ</resourceURI>
      </waveformID>
      <methodID>smi:local/EQTransformer</methodID>
      <phaseHint>S</phaseHint>
      <evaluationMode>automatic</evaluationMode>
      <creationInfo>
        <author>EQTransformer</author>
        <creationTime>2023-05-16T03:16:13.085615Z</creationTime>
      </creationInfo>
      <comment>
        <text>{"probability": 0.78, "GaMMA_probability": 0.00032551780044517455, "snr": 3.5, "detection_probability": 0.95, "event_start_time": "2019-12-24 19:09:01.490000", "event_end_time": "2019-12-24 19:09:05.610000"}</text>
        <id>smi:local/e2452221-5310-4e8a-8f97-5f917aeedca0</id>
      </comment>
    </pick>
    <pick publicID="smi:local/20191224.190907.30-S-CM.URMC.00.HH">
      <time>
        <value>2019-12-24T19:09:07.308393Z</value>
        <uncertainty>0.2</uncertainty>
        <confidenceLevel>63.0</confidenceLevel>
      </time>
      <waveformID networkCode="CM" stationCode="URMC" locationCode="00" channelCode="HHZ">
        <resourceURI>smi:local/CM.URMC.00.HHZ</resourceURI>
      </waveformID>
      <methodID>smi:local/EQTransformer</methodID>
      <phaseHint>S</phaseHint>
      <evaluationMode>automatic</evaluationMode>
      <creationInfo>
        <author>EQTransformer</author>
        <creationTime>2023-05-16T03:16:13.086209Z</creationTime>
      </creationInfo>
      <comment>
        <text>{"probability": 0.63, "GaMMA_probability": 0.000406905130389544, "snr": 8.5, "detection_probability": 0.92, "event_start_time": "2019-12-24 19:09:03.368393", "event_end_time": "2019-12-24 19:09:09.018393"}</text>
        <id>smi:local/87d0ffde-c5a9-4d6a-adbf-45dbb4fb5fc6</id>
      </comment>
    </pick>
    <pick publicID="smi:local/20191224.190919.00-P-CM.ORTC.00.HH">
      <time>
        <value>2019-12-24T19:09:19.008393Z</value>
        <uncertainty>0.2</uncertainty>
        <confidenceLevel>30.0</confidenceLevel>
      </time>
      <waveformID networkCode="CM" stationCode="ORTC" locationCode="00" channelCode="HHZ">
        <resourceURI>smi:local/CM.ORTC.00.HHZ</resourceURI>
      </waveformID>
      <methodID>smi:local/EQTransformer</methodID>
      <phaseHint>P</phaseHint>
      <evaluationMode>automatic</evaluationMode>
      <creationInfo>
        <author>EQTransformer</author>
        <creationTime>2023-05-16T03:16:13.086735Z</creationTime>
      </creationInfo>
      <comment>
        <text>{"probability": 0.3, "GaMMA_probability": 0.0006203639623485591, "snr": 0.6, "detection_probability": 0.58, "event_start_time": "2019-12-24 19:09:18.738393", "event_end_time": "2019-12-24 19:09:41.248393"}</text>
        <id>smi:local/3f3ffe03-5aba-4c76-a83d-6a49ab8aef37</id>
      </comment>
    </pick>
    <pick publicID="smi:local/20191224.190934.52-S-CM.ORTC.00.HH">
      <time>
        <value>2019-12-24T19:09:34.528393Z</value>
        <uncertainty>0.2</uncertainty>
        <confidenceLevel>28.999999999999996</confidenceLevel>
      </time>
      <waveformID networkCode="CM" stationCode="ORTC" locationCode="00" channelCode="HHZ">
        <resourceURI>smi:local/CM.ORTC.00.HHZ</resourceURI>
      </waveformID>
      <methodID>smi:local/EQTransformer</methodID>
      <phaseHint>S</phaseHint>
      <evaluationMode>automatic</evaluationMode>
      <creationInfo>
        <author>EQTransformer</author>
        <creationTime>2023-05-16T03:16:13.087277Z</creationTime>
      </creationInfo>
      <comment>
        <text>{"probability": 0.29, "GaMMA_probability": 0.0007655215316410832, "snr": 4.0, "detection_probability": 0.58, "event_start_time": "2019-12-24 19:09:18.738393", "event_end_time": "2019-12-24 19:09:41.248393"}</text>
        <id>smi:local/f8c1f9ef-b46d-4b62-9247-d57d0a932e7f</id>
      </comment>
    </pick>
    <pick publicID="smi:local/20191224.191018.61-P-CM.CLEJA.10.HN">
      <time>
        <value>2019-12-24T19:10:18.610000Z</value>
        <uncertainty>0.2</uncertainty>
        <confidenceLevel>76.0</confidenceLevel>
      </time>
      <waveformID networkCode="CM" stationCode="CLEJA" locationCode="10" channelCode="HNZ">
        <resourceURI>smi:local/CM.CLEJA.10.HNZ</resourceURI>
      </waveformID>
      <methodID>smi:local/EQTransformer</methodID>
      <phaseHint>P</phaseHint>
      <evaluationMode>automatic</evaluationMode>
      <creationInfo>
        <author>EQTransformer</author>
        <creationTime>2023-05-16T03:16:13.102329Z</creationTime>
      </creationInfo>
      <comment>
        <text>{"probability": 0.76, "GaMMA_probability": 8.137991977191389e-05, "snr": 19.2, "detection_probability": 0.91, "event_start_time": "2019-12-24 19:10:18.510000", "event_end_time": "2019-12-24 19:10:22.520000"}</text>
        <id>smi:local/b9f4f619-e829-4da4-b55c-503eeac49cc0</id>
      </comment>
    </pick>
    <pick publicID="smi:local/20191224.191020.77-P-CM.URMC.00.HH">
      <time>
        <value>2019-12-24T19:10:20.778393Z</value>
        <uncertainty>0.2</uncertainty>
        <confidenceLevel>78.0</confidenceLevel>
      </time>
      <waveformID networkCode="CM" stationCode="URMC" locationCode="00" channelCode="HHZ">
        <resourceURI>smi:local/CM.URMC.00.HHZ</resourceURI>
      </waveformID>
      <methodID>smi:local/EQTransformer</methodID>
      <phaseHint>P</phaseHint>
      <evaluationMode>automatic</evaluationMode>
      <creationInfo>
        <author>EQTransformer</author>
        <creationTime>2023-05-16T03:16:13.102948Z</creationTime>
      </creationInfo>
      <comment>
        <text>{"probability": 0.78, "GaMMA_probability": 0.00011894114273385493, "snr": 23.6, "detection_probability": 0.94, "event_start_time": "2019-12-24 19:10:20.688393", "event_end_time": "2019-12-24 19:10:26.378393"}</text>
        <id>smi:local/99adb745-803a-49d2-8507-0105c9ea8f86</id>
      </comment>
    </pick>
    <pick publicID="smi:local/20191224.191021.33-S-CM.CLEJA.10.HN">
      <time>
        <value>2019-12-24T19:10:21.330000Z</value>
        <uncertainty>0.2</uncertainty>
        <confidenceLevel>68.0</confidenceLevel>
      </time>
      <waveformID networkCode="CM" stationCode="CLEJA" locationCode="10" channelCode="HNZ">
        <resourceURI>smi:local/CM.CLEJA.10.HNZ</resourceURI>
      </waveformID>
      <methodID>smi:local/EQTransformer</methodID>
      <phaseHint>S</phaseHint>
      <evaluationMode>automatic</evaluationMode>
      <creationInfo>
        <author>EQTransformer</author>
        <creationTime>2023-05-16T03:16:13.103486Z</creationTime>
      </creationInfo>
      <comment>
        <text>{"probability": 0.68, "GaMMA_probability": 0.00032551780044517455, "snr": 4.4, "detection_probability": 0.91, "event_start_time": "2019-12-24 19:10:18.510000", "event_end_time": "2019-12-24 19:10:22.520000"}</text>
        <id>smi:local/f7766543-c541-4ea0-af26-82026bd28cb8</id>
      </comment>
    </pick>
    <pick publicID="smi:local/20191224.191024.58-S-CM.URMC.00.HH">
      <time>
        <value>2019-12-24T19:10:24.588393Z</value>
        <uncertainty>0.2</uncertainty>
        <confidenceLevel>62.0</confidenceLevel>
      </time>
      <waveformID networkCode="CM" stationCode="URMC" locationCode="00" channelCode="HHZ">
        <resourceURI>smi:local/CM.URMC.00.HHZ</resourceURI>
      </waveformID>
      <methodID>smi:local/EQTransformer</methodID>
      <phaseHint>S</phaseHint>
      <evaluationMode>automatic</evaluationMode>
      <creationInfo>
        <author>EQTransformer</author>
        <creationTime>2023-05-16T03:16:13.104003Z</creationTime>
      </creationInfo>
      <comment>
        <text>{"probability": 0.62, "GaMMA_probability": 0.000406905130389544, "snr": 15.9, "detection_probability": 0.94, "event_start_time": "2019-12-24 19:10:20.688393", "event_end_time": "2019-12-24 19:10:26.378393"}</text>
        <id>smi:local/71f90c6a-3bd4-4eeb-8553-1fc2fd814557</id>
      </comment>
    </pick>
    <pick publicID="smi:local/20191224.191035.99-P-CM.ORTC.00.HH">
      <time>
        <value>2019-12-24T19:10:35.998393Z</value>
        <uncertainty>0.2</uncertainty>
        <confidenceLevel>88.0</confidenceLevel>
      </time>
      <waveformID networkCode="CM" stationCode="ORTC" locationCode="00" channelCode="HHZ">
        <resourceURI>smi:local/CM.ORTC.00.HHZ</resourceURI>
      </waveformID>
      <methodID>smi:local/EQTransformer</methodID>
      <phaseHint>P</phaseHint>
      <evaluationMode>automatic</evaluationMode>
      <creationInfo>
        <author>EQTransformer</author>
        <creationTime>2023-05-16T03:16:13.104488Z</creationTime>
      </creationInfo>
      <comment>
        <text>{"probability": 0.88, "GaMMA_probability": 0.0006203639623485591, "snr": 2.5, "detection_probability": 0.98, "event_start_time": "2019-12-24 19:10:35.948393", "event_end_time": "2019-12-24 19:11:04.838393"}</text>
        <id>smi:local/94188ccc-2c3e-4524-a548-bf61a6e6598d</id>
      </comment>
    </pick>
    <pick publicID="smi:local/20191224.191038.13-P-CM.CHI.00.HH">
      <time>
        <value>2019-12-24T19:10:38.138394Z</value>
        <uncertainty>0.2</uncertainty>
        <confidenceLevel>27.0</confidenceLevel>
      </time>
      <waveformID networkCode="CM" stationCode="CHI" locationCode="00" channelCode="HHZ">
        <resourceURI>smi:local/CM.CHI.00.HHZ</resourceURI>
      </waveformID>
      <methodID>smi:local/EQTransformer</methodID>
      <phaseHint>P</phaseHint>
      <evaluationMode>automatic</evaluationMode>
      <creationInfo>
        <author>EQTransformer</author>
        <creationTime>2023-05-16T03:16:13.105022Z</creationTime>
      </creationInfo>
      <comment>
        <text>{"probability": 0.27, "GaMMA_probability": 0.0007655215316410832, "snr": 2.7, "detection_probability": 0.88, "event_start_time": "2019-12-24 19:10:37.798394", "event_end_time": "2019-12-24 19:11:03.538394"}</text>
        <id>smi:local/97c4d71a-495b-44be-9822-c922162db57e</id>
      </comment>
    </pick>
    <pick publicID="smi:local/20191224.191104.46-P-CM.CLEJA.10.HN">
      <time>
        <value>2019-12-24T19:11:04.460000Z</value>
        <uncertainty>0.2</uncertainty>
        <confidenceLevel>69.0</confidenceLevel>
      </time>
      <waveformID networkCode="CM" stationCode="CLEJA" locationCode="10" channelCode="HNZ">
        <resourceURI>smi:local/CM.CLEJA.10.HNZ</resourceURI>
