 2021  612 2222 46.9 L   4.657 -72.403  1.9  CSE  6 3.7                        1
 OLDACT:UPD 22-01-31 08:21 OP:ed   STATUS:               ID:20210612222300     3
 OLDACT:REG 15-11-17 19:58 OP:xxx  STATUS:               ID:20210612222300     3
 GAP=355   CSE  9.47     999.9   999.9999.9 -0.7720E+09 -0.9853E+08  0.1385E+09E
 ACTION:UPD 22-06-15 06:57 OP:usr  STATUS:               ID:20210612222300     I
 STAT SP IPHASW D HRMM SECON CODA AMPLIT PERI AZIMU VELO AIN AR TRES W  DIS CAZ7
 STA1 EZ EP       2223 7.42                               18   -2.6310  115 145 
 STA1 EZ ES       2223 22.27                              10   -9.2410  115 145 
 STA6 EZ EP       2223 10.43                              18   -0.5310  122 146 
 STA6 EZ ES       2223 31.31                              10   -1.8310  122 146 
 STA5 EZ EP       2223 10.78                              18   -0.2410  123 147 
 STA5 EZ ES       2223 32.37                              10   -0.8710  123 147 
 STA4 EZ EP       2223 12.07                              18    0.6110  126 145 
 STA4 EZ ES       2223 36.22                              10    2.1910  126 145 
 STA2 EZ EP       2223 12.59                              18    1.0210  127 142 
 STA2 EZ ES       2223 37.78                              10    3.5610  127 142 
 STA3 EZ EP       2223 13.86                              18    1.8810  131 147 
 STA3 EZ ES       2223 41.59                              10    6.6410  131 147 
                                                                                
