<?xml version="1.0" encoding="UTF-8"?>
<seiscomp xmlns="http://geofon.gfz-potsdam.de/ns/seiscomp3-schema/0.10" version="0.10"><EventParameters><pick publicID="Pick/20220602091532.419127.37759"><time><value>2022-06-02T09:12:31.60357Z</value></time><waveformID networkCode="CM" stationCode="CHI" locationCode="00" channelCode="HHZ"/><phaseHint>P</phaseHint><evaluationMode>manual</evaluationMode><creationInfo><agencyID>SGC</agencyID><creationTime>2022-06-02T09:15:32.41919Z</creationTime></creationInfo></pick><pick publicID="Pick/20220602190004.757064.36087"><time><value>2022-06-02T09:12:35.361693Z</value></time><waveformID networkCode="CM" stationCode="CHI" locationCode="00" channelCode="HHN"/><phaseHint>S</phaseHint><evaluationMode>manual</evaluationMode><creationInfo><agencyID>SGC</agencyID><creationTime>2022-06-02T19:00:04.757137Z</creationTime></creationInfo></pick><pick publicID="Pick/20220602092150.531247.38040"><time><value>2022-06-02T09:12:31.628355Z</value></time><waveformID networkCode="CM" stationCode="VIL" locationCode="20" channelCode="EHZ"/><phaseHint>P</phaseHint><evaluationMode>manual</evaluationMode><creationInfo><agencyID>SGC</agencyID><creationTime>2022-06-02T09:21:50.53139Z</creationTime></creationInfo></pick><pick publicID="Pick/20220602091808.715234.37907"><time><value>2022-06-02T09:12:32.417444Z</value></time><waveformID networkCode="CM" stationCode="CVER" locationCode="00" channelCode="HHZ"/><phaseHint>P</phaseHint><evaluationMode>manual</evaluationMode><creationInfo><agencyID>SGC</agencyID><creationTime>2022-06-02T09:18:08.715311Z</creationTime></creationInfo></pick><pick publicID="Pick/20220602190004.756648.36086"><time><value>2022-06-02T09:12:36.512494Z</value></time><waveformID networkCode="CM" stationCode="CVER" locationCode="00" channelCode="HHE"/><phaseHint>S</phaseHint><evaluationMode>manual</evaluationMode><creationInfo><agencyID>SGC</agencyID><creationTime>2022-06-02T19:00:04.75677Z</creationTime></creationInfo></pick><pick publicID="Pick/20220602091532.419301.37761"><time><value>2022-06-02T09:12:34.959402Z</value></time><waveformID networkCode="CM" stationCode="ACH1" locationCode="00" channelCode="HHZ"/><phaseHint>P</phaseHint><evaluationMode>manual</evaluationMode><creationInfo><agencyID>SGC</agencyID><creationTime>2022-06-02T09:15:32.419354Z</creationTime></creationInfo></pick><pick publicID="Pick/20220602190004.757234.36088"><time><value>2022-06-02T09:12:41.850936Z</value></time><waveformID networkCode="CM" stationCode="ACH1" locationCode="00" channelCode="HHN"/><phaseHint>S</phaseHint><evaluationMode>manual</evaluationMode><creationInfo><agencyID>SGC</agencyID><creationTime>2022-06-02T19:00:04.757301Z</creationTime></creationInfo></pick><pick publicID="Pick/20220602091808.715436.37909"><time><value>2022-06-02T09:12:41.282041Z</value></time><waveformID networkCode="CM" stationCode="ROSC" channelCode="BHZ"/><phaseHint>P</phaseHint><evaluationMode>manual</evaluationMode><creationInfo><agencyID>SGC</agencyID><creationTime>2022-06-02T09:18:08.715493Z</creationTime></creationInfo></pick><pick publicID="Pick/20220602091808.715527.37910"><time><value>2022-06-02T09:12:49.669313Z</value></time><waveformID networkCode="CM" stationCode="URMC" locationCode="00" channelCode="HHZ"/><phaseHint>P</phaseHint><evaluationMode>manual</evaluationMode><creationInfo><agencyID>SGC</agencyID><creationTime>2022-06-02T09:18:08.715582Z</creationTime></creationInfo></pick><pick publicID="Pick/20220602091532.419522.37763"><time><value>2022-06-02T09:12:49.654179Z</value></time><waveformID networkCode="CM" stationCode="PRA" locationCode="00" channelCode="HHZ"/><phaseHint>P</phaseHint><evaluationMode>manual</evaluationMode><creationInfo><agencyID>SGC</agencyID><creationTime>2022-06-02T09:15:32.419586Z</creationTime></creationInfo></pick><pick publicID="Pick/20220602190004.757446.36089"><time><value>2022-06-02T09:13:12.291247Z</value></time><waveformID networkCode="CM" stationCode="PRA" locationCode="00" channelCode="HHE"/><phaseHint>S</phaseHint><evaluationMode>manual</evaluationMode><creationInfo><agencyID>SGC</agencyID><creationTime>2022-06-02T19:00:04.757498Z</creationTime></creationInfo></pick><pick publicID="Pick/20220602190004.757583.36090"><time><value>2022-06-02T09:12:53.622685Z</value><lowerUncertainty>0.1000000015</lowerUncertainty><upperUncertainty>0.1000000015</upperUncertainty></time><waveformID networkCode="CM" stationCode="SPBC" locationCode="00" channelCode="HHZ"/><phaseHint>P</phaseHint><evaluationMode>manual</evaluationMode><creationInfo><agencyID>SGC</agencyID><creationTime>2022-06-02T19:00:04.757657Z</creationTime></creationInfo></pick><pick publicID="Pick/20220602091532.419778.37766"><time><value>2022-06-02T09:13:13.952268Z</value></time><waveformID networkCode="CM" stationCode="SPBC" locationCode="00" channelCode="HHN"/><phaseHint>S</phaseHint><evaluationMode>manual</evaluationMode><creationInfo><agencyID>SGC</agencyID><creationTime>2022-06-02T09:15:32.419829Z</creationTime></creationInfo></pick><pick publicID="Pick/20220602091532.41986.37767"><time><value>2022-06-02T09:12:53.919795Z</value></time><waveformID networkCode="CM" stationCode="ORTC" locationCode="00" channelCode="HHZ"/><phaseHint>P</phaseHint><evaluationMode>manual</evaluationMode><creationInfo><agencyID>SGC</agencyID><creationTime>2022-06-02T09:15:32.419915Z</creationTime></creationInfo></pick><pick publicID="Pick/20220602091532.419941.37768"><time><value>2022-06-02T09:13:13.740123Z</value></time><waveformID networkCode="CM" stationCode="ORTC" locationCode="00" channelCode="HHN"/><phaseHint>S</phaseHint><evaluationMode>manual</evaluationMode><creationInfo><agencyID>SGC</agencyID><creationTime>2022-06-02T09:15:32.419993Z</creationTime></creationInfo></pick><pick publicID="Pick/20220602091532.420024.37769"><time><value>2022-06-02T09:12:55.647255Z</value></time><waveformID networkCode="CM" stationCode="PIRM" locationCode="00" channelCode="HHZ"/><phaseHint>P</phaseHint><evaluationMode>manual</evaluationMode><creationInfo><agencyID>SGC</agencyID><creationTime>2022-06-02T09:15:32.420136Z</creationTime></creationInfo></pick><pick publicID="Pick/20220602091532.42017.37770"><time><value>2022-06-02T09:13:16.407079Z</value></time><waveformID networkCode="CM" stationCode="PIRM" locationCode="00" channelCode="HHN"/><phaseHint>S</phaseHint><evaluationMode>manual</evaluationMode><creationInfo><agencyID>SGC</agencyID><creationTime>2022-06-02T09:15:32.420227Z</creationTime></creationInfo></pick><pick publicID="Pick/20220602091808.715628.37911"><time><value>2022-06-02T09:12:55.760882Z</value></time><waveformID networkCode="CM" stationCode="NOR" locationCode="00" channelCode="HHZ"/><phaseHint>P</phaseHint><evaluationMode>manual</evaluationMode><creationInfo><agencyID>SGC</agencyID><creationTime>2022-06-02T09:18:08.715682Z</creationTime></creationInfo></pick><pick publicID="Pick/20220602091808.715708.37912"><time><value>2022-06-02T09:13:18.339085Z</value></time><waveformID networkCode="CM" stationCode="NOR" locationCode="00" channelCode="HHN"/><phaseHint>S</phaseHint><evaluationMode>manual</evaluationMode><creationInfo><agencyID>SGC</agencyID><creationTime>2022-06-02T09:18:08.71576Z</creationTime></creationInfo></pick><pick publicID="Pick/20220602091808.71579.37913"><time><value>2022-06-02T09:12:57.821711Z</value></time><waveformID networkCode="CM" stationCode="PTGC" locationCode="00" channelCode="HHZ"/><phaseHint>P</phaseHint><evaluationMode>manual</evaluationMode><creationInfo><agencyID>SGC</agencyID><creationTime>2022-06-02T09:18:08.715844Z</creationTime></creationInfo></pick><pick publicID="Pick/20220602091808.71587.37914"><time><value>2022-06-02T09:13:21.309103Z</value></time><waveformID networkCode="CM" stationCode="PTGC" locationCode="00" channelCode="HHN"/><phaseHint>S</phaseHint><evaluationMode>manual</evaluationMode><creationInfo><agencyID>SGC</agencyID><creationTime>2022-06-02T09:18:08.715923Z</creationTime></creationInfo></pick><pick publicID="Pick/20220602091532.420262.37771"><time><value>2022-06-02T09:12:58.405129Z</value></time><waveformID networkCode="CM" stationCode="RUS" locationCode="00" channelCode="HHZ"/><phaseHint>P</phaseHint><evaluationMode>manual</evaluationMode><creationInfo><agencyID>SGC</agencyID><creationTime>2022-06-02T09:15:32.420316Z</creationTime></creationInfo></pick><pick publicID="Pick/20220602091532.420342.37772"><time><value>2022-06-02T09:13:22.771402Z</value></time><waveformID networkCode="CM" stationCode="RUS" locationCode="00" channelCode="HHN"/><phaseHint>S</phaseHint><evaluationMode>manual</evaluationMode><creationInfo><agencyID>SGC</agencyID><creationTime>2022-06-02T09:15:32.420394Z</creationTime></creationInfo></pick><pick publicID="Pick/20220602091532.420426.37773"><time><value>2022-06-02T09:12:59.585177Z</value></time><waveformID networkCode="CM" stationCode="YPLC" locationCode="00" channelCode="HHZ"/><phaseHint>P</phaseHint><evaluationMode>manual</evaluationMode><creationInfo><agencyID>SGC</agencyID><creationTime>2022-06-02T09:15:32.420479Z</creationTime></creationInfo></pick><pick publicID="Pick/20220602091532.420506.37774"><time><value>2022-06-02T09:13:24.559462Z</value></time><waveformID networkCode="CM" stationCode="YPLC" locationCode="00" channelCode="HHN"/><phaseHint>S</phaseHint><evaluationMode>manual</evaluationMode><creationInfo><agencyID>SGC</agencyID><creationTime>2022-06-02T09:15:32.420557Z</creationTime></creationInfo></pick><pick publicID="Pick/20220602091532.420592.37775"><time><value>2022-06-02T09:12:59.187411Z</value></time><waveformID networkCode="CM" stationCode="GUY2C" locationCode="00" channelCode="HHZ"/><phaseHint>P</phaseHint><evaluationMode>manual</evaluationMode><creationInfo><agencyID>SGC</agencyID><creationTime>2022-06-02T09:15:32.420645Z</creationTime></creationInfo></pick><pick publicID="Pick/20220602091532.420669.37776"><time><value>2022-06-02T09:13:22.521378Z</value></time><waveformID networkCode="CM" stationCode="GUY2C" locationCode="00" channelCode="HHN"/><phaseHint>S</phaseHint><evaluationMode>manual</evaluationMode><creationInfo><agencyID>SGC</agencyID><creationTime>2022-06-02T09:15:32.420719Z</creationTime></creationInfo></pick><pick publicID="Pick/20220602091808.716217.37917"><time><value>2022-06-02T09:13:03.579909Z</value></time><waveformID networkCode="CM" stationCode="PLNC" locationCode="20" channelCode="EHZ"/><phaseHint>P</phaseHint><evaluationMode>manual</evaluationMode><creationInfo><agencyID>SGC</agencyID><creationTime>2022-06-02T09:18:08.716272Z</creationTime></creationInfo></pick><pick publicID="Pick/20220602091808.716299.37918"><time><value>2022-06-02T09:13:03.640521Z</value></time><waveformID networkCode="CM" stationCode="MACC" locationCode="00" channelCode="HHZ"/><phaseHint>P</phaseHint><evaluationMode>manual</evaluationMode><creationInfo><agencyID>SGC</agencyID><creationTime>2022-06-02T09:18:08.716353Z</creationTime></creationInfo></pick><pick publicID="Pick/20220602091808.716378.37919"><time><value>2022-06-02T09:13:31.84055Z</value></time><waveformID networkCode="CM" stationCode="MACC" locationCode="00" channelCode="HHN"/><phaseHint>S</phaseHint><evaluationMode>manual</evaluationMode><creationInfo><agencyID>SGC</agencyID><creationTime>2022-06-02T09:18:08.71644Z</creationTime></creationInfo></pick><pick publicID="Pick/20220602190004.758181.36091"><time><value>2022-06-02T09:13:06.40938Z</value></time><waveformID networkCode="CM" stationCode="PTB" locationCode="00" channelCode="HHZ"/><filterID>BW(3,5,10)</filterID><phaseHint>P</phaseHint><evaluationMode>manual</evaluationMode><creationInfo><agencyID>SGC</agencyID><creationTime>2022-06-02T19:00:04.758239Z</creationTime></creationInfo></pick><pick publicID="Pick/20220602190004.758291.36092"><time><value>2022-06-02T09:13:36.905627Z</value></time><waveformID networkCode="CM" stationCode="PTB" locationCode="00" channelCode="HHN"/><filterID>BW(3,5,10)</filterID><phaseHint>S</phaseHint><evaluationMode>manual</evaluationMode><creationInfo><agencyID>SGC</agencyID><creationTime>2022-06-02T19:00:04.75834Z</creationTime></creationInfo></pick><pick publicID="Pick/20220602190004.758387.36093"><time><value>2022-06-02T09:13:08.710978Z</value></time><waveformID networkCode="CM" stationCode="BAR2" locationCode="00" channelCode="HHZ"/><phaseHint>P</phaseHint><evaluationMode>manual</evaluationMode><creationInfo><agencyID>SGC</agencyID><creationTime>2022-06-02T19:00:04.758435Z</creationTime></creationInfo></pick><pick publicID="Pick/20220602190004.758478.36094"><time><value>2022-06-02T09:13:40.32606Z</value></time><waveformID networkCode="CM" stationCode="BAR2" locationCode="00" channelCode="HHN"/><phaseHint>S</phaseHint><evaluationMode>manual</evaluationMode><creationInfo><agencyID>SGC</agencyID><creationTime>2022-06-02T19:00:04.758524Z</creationTime></creationInfo></pick><pick publicID="Pick/20220602091808.716719.37923"><time><value>2022-06-02T09:13:09.535104Z</value><lowerUncertainty>0.1000000015</lowerUncertainty><upperUncertainty>0.1000000015</upperUncertainty></time><waveformID networkCode="CM" stationCode="HEL" locationCode="00" channelCode="HHZ"/><filterID>BW(3,1,5)</filterID><phaseHint>P</phaseHint><evaluationMode>manual</evaluationMode><creationInfo><agencyID>SGC</agencyID><creationTime>2022-06-02T09:18:08.71677Z</creationTime></creationInfo></pick><pick publicID="Pick/20220602091808.716793.37924"><time><value>2022-06-02T09:13:42.205309Z</value><lowerUncertainty>0.1000000015</lowerUncertainty><upperUncertainty>0.1000000015</upperUncertainty></time><waveformID networkCode="CM" stationCode="HEL" locationCode="00" channelCode="HHN"/><filterID>BW(3,1,5)</filterID><phaseHint>S</phaseHint><evaluationMode>manual</evaluationMode><creationInfo><agencyID>SGC</agencyID><creationTime>2022-06-02T09:18:08.716841Z</creationTime></creationInfo></pick><pick publicID="Pick/20220602091808.716644.37922"><time><value>2022-06-02T09:13:10.807969Z</value><lowerUncertainty>0.1000000015</lowerUncertainty><upperUncertainty>0.1000000015</upperUncertainty></time><waveformID networkCode="CM" stationCode="PAL" locationCode="00" channelCode="HHZ"/><filterID>BW(3,1,5)</filterID><phaseHint>P</phaseHint><evaluationMode>manual</evaluationMode><creationInfo><agencyID>SGC</agencyID><creationTime>2022-06-02T09:18:08.716693Z</creationTime></creationInfo></pick><pick publicID="Pick/20220602091808.716481.37920"><time><value>2022-06-02T09:13:11.656546Z</value><lowerUncertainty>0.1000000015</lowerUncertainty><upperUncertainty>0.1000000015</upperUncertainty></time><waveformID networkCode="CM" stationCode="PGA6" locationCode="00" channelCode="HHZ"/><filterID>BW(3,1,5)</filterID><phaseHint>P</phaseHint><evaluationMode>manual</evaluationMode><creationInfo><agencyID>SGC</agencyID><creationTime>2022-06-02T09:18:08.716541Z</creationTime></creationInfo></pick><pick publicID="Pick/20220602091808.716568.37921"><time><value>2022-06-02T09:13:40.689994Z</value><lowerUncertainty>0.1000000015</lowerUncertainty><upperUncertainty>0.1000000015</upperUncertainty></time><waveformID networkCode="CM" stationCode="PGA6" locationCode="00" channelCode="HHN"/><filterID>BW(3,1,5)</filterID><phaseHint>S</phaseHint><evaluationMode>manual</evaluationMode><creationInfo><agencyID>SGC</agencyID><creationTime>2022-06-02T09:18:08.716619Z</creationTime></creationInfo></pick><pick publicID="Pick/20220602091808.71687.37925"><time><value>2022-06-02T09:13:13.171862Z</value><lowerUncertainty>0.1000000015</lowerUncertainty><upperUncertainty>0.1000000015</upperUncertainty></time><waveformID networkCode="CM" stationCode="CBOC" locationCode="00" channelCode="HHZ"/><filterID>BW(3,1,5)</filterID><phaseHint>P</phaseHint><evaluationMode>manual</evaluationMode><creationInfo><agencyID>SGC</agencyID><creationTime>2022-06-02T09:18:08.71692Z</creationTime></creationInfo></pick><pick publicID="Pick/20220602091808.716942.37926"><time><value>2022-06-02T09:13:47.357383Z</value><lowerUncertainty>0.1000000015</lowerUncertainty><upperUncertainty>0.1000000015</upperUncertainty></time><waveformID networkCode="CM" stationCode="CBOC" locationCode="00" channelCode="HHN"/><filterID>BW(3,1,5)</filterID><phaseHint>S</phaseHint><evaluationMode>manual</evaluationMode><creationInfo><agencyID>SGC</agencyID><creationTime>2022-06-02T09:18:08.716998Z</creationTime></creationInfo></pick><pick publicID="Pick/20220602091808.717023.37927"><time><value>2022-06-02T09:13:13.353699Z</value><lowerUncertainty>0.1000000015</lowerUncertainty><upperUncertainty>0.1000000015</upperUncertainty></time><waveformID networkCode="CM" stationCode="GARC" locationCode="00" channelCode="HHZ"/><filterID>BW(3,1,5)</filterID><phaseHint>P</phaseHint><evaluationMode>manual</evaluationMode><creationInfo><agencyID>SGC</agencyID><creationTime>2022-06-02T09:18:08.717072Z</creationTime></creationInfo></pick><pick publicID="Pick/20220602190004.758766.36095"><time><value>2022-06-02T09:13:50.667297Z</value></time><waveformID networkCode="CM" stationCode="GARC" locationCode="00" channelCode="HHN"/><phaseHint>S</phaseHint><evaluationMode>manual</evaluationMode><creationInfo><agencyID>SGC</agencyID><creationTime>2022-06-02T19:00:04.758816Z</creationTime></creationInfo></pick><pick publicID="Pick/20220602091808.71718.37929"><time><value>2022-06-02T09:13:18.020872Z</value><lowerUncertainty>0.1000000015</lowerUncertainty><upperUncertainty>0.1000000015</upperUncertainty></time><waveformID networkCode="CM" stationCode="QUBC" locationCode="00" channelCode="HHZ"/><filterID>BW(3,1,5)</filterID><phaseHint>P</phaseHint><evaluationMode>manual</evaluationMode><creationInfo><agencyID>SGC</agencyID><creationTime>2022-06-02T09:18:08.717231Z</creationTime></creationInfo></pick><pick publicID="Pick/20220602092304.995787.38047"><time><value>2022-06-02T09:13:21.889941Z</value><lowerUncertainty>0.1000000015</lowerUncertainty><upperUncertainty>0.1000000015</upperUncertainty></time><waveformID networkCode="CM" stationCode="PAM" locationCode="20" channelCode="EHZ"/><filterID>BW(3,5,10)</filterID><phaseHint>P</phaseHint><evaluationMode>manual</evaluationMode><creationInfo><agencyID>SGC</agencyID><creationTime>2022-06-02T09:23:04.995847Z</creationTime></creationInfo></pick><pick publicID="Pick/20220602091808.717483.37933"><time><value>2022-06-02T09:13:22.566819Z</value><lowerUncertainty>0.1000000015</lowerUncertainty><upperUncertainty>0.1000000015</upperUncertainty></time><waveformID networkCode="CM" stationCode="ZAR" locationCode="00" channelCode="HHZ"/><filterID>BW(3,1,5)</filterID><phaseHint>P</phaseHint><evaluationMode>manual</evaluationMode><creationInfo><agencyID>SGC</agencyID><creationTime>2022-06-02T09:18:08.717532Z</creationTime></creationInfo></pick><pick publicID="Pick/20220602092304.99567.38046"><time><value>2022-06-02T09:14:07.531248Z</value><lowerUncertainty>0.1000000015</lowerUncertainty><upperUncertainty>0.1000000015</upperUncertainty></time><waveformID networkCode="CM" stationCode="COBO" locationCode="00" channelCode="HHN"/><filterID>BW(3,5,10)</filterID><phaseHint>S</phaseHint><evaluationMode>manual</evaluationMode><creationInfo><agencyID>SGC</agencyID><creationTime>2022-06-02T09:23:04.995745Z</creationTime></creationInfo></pick><pick publicID="Pick/20220602092304.995462.38045"><time><value>2022-06-02T09:13:26.435888Z</value><lowerUncertainty>0.1000000015</lowerUncertainty><upperUncertainty>0.1000000015</upperUncertainty></time><waveformID networkCode="CM" stationCode="COBO" locationCode="00" channelCode="HHZ"/><filterID>BW(3,5,10)</filterID><phaseHint>P</phaseHint><evaluationMode>manual</evaluationMode><creationInfo><agencyID>SGC</agencyID><creationTime>2022-06-02T09:23:04.995619Z</creationTime></creationInfo></pick><pick publicID="Pick/20220602092304.995959.38049"><time><value>2022-06-02T09:14:07.410023Z</value><lowerUncertainty>0.1000000015</lowerUncertainty><upperUncertainty>0.1000000015</upperUncertainty></time><waveformID networkCode="CM" stationCode="FLO2" locationCode="00" channelCode="HHN"/><filterID>BW(3,5,10)</filterID><phaseHint>S</phaseHint><evaluationMode>manual</ev