<?xml version="1.0" encoding="UTF-8"?>
<seiscomp xmlns="http://geofon.gfz-potsdam.de/ns/seiscomp3-schema/0.10" version="0.10"><EventParameters><pick publicID="20220604.111353.83-AIC-CM.DRL03.30.HHZ"><time><value>2022-06-04T11:13:53.835Z</value></time><waveformID networkCode="CM" stationCode="DRL03" locationCode="30" channelCode="HHZ"/><filterID>BW(4,5.0,10.0)</filterID><methodID>AIC</methodID><phaseHint>P</phaseHint><evaluationMode>automatic</evaluationMode><creationInfo><agencyID>SGC</agencyID><creationTime>2022-06-04T11:14:05.766114Z</creationTime></creationInfo></pick><pick publicID="20220604.111353.86-AIC-CM.DRL03.30.HHN"><time><value>2022-06-04T11:13:53.86Z</value></time><waveformID networkCode="CM" stationCode="DRL03" locationCode="30" channelCode="HHN"/><filterID>BW(4,5.0,10.0)</filterID><methodID>AIC</methodID><phaseHint>P</phaseHint><evaluationMode>automatic</evaluationMode><creationInfo><agencyID>SGC</agencyID><creationTime>2022-06-04T11:14:05.817221Z</creationTime></creationInfo></pick><pick publicID="20220604.111353.99-AIC-CM.DRL03.30.HHE"><time><value>2022-06-04T11:13:53.99Z</value></time><waveformID networkCode="CM" stationCode="DRL03" locationCode="30" channelCode="HHE"/><filterID>BW(4,8.5,15.0)</filterID><methodID>AIC</methodID><phaseHint>P</phaseHint><evaluationMode>automatic</evaluationMode><creationInfo><agencyID>SGC</agencyID><creationTime>2022-06-04T11:14:06.607649Z</creationTime></creationInfo></pick><pick publicID="20220604.111357.56-AIC-CM.DRL01.30.HHZ"><time><value>2022-06-04T11:13:57.565Z</value></time><waveformID networkCode="CM" stationCode="DRL01" locationCode="30" channelCode="HHZ"/><filterID>BW(4,5.0,10.0)</filterID><methodID>AIC</methodID><phaseHint>P</phaseHint><evaluationMode>automatic</evaluationMode><creationInfo><agencyID>SGC</agencyID><creationTime>2022-06-04T11:14:09.769811Z</creationTime></creationInfo></pick><pick publicID="20220604.111357.99-AIC-CM.DRL01.30.HHN"><time><value>2022-06-04T11:13:57.995Z</value></time><waveformID networkCode="CM" stationCode="DRL01" locationCode="30" channelCode="HHN"/><filterID>BW(4,5.0,10.0)</filterID><methodID>AIC</methodID><phaseHint>P</phaseHint><evaluationMode>automatic</evaluationMode><creationInfo><agencyID>SGC</agencyID><creationTime>2022-06-04T11:14:11.208876Z</creationTime></creationInfo></pick><pick publicID="20220604.111400.19-AIC-CM.VALLC.10.HNN"><time><value>2022-06-04T11:14:00.195Z</value></time><waveformID networkCode="CM" stationCode="VALLC" locationCode="10" channelCode="HNN"/><methodID>AIC</methodID><phaseHint>P</phaseHint><evaluationMode>automatic</evaluationMode><creationInfo><agencyID>SGC</agencyID><creationTime>2022-06-04T11:14:17.023532Z</creationTime></creationInfo></pick><pick publicID="20220604.111400.24-AIC-CM.VALLC.10.HNE"><time><value>2022-06-04T11:14:00.24Z</value></time><waveformID networkCode="CM" stationCode="VALLC" locationCode="10" channelCode="HNE"/><methodID>AIC</methodID><phaseHint>P</phaseHint><evaluationMode>automatic</evaluationMode><creationInfo><agencyID>SGC</agencyID><creationTime>2022-06-04T11:14:16.672273Z</creationTime></creationInfo></pick><pick publicID="20220604.111401.99-AIC-CM.ARGC.00.HHZ"><time><value>2022-06-04T11:14:01.998393Z</value></time><waveformID networkCode="CM" stationCode="ARGC" locationCode="00" channelCode="HHZ"/><filterID>BW(9,7,30)</filterID><methodID>AIC</methodID><phaseHint>P</phaseHint><evaluationMode>automatic</evaluationMode><creationInfo><agencyID>SGC</agencyID><creationTime>2022-06-04T11:14:23.040522Z</creationTime></creationInfo></pick><pick publicID="20220604.111402.89-AIC-CM.ARGC.00.HHN"><time><value>2022-06-04T11:14:02.898394Z</value></time><waveformID networkCode="CM" stationCode="ARGC" locationCode="00" channelCode="HHN"/><filterID>BW(9,15,30)</filterID><methodID>AIC</methodID><phaseHint>P</phaseHint><evaluationMode>automatic</evaluationMode><creationInfo><agencyID>SGC</agencyID><creationTime>2022-06-04T11:14:22.868109Z</creationTime></creationInfo></pick><pick publicID="20220604.111406.94-AIC-CM.VALLC.10.HNZ"><time><value>2022-06-04T11:14:06.945Z</value></time><waveformID networkCode="CM" stationCode="VALLC" locationCode="10" channelCode="HNZ"/><filterID>BW(4,10,15)</filterID><methodID>AIC</methodID><phaseHint>P</phaseHint><evaluationMode>automatic</evaluationMode><creationInfo><agencyID>SGC</agencyID><creationTime>2022-06-04T11:14:22.673488Z</creationTime></creationInfo></pick><pick publicID="20220604.111408.42-S-L2-CM.DRL03.30.HHN"><time><value>2022-06-04T11:14:08.425Z</value></time><waveformID networkCode="CM" stationCode="DRL03" locationCode="30" channelCode="HHN"/><filterID>BW(4,0.3,2.5)</filterID><methodID>L2-AIC</methodID><phaseHint>S</phaseHint><evaluationMode>automatic</evaluationMode><creationInfo><agencyID>SGC</agencyID><creationTime>2022-06-04T11:14:15.084432Z</creationTime></creationInfo><comment><text>20220604.111353.83-AIC-CM.DRL03.30.HHZ</text><id>RefPickID</id></comment></pick><pick publicID="20220604.111415.00-S-L2-CM.DRL01.30.HHN"><time><value>2022-06-04T11:14:15.0000Z</value></time><waveformID networkCode="CM" stationCode="DRL01" locationCode="30" channelCode="HHN"/><filterID>BW(4,0.7,2.0)</filterID><methodID>L2-AIC</methodID><phaseHint>S</phaseHint><evaluationMode>automatic</evaluationMode><creationInfo><agencyID>SGC</agencyID><creationTime>2022-06-04T11:14:23.034766Z</creationTime></creationInfo><comment><text>20220604.111357.56-AIC-CM.DRL01.30.HHZ</text><id>RefPickID</id></comment></pick><pick publicID="20220604.111421.89-S-L2-CM.ARGC.00.HHN"><time><value>2022-06-04T11:14:21.898394Z</value></time><waveformID networkCode="CM" stationCode="ARGC" locationCode="00" channelCode="HHN"/><filterID>BW(4,1,6)</filterID><methodID>L2-AIC</methodID><phaseHint>S</phaseHint><evaluationMode>automatic</evaluationMode><creationInfo><agencyID>SGC</agencyID><creationTime>2022-06-04T11:14:35.854588Z</creationTime></creationInfo><comment><text>20220604.111401.99-AIC-CM.ARGC.00.HHZ</text><id>RefPickID</id></comment></pick><amplitude publicID="Amplitude/20220604111453.472118.182189"><type>MLv</type><amplitude><value>1.304067205</value></amplitude><timeWindow><reference>2022-06-04T11:14:11.11Z</reference><begin>-22.275</begin><end>35.55</end></timeWindow><snr>54.08634516</snr><pickID>20220604.111353.83-AIC-CM.DRL03.30.HHZ</pickID><waveformID networkCode="CM" stationCode="DRL03" locationCode="30" channelCode="HHZ"/><creationInfo><agencyID>SGC</agencyID><creationTime>2022-06-04T11:14:53.472267Z</creationTime></creationInfo></amplitude><amplitude publicID="Amplitude/20220604111511.185867.182190"><type>MLv</type><amplitude><value>1.769109868</value></amplitude><timeWindow><reference>2022-06-04T11:13:57.59Z</reference><begin>-5.025</begin><end>65.765</end></timeWindow><snr>6.029528157</snr><pickID>20220604.111357.56-AIC-CM.DRL01.30.HHZ</pickID><waveformID networkCode="CM" stationCode="DRL01" locationCode="30" channelCode="HHZ"/><creationInfo><agencyID>SGC</agencyID><creationTime>2022-06-04T11:15:11.18602Z</creationTime></creationInfo></amplitude><amplitude publicID="20220604.111401.99-AIC-CM.ARGC.00.HHZ.MLv"><type>MLv</type><amplitude><value>0.446740304</value></amplitude><timeWindow><reference>2022-06-04T11:14:03.118393Z</reference><begin>-6.12</begin><end>148.88</end></timeWindow><snr>7.308696115</snr><pickID>20220604.111401.99-AIC-CM.ARGC.00.HHZ</pickID><waveformID networkCode="CM" stationCode="ARGC" locationCode="00" channelCode="HHZ"/><creationInfo><agencyID>SGC</agencyID><creationTime>2022-06-04T11:16:39.572883Z</creationTime></creationInfo></amplitude><amplitude publicID="20220604.111400.19-AIC-CM.VALLC.10.HNN.MLv"><type>MLv</type><amplitude><value>1.271417315</value></amplitude><timeWindow><reference>2022-06-04T11:15:19.535Z</reference><begin>-84.34</begin><end>70.66</end></timeWindow><snr>2.174395337</snr><pickID>20220604.111400.19-AIC-CM.VALLC.10.HNN</pickID><waveformID networkCode="CM" stationCode="VALLC" locationCode="10" channelCode="HNN"/><creationInfo><agencyID>SGC</agencyID><creationTime>2022-06-04T11:16:39.783269Z</creationTime></creationInfo></amplitude><origin publicID="Origin/20220604111435.858563.148516"><time><value>2022-06-04T11:13:35.888072Z</value><uncertainty>1.129800304</uncertainty></time><latitude><value>9.061429977</value><uncertainty>10.02822783</uncertainty></latitude><longitude><value>-73.07579041</value><uncertainty>7.960400804</uncertainty></longitude><depth><value>115.9385986</value><uncertainty>8.389272343</uncertainty></depth><methodID>LOCSAT</methodID><earthModelID>iasp91</earthModelID><quality><associatedPhaseCount>13</associatedPhaseCount><usedPhaseCount>13</usedPhaseCount><associatedStationCount>4</associatedStationCount><usedStationCount>4</usedStationCount><depthPhaseCount>0</depthPhaseCount><standardError>1.754223204</standardError><azimuthalGap>311.6288452</azimuthalGap><maximumDistance>1.4492203</maximumDistance><minimumDistance>0.5139238238</minimumDistance><medianDistance>0.8670796752</medianDistance></quality><uncertainty><minHorizontalUncertainty>16.59885788</minHorizontalUncertainty><maxHorizontalUncertainty>21.93001938</maxHorizontalUncertainty><azimuthMaxHorizontalUncertainty>16.65908241</azimuthMaxHorizontalUncertainty><preferredDescription>horizontal uncertainty</preferredDescription></uncertainty><evaluationMode>automatic</evaluationMode><evaluationStatus>confirmed</evaluationStatus><creationInfo><agencyID>SGC</agencyID><creationTime>2022-06-04T11:14:35.859066Z</creationTime></creationInfo><comment><text>0.00</text><id>mismatchScore</id></comment><comment><text>mismatchScore</text><id>scevalMethod</id></comment><arrival><pickID>20220604.111353.83-AIC-CM.DRL03.30.HHZ</pickID><phase>P</phase><azimuth>309.8078613</azimuth><distance>0.5139238238</distance><timeResidual>-0.9276046753</timeResidual><timeUsed>true</timeUsed><horizontalSlownessUsed>false</horizontalSlownessUsed><backazimuthUsed>false</backazimuthUsed><weight>1</weight></arrival><arrival><pickID>20220604.111353.86-AIC-CM.DRL03.30.HHN</pickID><phase>P</phase><azimuth>309.8078613</azimuth><distance>0.5139238238</distance><timeResidual>-0.9026050568</timeResidual><timeUsed>true</timeUsed><horizontalSlownessUsed>false</horizontalSlownessUsed><backazimuthUsed>false</backazimuthUsed><weight>1</weight></arrival><arrival><pickID>20220604.111353.99-AIC-CM.DRL03.30.HHE</pickID><phase>P</phase><azimuth>309.8078613</azimuth><distance>0.5139238238</distance><timeResidual>-0.7676048279</timeResidual><timeUsed>true</timeUsed><horizontalSlownessUsed>false</horizontalSlownessUsed><backazimuthUsed>false</backazimuthUsed><weight>1</weight></arrival><arrival><pickID>20220604.111357.56-AIC-CM.DRL01.30.HHZ</pickID><phase>P</phase><azimuth>317.8487854</azimuth><distance>0.8670796752</distance><timeResidual>0.72240448</timeResidual><timeUsed>true</timeUsed><horizontalSlownessUsed>false</horizontalSlownessUsed><backazimuthUsed>false</backazimuthUsed><weight>1</weight></arrival><arrival><pickID>20220604.111357.99-AIC-CM.DRL01.30.HHN</pickID><phase>P</phase><azimuth>317.8487854</azimuth><distance>0.8670796752</distance><timeResidual>1.152404785</timeResidual><timeUsed>true</timeUsed><horizontalSlownessUsed>false</horizontalSlownessUsed><backazimuthUsed>false</backazimuthUsed><weight>1</weight></arrival><arrival><pickID>20220604.111400.19-AIC-CM.VALLC.10.HNN</pickID><phase>P</phase><azimuth>352.8925476</azimuth><distance>1.4492203</distance><timeResidual>-2.458993912</timeResidual><timeUsed>true</timeUsed><horizontalSlownessUsed>false</horizontalSlownessUsed><backazimuthUsed>false</backazimuthUsed><weight>1</weight></arrival><arrival><pickID>20220604.111400.24-AIC-CM.VALLC.10.HNE</pickID><phase>P</phase><azimuth>352.8925476</azimuth><distance>1.4492203</distance><timeResidual>-2.413991928</timeResidual><timeUsed>true</timeUsed><horizontalSlownessUsed>false</horizontalSlownessUsed><backazimuthUsed>false</backazimuthUsed><weight>1</weight></arrival><arrival><pickID>20220604.111401.99-AIC-CM.ARGC.00.HHZ</pickID><phase>P</phase><azimuth>304.5213928</azimuth><distance>1.399452686</distance><timeResidual>-0.08665275574</timeResidual><timeUsed>true</timeUsed><horizontalSlownessUsed>false</horizontalSlownessUsed><backazimuthUsed>false</backazimuthUsed><weight>1</weight></arrival><arrival><pickID>20220604.111402.89-AIC-CM.ARGC.00.HHN</pickID><phase>P</phase><azimuth>304.5213928</azimuth><distance>1.399452686</distance><timeResidual>0.8133487701</timeResidual><timeUsed>true</timeUsed><horizontalSlownessUsed>false</horizontalSlownessUsed><backazimuthUsed>false</backazimuthUsed><weight>1</weight></arrival><arrival><pickID>20220604.111406.94-AIC-CM.VALLC.10.HNZ</pickID><phase>P</phase><azimuth>352.8925476</azimuth><distance>1.4492203</distance><timeResidual>4.291007042</timeResidual><timeUsed>true</timeUsed><horizontalSlownessUsed>false</horizontalSlownessUsed><backazimuthUsed>false</backazimuthUsed><weight>1</weight></arrival><arrival><pickID>20220604.111408.42-S-L2-CM.DRL03.30.HHN</pickID><phase>S</phase><azimuth>309.8078613</azimuth><distance>0.5139238238</distance><timeResidual>-0.899553299</timeResidual><timeUsed>true</timeUsed><horizontalSlownessUsed>false</horizontalSlownessUsed><backazimuthUsed>false</backazimuthUsed><weight>1</weight></arrival><arrival><pickID>20220604.111415.00-S-L2-CM.DRL01.30.HHN</pickID><phase>S</phase><azimuth>317.8487854</azimuth><distance>0.8670796752</distance><timeResidual>1.970491409</timeResidual><timeUsed>true</timeUsed><horizontalSlownessUsed>false</horizontalSlownessUsed><backazimuthUsed>false</backazimuthUsed><weight>1</weight></arrival><arrival><pickID>20220604.111421.89-S-L2-CM.ARGC.00.HHN</pickID><phase>S</phase><azimuth>304.5213928</azimuth><distance>1.399452686</distance><timeResidual>-0.4927406311</timeResidual><timeUsed>true</timeUsed><horizontalSlownessUsed>false</horizontalSlownessUsed><backazimuthUsed>false</backazimuthUsed><weight>1</weight></arrival><stationMagnitude publicID="Origin/20220604111435.858563.148516/staMag/MLr/CM.DRL03"><magnitude><value>2.683612585</value></magnitude><type>MLr</type><amplitudeID>Amplitude/20220604111453.472118.182189</amplitudeID><waveformID networkCode="CM" stationCode="DRL03" locationCode="30" channelCode="HHZ"/><creationInfo><agencyID>SGC</agencyID><creationTime>2022-06-04T11:14:53.478142Z</creationTime></creationInfo></stationMagnitude><stationMagnitude publicID="Origin/20220604111435.858563.148516/staMag/MLr_4/CM.DRL03"><magnitude><value>2.749098063</value></magnitude><type>MLr_4</type><amplitudeID>Amplitude/20220604111453.472118.182189</amplitudeID><waveformID networkCode="CM" stationCode="DRL03" locationCode="30" channelCode="HHZ"/><creationInfo><agencyID>SGC</agencyID><creationTime>2022-06-04T11:14:53.478257Z</creationTime></creationInfo></stationMagnitude><stationMagnitude publicID="Origin/20220604111435.858563.148516/staMag/MLr_vmm/CM.DRL03"><magnitude><value>2.811187267</value></magnitude><type>MLr_vmm</type><amplitudeID>Amplitude/20220604111453.472118.182189</amplitudeID><waveformID networkCode="CM" stationCode="DRL03" locationCode="30" channelCode="HHZ"/><creationInfo><agencyID>SGC</agencyID><creationTime>2022-06-04T11:14:53.478369Z</creationTime></creationInfo></stationMagnitude><stationMagnitude publicID="Origin/20220604111435.858563.148516/staMag/MLr/CM.DRL01"><magnitude><value>2.918623924</value></magnitude><type>MLr</type><amplitudeID>Amplitude/20220604111511.185867.182190</amplitudeID><waveformID networkCode="CM" stationCode="DRL01" locationCode="30" channelCode="HHZ"/><creationInfo><agencyID>SGC</agencyID><creationTime>2022-06-04T11:15:11.190641Z</creationTime></creationInfo></stationMagnitude><stationMagnitude publicID="Origin/20220604111435.858563.148516/staMag/MLr_4/CM.DRL01"><magnitude><value>2.996728897</value></magnitude><type>MLr_4</type><amplitudeID>Amplitude/20220604111511.185867.182190</amplitudeID><waveformID networkCode="CM" stationCode="DRL01" locationCode="30" channelCode="HHZ"/><creationInfo><agencyID>SGC</agencyID><creationTime>2022-06-04T11:15:11.190781Z</creationTime></creationInfo></stationMagnitude><stationMagnitude publicID="Origin/20220604111435.858563.148516/staMag/MLr_vmm/CM.DRL01"><magnitude><value>3.067329884</value></magnitude><type>MLr_vmm</type><amplitudeID>Amplitude/20220604111511.185867.182190</amplitudeID><waveformID networkCode="CM" stationCode="DRL01" locationCode="30" channelCode="HHZ"/><creationInfo><agencyID>SGC</agencyID><creationTime>2022-06-04T11:15:11.190895Z</creationTime></creationInfo></stationMagnitude><stationMagnitude publicID="Origin/20220604111435.858563.148516/staMag/MLr/CM.ARGC"><magnitude><value>2.501663685</value></magnitude><type>MLr</type><amplitudeID>20220604.111401.99-AIC-CM.ARGC.00.HHZ.MLv</amplitudeID><waveformID networkCode="CM" stationCode="ARGC" locationCode="00" channelCode="HHZ"/><creationInfo><agencyID>SGC</agencyID><creationTime>2022-06-04T11:16:39.579793Z</creationTime></creationInfo></stationMagnitude><stationMagnitude publicID="Origin/20220604111435.858563.148516/staMag/MLr_4/CM.ARGC"><magnitude><value>2.59963274</value></magnitude><type>MLr_4</type><amplitudeID>20220604.111401.99-AIC-CM.ARGC.00.HHZ.MLv</amplitudeID><waveformID networkCode="CM" stationCode="ARGC" locationCode="00" channelCode="HHZ"/><creationInfo><agencyID>SGC</agencyID><creationTime>2022-06-04T11:16:39.579936Z</creationTime></creationInfo></stationMagnitude><stationMagnitude publicID="Origin/20220604111435.858563.148516/staMag/MLr_vmm/CM.ARGC"><magnitude><value>2.683992147</value></magnitude><type>MLr_vmm</type><amplitudeID>20220604.111401.99-AIC-CM.ARGC.00.HHZ.MLv</amplitudeID><waveformID networkCode="CM" stationCode="ARGC" locationCode="00" channelCode="HHZ"/><creationInfo><agencyID>SGC</agencyID><creationTime>2022-06-04T11:16:39.580072Z</creationTime></creationInfo></stationMagnitude><stationMagnitude publicID="Origin/20220604111435.858563.148516/staMag/MLr/CM.VALLC"><magnitude><value>2.97309947</value></magnitude><type>MLr</type><amplitudeID>20220604.111400.19-AIC-CM.VALLC.10.HNN.MLv</amplitudeID><waveformID networkCode="CM" stationCode="VALLC" locationCode="10" channelCode="HNN"/><creationInfo><agencyID>SGC</agencyID><creationTime>2022-06-04T11:16:39.788455Z</creationTime></creationInfo></stationMagnitude><stationMagnitude publicID="Origin/20220604111435.858563.148516/staMag/MLr_4/CM.VALLC"><magnitude><value>3.072803974</value></magnitude><type>MLr_4</type><amplitudeID>20220604.111400.19-AIC-CM.VALLC.10.HNN.MLv</amplitudeID><waveformID networkCode="CM" stationCode="VALLC" locationCode="10" channelCode="HNN"/><creationInfo><agencyID>SGC</agencyID><creationTime>2022-06-04T11:16:39.788601Z</creationTime></creationInfo></stationMagnitude><magnitude publicID="Origin/20220604111435.858563.148516/netMag/MLr_vmm"><magnitude><value>2.847006016</value><uncertainty>0.1964292498</uncertainty></magnitude><type>MLr_vmm</type><methodID>trimmed mean(25)</methodID><stationCount>3</stationCount><creationInfo><agencyID>SGC</agencyID><creationTime>2022-06-04T11:14:53.478405Z</creationTime></creationInfo><stationMagnitudeContribution><stationMagnitudeID>Origin/20220604111435.858563.148516/staMag/MLr_vmm/CM.ARGC</stationMagnitudeID><weight>0.625</weight></stationMagnitudeContribution><stationMagnitudeContribution><stationMagnitudeID>Origin/20220604111435.858563.148516/staMag/MLr_vmm/CM.DRL01</stationMagnitudeID><weight>0.625</weight></stationMagnitudeContribution><stationMagnitudeContribution><stationMagnitudeID>Origin/20220604111435.858563.148516/staMag/MLr_vmm/CM.DRL03</stationMagnitudeID><weight>1</weight></stationMagnitudeContribution></magnitude></origin><event publicID="SGC2022kxodzn"><preferredOriginID>Origin/20220604111435.858563.148516</preferredOriginID><preferredMagnitudeID>Origin/20220604111435.858563.148516/netMag/MLr_vmm</preferredMagnitudeID><type>earthquake</type><typeCertainty>known</typeCertainty><creationInfo><agencyID>SGC</agencyID><creationTime>2022-06-04T11:14:23.073523Z</creationTime><modificationTime>2022-06-04T12:00:17.265563Z</modificationTime></cr