<?xml version="1.0" encoding="UTF-8"?>
<seiscomp xmlns="http://geofon.gfz-potsdam.de/ns/seiscomp3-schema/0.10" version="0.10"><EventParameters><pick publicID="Pick/20220210184235.603499.33376"><time><value>2022-02-10T06:42:49.485169Z</value></time><waveformID networkCode="CM" stationCode="MACC" locationCode="00" channelCode="HHZ"/><phaseHint>P</phaseHint><polarity>positive</polarity><evaluationMode>manual</evaluationMode><creationInfo><agencyID>SGC</agencyID><creationTime>2022-02-10T18:42:35.603666Z</creationTime></creationInfo></pick><pick publicID="Pick/20220210184235.603753.33377"><time><value>2022-02-10T06:42:52.740573Z</value></time><waveformID networkCode="CM" stationCode="MACC" locationCode="00" channelCode="HHN"/><phaseHint>S</phaseHint><evaluationMode>manual</evaluationMode><creationInfo><agencyID>SGC</agencyID><creationTime>2022-02-10T18:42:35.603796Z</creationTime></creationInfo></pick><pick publicID="Pick/20220210184235.603855.33378"><time><value>2022-02-10T06:43:05.015328Z</value></time><waveformID networkCode="CM" stationCode="URMC" locationCode="00" channelCode="HHZ"/><phaseHint>P</phaseHint><polarity>negative</polarity><evaluationMode>manual</evaluationMode><creationInfo><agencyID>SGC</agencyID><creationTime>2022-02-10T18:42:35.603892Z</creationTime></creationInfo></pick><pick publicID="Pick/20220210184235.603923.33379"><time><value>2022-02-10T06:43:19.644794Z</value></time><waveformID networkCode="CM" stationCode="URMC" locationCode="00" channelCode="HHN"/><phaseHint>S</phaseHint><evaluationMode>manual</evaluationMode><creationInfo><agencyID>SGC</agencyID><creationTime>2022-02-10T18:42:35.603967Z</creationTime></creationInfo></pick><pick publicID="Pick/20220210184235.60401.33380"><time><value>2022-02-10T06:43:05.729929Z</value></time><waveformID networkCode="CM" stationCode="GUA" locationCode="20" channelCode="EHZ"/><phaseHint>P</phaseHint><polarity>positive</polarity><evaluationMode>manual</evaluationMode><creationInfo><agencyID>SGC</agencyID><creationTime>2022-02-10T18:42:35.60405Z</creationTime></creationInfo></pick><pick publicID="Pick/20220210184235.604079.33381"><time><value>2022-02-10T06:43:20.478495Z</value></time><waveformID networkCode="CM" stationCode="GUA" locationCode="20" channelCode="EHN"/><phaseHint>S</phaseHint><evaluationMode>manual</evaluationMode><creationInfo><agencyID>SGC</agencyID><creationTime>2022-02-10T18:42:35.604123Z</creationTime></creationInfo></pick><pick publicID="Pick/20220210184235.604163.33382"><time><value>2022-02-10T06:43:07.516431Z</value></time><waveformID networkCode="CM" stationCode="CLEJA" locationCode="10" channelCode="HNZ"/><filterID>BW(3,5,10)</filterID><phaseHint>P</phaseHint><evaluationMode>manual</evaluationMode><creationInfo><agencyID>SGC</agencyID><creationTime>2022-02-10T18:42:35.604203Z</creationTime></creationInfo></pick><pick publicID="Pick/20220210184235.60424.33383"><time><value>2022-02-10T06:43:23.297198Z</value></time><waveformID networkCode="CM" stationCode="CLEJA" locationCode="10" channelCode="HNN"/><filterID>BW(3,5,10)</filterID><phaseHint>S</phaseHint><evaluationMode>manual</evaluationMode><creationInfo><agencyID>SGC</agencyID><creationTime>2022-02-10T18:42:35.604281Z</creationTime></creationInfo></pick><pick publicID="Pick/20220210184235.604323.33384"><time><value>2022-02-10T06:43:16.19089Z</value></time><waveformID networkCode="CM" stationCode="GARC" locationCode="00" channelCode="HHZ"/><phaseHint>P</phaseHint><evaluationMode>manual</evaluationMode><creationInfo><agencyID>SGC</agencyID><creationTime>2022-02-10T18:42:35.604361Z</creationTime></creationInfo></pick><pick publicID="Pick/20220210184235.604398.33385"><time><value>2022-02-10T06:43:38.283965Z</value></time><waveformID networkCode="CM" stationCode="GARC" locationCode="00" channelCode="HHN"/><phaseHint>S</phaseHint><evaluationMode>manual</evaluationMode><creationInfo><agencyID>SGC</agencyID><creationTime>2022-02-10T18:42:35.604436Z</creationTime></creationInfo></pick><pick publicID="Pick/20220210184235.604797.33390"><time><value>2022-02-10T06:43:17.45136Z</value></time><waveformID networkCode="CM" stationCode="VIL" locationCode="20" channelCode="EHZ"/><phaseHint>P</phaseHint><evaluationMode>manual</evaluationMode><creationInfo><agencyID>SGC</agencyID><creationTime>2022-02-10T18:42:35.604835Z</creationTime></creationInfo></pick><pick publicID="Pick/20220210184235.604874.33391"><time><value>2022-02-10T06:43:41.033187Z</value></time><waveformID networkCode="CM" stationCode="VIL" locationCode="20" channelCode="EHN"/><phaseHint>S</phaseHint><evaluationMode>manual</evaluationMode><creationInfo><agencyID>SGC</agencyID><creationTime>2022-02-10T18:42:35.604911Z</creationTime></creationInfo></pick><pick publicID="Pick/20220210184235.604486.33386"><time><value>2022-02-10T06:43:17.25286Z</value></time><waveformID networkCode="CM" stationCode="PRA" locationCode="00" channelCode="HHZ"/><phaseHint>P</phaseHint><evaluationMode>manual</evaluationMode><creationInfo><agencyID>SGC</agencyID><creationTime>2022-02-10T18:42:35.604522Z</creationTime></creationInfo></pick><pick publicID="Pick/20220210184235.60456.33387"><time><value>2022-02-10T06:43:41.588987Z</value></time><waveformID networkCode="CM" stationCode="PRA" locationCode="00" channelCode="HHN"/><phaseHint>S</phaseHint><evaluationMode>manual</evaluationMode><creationInfo><agencyID>SGC</agencyID><creationTime>2022-02-10T18:42:35.604598Z</creationTime></creationInfo></pick><pick publicID="Pick/20220210184235.604636.33388"><time><value>2022-02-10T06:43:21.222864Z</value></time><waveformID networkCode="CM" stationCode="FLO2" locationCode="00" channelCode="HHZ"/><phaseHint>P</phaseHint><evaluationMode>manual</evaluationMode><creationInfo><agencyID>SGC</agencyID><creationTime>2022-02-10T18:42:35.60468Z</creationTime></creationInfo></pick><pick publicID="Pick/20220210184235.604717.33389"><time><value>2022-02-10T06:43:49.131996Z</value></time><waveformID networkCode="CM" stationCode="FLO2" locationCode="00" channelCode="HHN"/><phaseHint>S</phaseHint><evaluationMode>manual</evaluationMode><creationInfo><agencyID>SGC</agencyID><creationTime>2022-02-10T18:42:35.604755Z</creationTime></creationInfo></pick><pick publicID="Pick/20220210184235.605107.33394"><time><value>2022-02-10T06:43:23.962168Z</value><lowerUncertainty>0.1000000015</lowerUncertainty><upperUncertainty>0.1000000015</upperUncertainty></time><waveformID networkCode="CM" stationCode="ORTC" locationCode="00" channelCode="HHZ"/><filterID>BW(3,5,10)</filterID><phaseHint>P</phaseHint><evaluationMode>manual</evaluationMode><creationInfo><agencyID>SGC</agencyID><creationTime>2022-02-10T18:42:35.605147Z</creationTime></creationInfo></pick><pick publicID="Pick/20220210184235.605186.33395"><time><value>2022-02-10T06:43:53.379901Z</value><lowerUncertainty>0.5</lowerUncertainty><upperUncertainty>0.5</upperUncertainty></time><waveformID networkCode="CM" stationCode="ORTC" locationCode="00" channelCode="HHN"/><filterID>BW(3,5,10)</filterID><phaseHint>S</phaseHint><evaluationMode>manual</evaluationMode><creationInfo><agencyID>SGC</agencyID><creationTime>2022-02-10T18:42:35.605224Z</creationTime></creationInfo></pick><pick publicID="Pick/20220210184235.605264.33396"><time><value>2022-02-10T06:43:26.820571Z</value></time><waveformID networkCode="CM" stationCode="CVER" locationCode="00" channelCode="HHZ"/><filterID>BW(3,5,10)</filterID><phaseHint>P</phaseHint><evaluationMode>manual</evaluationMode><creationInfo><agencyID>SGC</agencyID><creationTime>2022-02-10T18:42:35.605302Z</creationTime></creationInfo></pick><pick publicID="Pick/20220210184235.605338.33397"><time><value>2022-02-10T06:43:54.372402Z</value></time><waveformID networkCode="CM" stationCode="CVER" locationCode="00" channelCode="HHN"/><filterID>BW(3,5,10)</filterID><phaseHint>S</phaseHint><evaluationMode>manual</evaluationMode><creationInfo><agencyID>SGC</agencyID><creationTime>2022-02-10T18:42:35.605376Z</creationTime></creationInfo></pick><pick publicID="Pick/20220210184235.604956.33392"><time><value>2022-02-10T06:43:21.024364Z</value></time><waveformID networkCode="CM" stationCode="MARO" locationCode="00" channelCode="HHZ"/><phaseHint>P</phaseHint><evaluationMode>manual</evaluationMode><creationInfo><agencyID>SGC</agencyID><creationTime>2022-02-10T18:42:35.604993Z</creationTime></creationInfo></pick><pick publicID="Pick/20220210184235.60503.33393"><time><value>2022-02-10T06:43:54.650302Z</value></time><waveformID networkCode="CM" stationCode="MARO" locationCode="00" channelCode="HHN"/><phaseHint>S</phaseHint><evaluationMode>manual</evaluationMode><creationInfo><agencyID>SGC</agencyID><creationTime>2022-02-10T18:42:35.605068Z</creationTime></creationInfo></pick><pick publicID="Pick/20220210184235.605413.33398"><time><value>2022-02-10T06:43:27.098471Z</value><lowerUncertainty>0.1000000015</lowerUncertainty><upperUncertainty>0.1000000015</upperUncertainty></time><waveformID networkCode="CM" stationCode="CHI" locationCode="00" channelCode="HHZ"/><phaseHint>P</phaseHint><evaluationMode>manual</evaluationMode><creationInfo><agencyID>SGC</agencyID><creationTime>2022-02-10T18:42:35.605451Z</creationTime></creationInfo></pick><pick publicID="Pick/20220210184235.605487.33399"><time><value>2022-02-10T06:43:55.285503Z</value><lowerUncertainty>0.1000000015</lowerUncertainty><upperUncertainty>0.1000000015</upperUncertainty></time><waveformID networkCode="CM" stationCode="CHI" locationCode="00" channelCode="HHN"/><phaseHint>S</phaseHint><evaluationMode>manual</evaluationMode><creationInfo><agencyID>SGC</agencyID><creationTime>2022-02-10T18:42:35.605525Z</creationTime></creationInfo></pick><pick publicID="Pick/20220210184235.605715.33402"><time><value>2022-02-10T06:43:27.138171Z</value><lowerUncertainty>1</lowerUncertainty><upperUncertainty>1</upperUncertainty></time><waveformID networkCode="CM" stationCode="PTGC" locationCode="00" channelCode="HHZ"/><filterID>BW(3,5,10)</filterID><phaseHint>P</phaseHint><evaluationMode>manual</evaluationMode><creationInfo><agencyID>SGC</agencyID><creationTime>2022-02-10T18:42:35.605754Z</creationTime></creationInfo></pick><pick publicID="Pick/20220210184235.605792.33403"><time><value>2022-02-10T06:43:59.374607Z</value></time><waveformID networkCode="CM" stationCode="PTGC" locationCode="00" channelCode="HHN"/><phaseHint>S</phaseHint><evaluationMode>manual</evaluationMode><creationInfo><agencyID>SGC</agencyID><creationTime>2022-02-10T18:42:35.60583Z</creationTime></creationInfo></pick><pick publicID="Pick/20220210184235.605564.33400"><time><value>2022-02-10T06:43:32.775577Z</value></time><waveformID networkCode="CM" stationCode="COBO" locationCode="00" channelCode="HHZ"/><phaseHint>P</phaseHint><evaluationMode>manual</evaluationMode><creationInfo><agencyID>SGC</agencyID><creationTime>2022-02-10T18:42:35.605602Z</creationTime></creationInfo></pick><pick publicID="Pick/20220210184235.605638.33401"><time><value>2022-02-10T06:44:06.679416Z</value><lowerUncertainty>0.1000000015</lowerUncertainty><upperUncertainty>0.1000000015</upperUncertainty></time><waveformID networkCode="CM" stationCode="COBO" locationCode="00" channelCode="HHN"/><phaseHint>S</phaseHint><evaluationMode>manual</evaluationMode><creationInfo><agencyID>SGC</agencyID><creationTime>2022-02-10T18:42:35.605676Z</creationTime></creationInfo></pick><pick publicID="Pick/20220210184235.606037.33406"><time><value>2022-02-10T06:43:32.631665Z</value></time><waveformID networkCode="CM" stationCode="PGA6" locationCode="00" channelCode="HHZ"/><phaseHint>P</phaseHint><evaluationMode>manual</evaluationMode><creationInfo><agencyID>SGC</agencyID><creationTime>2022-02-10T18:42:35.606073Z</creationTime></creationInfo></pick><pick publicID="Pick/20220210184235.606121.33407"><time><value>2022-02-10T06:44:09.949707Z</value><lowerUncertainty>0.1000000015</lowerUncertainty><upperUncertainty>0.1000000015</upperUncertainty></time><waveformID networkCode="CM" stationCode="PGA6" locationCode="00" channelCode="HHN"/><phaseHint>S</phaseHint><evaluationMode>manual</evaluationMode><creationInfo><agencyID>SGC</agencyID><creationTime>2022-02-10T18:42:35.606164Z</creationTime></creationInfo></pick><pick publicID="Pick/20220210184235.605874.33404"><time><value>2022-02-10T06:43:33.921921Z</value></time><waveformID networkCode="CM" stationCode="SOTO" locationCode="00" channelCode="HHZ"/><filterID>BW(3,5,10)</filterID><phaseHint>P</phaseHint><evaluationMode>manual</evaluationMode><creationInfo><agencyID>SGC</agencyID><creationTime>2022-02-10T18:42:35.605912Z</creationTime></creationInfo></pick><pick publicID="Pick/20220210184235.605951.33405"><time><value>2022-02-10T06:44:13.780766Z</value><lowerUncertainty>0.1000000015</lowerUncertainty><upperUncertainty>0.1000000015</upperUncertainty></time><waveformID networkCode="CM" stationCode="SOTO" locationCode="00" channelCode="HHN"/><phaseHint>S</phaseHint><evaluationMode>manual</evaluationMode><creationInfo><agencyID>SGC</agencyID><creationTime>2022-02-10T18:42:35.605989Z</creationTime></creationInfo></pick><pick publicID="Pick/20220210184235.606211.33408"><time><value>2022-02-10T06:43:37.991171Z</value><lowerUncertainty>0.1000000015</lowerUncertainty><upperUncertainty>0.1000000015</upperUncertainty></time><waveformID networkCode="CM" stationCode="PIRM" locationCode="00" channelCode="HHZ"/><phaseHint>P</phaseHint><evaluationMode>manual</evaluationMode><creationInfo><agencyID>SGC</agencyID><creationTime>2022-02-10T18:42:35.606249Z</creationTime></creationInfo></pick><pick publicID="Pick/20220210184235.606309.33409"><time><value>2022-02-10T06:44:17.175115Z</value><lowerUncertainty>0.1000000015</lowerUncertainty><upperUncertainty>0.1000000015</upperUncertainty></time><waveformID networkCode="CM" stationCode="PIRM" locationCode="00" channelCode="HHN"/><phaseHint>S</phaseHint><evaluationMode>manual</evaluationMode><creationInfo><agencyID>SGC</agencyID><creationTime>2022-02-10T18:42:35.606347Z</creationTime></creationInfo></pick><pick publicID="Pick/20220210184235.606468.33411"><time><value>2022-02-10T06:43:43.529328Z</value></time><waveformID networkCode="CM" stationCode="GUY2C" locationCode="00" channelCode="HHZ"/><filterID>BW(3,5,10)</filterID><phaseHint>P</phaseHint><evaluationMode>manual</evaluationMode><creationInfo><agencyID>SGC</agencyID><creationTime>2022-02-10T18:42:35.606508Z</creationTime></creationInfo></pick><pick publicID="Pick/20220210184235.606394.33410"><time><value>2022-02-10T06:44:26.167176Z</value><lowerUncertainty>0.1000000015</lowerUncertainty><upperUncertainty>0.1000000015</upperUncertainty></time><waveformID networkCode="CM" stationCode="GUY2C" locationCode="00" channelCode="HHN"/><filterID>BW(3,5,10)</filterID><phaseHint>S</phaseHint><evaluationMode>manual</evaluationMode><creationInfo><agencyID>SGC</agencyID><creationTime>2022-02-10T18:42:35.606431Z</creationTime></creationInfo></pick><amplitude publicID="Amplitude/20220210184249.556418.33422"><type>MLv</type><amplitude><value>1.213320786</value></amplitude><timeWindow><reference>2022-02-10T06:42:49.548393Z</reference><begin>-5.06</begin><end>38.29</end></timeWindow><snr>100.4503984</snr><pickID>Pick/20220210184235.603499.33376</pickID><waveformID networkCode="CM" stationCode="MACC" locationCode="00" channelCode="HHZ"/><creationInfo><agencyID>SGC</agencyID><creationTime>2022-02-10T18:42:49.556441Z</creationTime></creationInfo></amplitude><amplitude publicID="Amplitude/20220210184249.70967.33429"><type>MLv</type><amplitude><value>0.1176579112</value></amplitude><timeWindow><reference>2022-02-10T06:43:23.028393Z</reference><begin>-23.01</begin><end>52.16</end></timeWindow><snr>8.338307888</snr><pickID>Pick/20220210184235.603855.33378</pickID><waveformID networkCode="CM" stationCode="URMC" locationCode="00" channelCode="HHZ"/><creationInfo><agencyID>SGC</agencyID><creationTime>2022-02-10T18:42:49.70969Z</creationTime></creationInfo></amplitude><amplitude publicID="Amplitude/20220210184249.540958.33421"><type>MLv</type><amplitude><value>0.3993998786</value></amplitude><timeWindow><reference>2022-02-10T06:43:22.598391Z</reference><begin>-21.87</begin><end>55.79</end></timeWindow><snr>16.10485117</snr><pickID>Pick/20220210184235.60401.33380</pickID><waveformID networkCode="CM" stationCode="GUA" locationCode="20" channelCode="EHZ"/><creationInfo><agencyID>SGC</agencyID><creationTime>2022-02-10T18:42:49.540984Z</creationTime></creationInfo></amplitude><amplitude publicID="Amplitude/20220210184249.348778.33416"><type>MLv</type><amplitude><value>0.2801074686</value></amplitude><timeWindow><reference>2022-02-10T06:43:03.99Z</reference><begin>-1.475</begin><end>78.525</end></timeWindow><snr>3.32640353</snr><pickID>Pick/20220210184235.604163.33382</pickID><waveformID networkCode="CM" stationCode="CLEJA" locationCode="10" channelCode="HNZ"/><creationInfo><agencyID>SGC</agencyID><creationTime>2022-02-10T18:42:49.348807Z</creationTime></creationInfo></amplitude><amplitude publicID="Amplitude/20220210184249.519625.33420"><type>MLv</type><amplitude><value>0.5673830662</value></amplitude><timeWindow><reference>2022-02-10T06:43:41.558393Z</reference><begin>-30.37</begin><end>69.01</end></timeWindow><snr>41.93937706</snr><pickID>Pick/20220210184235.604323.33384</pickID><waveformID networkCode="CM" stationCode="GARC" locationCode="00" channelCode="HHZ"/><creationInfo><agencyID>SGC</agencyID><creationTime>2022-02-10T18:42:49.519651Z</creationTime></creationInfo></amplitude><amplitude publicID="Amplitude/20220210184249.650751.33426"><type>MLv</type><amplitude><value>0.05108018446</value></amplitude><timeWindow><reference>2022-02-10T06:43:41.958393Z</reference><begin>-29.71</begin><end>70.57</end></timeWindow><snr>2.059903605</snr><pickID>Pick/20220210184235.604486.33386</pickID><waveformID networkCode="CM" stationCode="PRA" locationCode="00" channelCode="HHZ"/><creationInfo><agencyID>SGC</agencyID><creationTime>2022-02-10T18:42:49.650771Z</creationTime></creationInfo></amplitude><amplitude publicID="Amplitude/20220210184249.494986.33419"><type>MLv</type><amplitude><value>0.125972882</value></amplitude><timeWindow><reference>2022-02-10T06:43:51.218393Z</reference><begin>-35</begin><end>75.63</end></timeWindow><snr>7.941050906</snr><pickID>Pick/20220210184235.604636.33388</pickID><waveformID networkCode="CM" stationCode="FLO2" locationCode="00" channelCode="HHZ"/><creationInfo><agencyID>SGC</agencyID><creationTime>2022-02-10T18:42:49.495012Z</creationTime></creationInfo></amplitude><amplitude publicID="Amplitude/20220210184249.72954.33430"><type>MLv</type><amplitude><value>0.09485376501</value></amplitude><timeWindow><reference>2022-02-10T06:43:51.958391Z</reference><begin>-39.51</begin><end>60.69</end></timeWindow><snr>5.513697606</snr><pickID>Pick/20220210184235.604797.33390</pickID><waveformID networkCode="CM" stationCode="VIL" locationCode="20" channelCode="EHZ"/><creationInfo><agencyID>SGC</agencyID><creationTime>2022-02-10T18:42:49.729561Z</creationTime></creationInfo></amplitude><amplitude publicID="Amplitude/20220210184249.584976.33423"><type>MLv</type><amplitude><value>0.05268903127</value></amplitude><timeWindow><reference>2022-02-10T06:44:00.928393Z</reference><begin>-41.97</begin><end>72.55</end></timeWindow><snr>3.130761989</snr><pickID>Pick/20220210184235.605107.33394</pickID><waveformID networkCode="CM" stationCode="ORTC" locationCode="00" channelCode="HHZ"/><creationInfo><agencyID>SGC</agencyID><creationTime>2022-02-10T18:42:49.584998Z</creationTime></creationInfo></amplitude><amplitude publicID="Amplitude/20220210184249.457749.33418"><type>MLv</type><amplitude><value>0.07329373856</value></amplitude><timeWindow><reference>2022-02-10T06:44:23.97Z</reference><begin>-62.15</begin><end>53.97</end></timeWindow><snr>2.690331457</snr><pickID>Pick/20220210184235.605264.33396</pickID><waveformID networkCode="CM" stationCode="CVER" locationCode="00" channelCode="HHZ"/><creationInfo><agencyID>SGC</agencyID><creationTime>2022-02-10T18:42:49.457783Z</creationTime></creationInfo></amplitude><amplitude publicI