<?xml version="1.0" encoding="UTF-8"?>
<seiscomp xmlns="http://geofon.gfz-potsdam.de/ns/seiscomp3-schema/0.12" version="0.12">
  <EventParameters publicID="smi:local/catalog/747c8c1a-0daa-4b3b-bcea-e96eda400331">
    <pick publicID="smi:local/20191224.191550.27-P-CM.URMC.00.HH">
      <time>
        <value>2019-12-24T19:15:50.278394Z</value>
        <uncertainty>0.2</uncertainty>
        <confidenceLevel>96.603584</confidenceLevel>
      </time>
      <waveformID networkCode="CM" stationCode="URMC" locationCode="00" channelCode="HHZ">
        <resourceURI>smi:local/CM.URMC.00.HHZ</resourceURI>
      </waveformID>
      <methodID>smi:local/PhaseNet</methodID>
      <phaseHint>P</phaseHint>
      <evaluationMode>automatic</evaluationMode>
      <creationInfo>
        <author>PhaseNet</author>
        <creationTime>2023-01-19T14:19:08.583501Z</creationTime>
      </creationInfo>
      <comment>
        <text>{"probability": 0.96603584, "GaMMA_probability": 5.201637313177043e-06}</text>
        <id>smi:local/4c4566ac-e8c9-4d74-b3b3-6866d0f281d9</id>
      </comment>
    </pick>
    <pick publicID="smi:local/20191224.191554.64-S-CM.URMC.00.HH">
      <time>
        <value>2019-12-24T19:15:54.648393Z</value>
        <uncertainty>0.2</uncertainty>
        <confidenceLevel>70.729774</confidenceLevel>
      </time>
      <waveformID networkCode="CM" stationCode="URMC" locationCode="00" channelCode="HHZ">
        <resourceURI>smi:local/CM.URMC.00.HHZ</resourceURI>
      </waveformID>
      <methodID>smi:local/PhaseNet</methodID>
      <phaseHint>S</phaseHint>
      <evaluationMode>automatic</evaluationMode>
      <creationInfo>
        <author>PhaseNet</author>
        <creationTime>2023-01-19T14:19:08.584334Z</creationTime>
      </creationInfo>
      <comment>
        <text>{"probability": 0.70729774, "GaMMA_probability": 4.428122102475832e-06}</text>
        <id>smi:local/fb1835c2-5d68-4732-9cf0-8a21526a7a71</id>
      </comment>
    </pick>
    <pick publicID="smi:local/20191224.191604.90-P-CM.ORTC.00.HH">
      <time>
        <value>2019-12-24T19:16:04.908393Z</value>
        <uncertainty>0.2</uncertainty>
        <confidenceLevel>89.216805</confidenceLevel>
      </time>
      <waveformID networkCode="CM" stationCode="ORTC" locationCode="00" channelCode="HHZ">
        <resourceURI>smi:local/CM.ORTC.00.HHZ</resourceURI>
      </waveformID>
      <methodID>smi:local/PhaseNet</methodID>
      <phaseHint>P</phaseHint>
      <evaluationMode>automatic</evaluationMode>
      <creationInfo>
        <author>PhaseNet</author>
        <creationTime>2023-01-19T14:19:08.584858Z</creationTime>
      </creationInfo>
      <comment>
        <text>{"probability": 0.89216805, "GaMMA_probability": 5.6457404771063765e-06}</text>
        <id>smi:local/84e8eb33-5033-4aa9-84ec-64b91102edf5</id>
      </comment>
    </pick>
    <pick publicID="smi:local/20191224.191606.98-P-CM.CHI.00.HH">
      <time>
        <value>2019-12-24T19:16:06.988394Z</value>
        <uncertainty>0.2</uncertainty>
        <confidenceLevel>87.56902</confidenceLevel>
      </time>
      <waveformID networkCode="CM" stationCode="CHI" locationCode="00" channelCode="HHZ">
        <resourceURI>smi:local/CM.CHI.00.HHZ</resourceURI>
      </waveformID>
      <methodID>smi:local/PhaseNet</methodID>
      <phaseHint>P</phaseHint>
      <evaluationMode>automatic</evaluationMode>
      <creationInfo>
        <author>PhaseNet</author>
        <creationTime>2023-01-19T14:19:08.585357Z</creationTime>
      </creationInfo>
      <comment>
        <text>{"probability": 0.8756902, "GaMMA_probability": 7.64358984363595e-06}</text>
        <id>smi:local/25e62aa7-a05a-4e09-a9c1-76381b30721c</id>
      </comment>
    </pick>
    <pick publicID="smi:local/20191224.191624.36-S-CM.ORTC.00.HH">
      <time>
        <value>2019-12-24T19:16:24.368393Z</value>
        <uncertainty>0.2</uncertainty>
        <confidenceLevel>78.22291</confidenceLevel>
      </time>
      <waveformID networkCode="CM" stationCode="ORTC" locationCode="00" channelCode="HHZ">
        <resourceURI>smi:local/CM.ORTC.00.HHZ</resourceURI>
      </waveformID>
      <methodID>smi:local/PhaseNet</methodID>
      <phaseHint>S</phaseHint>
      <evaluationMode>automatic</evaluationMode>
      <creationInfo>
        <author>PhaseNet</author>
        <creationTime>2023-01-19T14:19:08.585946Z</creationTime>
      </creationInfo>
      <comment>
        <text>{"probability": 0.7822291, "GaMMA_probability": 8.809264191329742e-06}</text>
        <id>smi:local/e352e377-8884-46bb-a3e8-1584769130d2</id>
      </comment>
    </pick>
    <pick publicID="smi:local/20191224.194815.17-P-CM.URMC.00.HH">
      <time>
        <value>2019-12-24T19:48:15.178394Z</value>
        <uncertainty>0.2</uncertainty>
        <confidenceLevel>90.58251</confidenceLevel>
      </time>
      <waveformID networkCode="CM" stationCode="URMC" locationCode="00" channelCode="HHZ">
        <resourceURI>smi:local/CM.URMC.00.HHZ</resourceURI>
      </waveformID>
      <methodID>smi:local/PhaseNet</methodID>
      <phaseHint>P</phaseHint>
      <evaluationMode>automatic</evaluationMode>
      <creationInfo>
        <author>PhaseNet</author>
        <creationTime>2023-01-19T14:19:08.604686Z</creationTime>
      </creationInfo>
      <comment>
        <text>{"probability": 0.9058251, "GaMMA_probability": 5.201637313177043e-06}</text>
        <id>smi:local/f97dc1d9-0538-40fb-bbe2-904ec6026ae4</id>
      </comment>
    </pick>
    <pick publicID="smi:local/20191224.194818.91-S-CM.URMC.00.HH">
      <time>
        <value>2019-12-24T19:48:18.918393Z</value>
        <uncertainty>0.2</uncertainty>
        <confidenceLevel>87.36466</confidenceLevel>
      </time>
      <waveformID networkCode="CM" stationCode="URMC" locationCode="00" channelCode="HHZ">
        <resourceURI>smi:local/CM.URMC.00.HHZ</resourceURI>
      </waveformID>
      <methodID>smi:local/PhaseNet</methodID>
      <phaseHint>S</phaseHint>
      <evaluationMode>automatic</evaluationMode>
      <creationInfo>
        <author>PhaseNet</author>
        <creationTime>2023-01-19T14:19:08.605459Z</creationTime>
      </creationInfo>
      <comment>
        <text>{"probability": 0.8736466, "GaMMA_probability": 4.428122102475832e-06}</text>
        <id>smi:local/99a5f18e-35ac-46fd-bc0d-110f9c1bcddc</id>
      </comment>
    </pick>
    <pick publicID="smi:local/20191224.194830.48-P-CM.ORTC.00.HH">
      <time>
        <value>2019-12-24T19:48:30.488393Z</value>
        <uncertainty>0.2</uncertainty>
        <confidenceLevel>88.27814000000001</confidenceLevel>
      </time>
      <waveformID networkCode="CM" stationCode="ORTC" locationCode="00" channelCode="HHZ">
        <resourceURI>smi:local/CM.ORTC.00.HHZ</resourceURI>
      </waveformID>
      <methodID>smi:local/PhaseNet</methodID>
      <phaseHint>P</phaseHint>
      <evaluationMode>automatic</evaluationMode>
      <creationInfo>
        <author>PhaseNet</author>
        <creationTime>2023-01-19T14:19:08.606246Z</creationTime>
      </creationInfo>
      <comment>
        <text>{"probability": 0.8827814, "GaMMA_probability": 5.6457404771063765e-06}</text>
        <id>smi:local/9f7e5eab-be90-4f92-a0d6-8e95bd8d18a8</id>
      </comment>
    </pick>
    <pick publicID="smi:local/20191224.194833.28-P-CM.CHI.00.HH">
      <time>
        <value>2019-12-24T19:48:33.288394Z</value>
        <uncertainty>0.2</uncertainty>
        <confidenceLevel>78.189105</confidenceLevel>
      </time>
      <waveformID networkCode="CM" stationCode="CHI" locationCode="00" channelCode="HHZ">
        <resourceURI>smi:local/CM.CHI.00.HHZ</resourceURI>
      </waveformID>
      <methodID>smi:local/PhaseNet</methodID>
      <phaseHint>P</phaseHint>
      <evaluationMode>automatic</evaluationMode>
      <creationInfo>
        <author>PhaseNet</author>
        <creationTime>2023-01-19T14:19:08.606957Z</creationTime>
      </creationInfo>
      <comment>
        <text>{"probability": 0.78189105, "GaMMA_probability": 7.64358984363595e-06}</text>
        <id>smi:local/c345f693-1471-4e02-a981-1433c27168b2</id>
      </comment>
    </pick>
    <pick publicID="smi:local/20191224.194845.99-S-CM.ORTC.00.HH">
      <time>
        <value>2019-12-24T19:48:45.998393Z</value>
        <uncertainty>0.2</uncertainty>
        <confidenceLevel>63.68468000000001</confidenceLevel>
      </time>
      <waveformID networkCode="CM" stationCode="ORTC" locationCode="00" channelCode="HHZ">
        <resourceURI>smi:local/CM.ORTC.00.HHZ</resourceURI>
      </waveformID>
      <methodID>smi:local/PhaseNet</methodID>
      <phaseHint>S</phaseHint>
      <evaluationMode>automatic</evaluationMode>
      <creationInfo>
        <author>PhaseNet</author>
        <creationTime>2023-01-19T14:19:08.607581Z</creationTime>
      </creationInfo>
      <comment>
        <text>{"probability": 0.6368468, "GaMMA_probability": 8.809264191329742e-06}</text>
        <id>smi:local/95e5721d-7d49-438f-ba17-371eedf6040f</id>
      </comment>
    </pick>
    <pick publicID="smi:local/20191224.195339.47-P-CM.URMC.00.HH">
      <time>
        <value>2019-12-24T19:53:39.478393Z</value>
        <uncertainty>0.2</uncertainty>
        <confidenceLevel>94.60664</confidenceLevel>
      </time>
      <waveformID networkCode="CM" stationCode="URMC" locationCode="00" channelCode="HHZ">
        <resourceURI>smi:local/CM.URMC.00.HHZ</resourceURI>
      </waveformID>
      <methodID>smi:local/PhaseNet</methodID>
      <phaseHint>P</phaseHint>
      <evaluationMode>automatic</evaluationMode>
      <creationInfo>
        <author>PhaseNet</author>
        <creationTime>2023-01-19T14:19:08.626263Z</creationTime>
      </creationInfo>
      <comment>
        <text>{"probability": 0.9460664, "GaMMA_probability": 5.201637313177043e-06}</text>
        <id>smi:local/015bc572-f147-4741-8683-f0e4eeb3c429</id>
      </comment>
    </pick>
    <pick publicID="smi:local/20191224.195343.64-S-CM.URMC.00.HH">
      <time>
        <value>2019-12-24T19:53:43.648393Z</value>
        <uncertainty>0.2</uncertainty>
        <confidenceLevel>67.21146999999999</confidenceLevel>
      </time>
      <waveformID networkCode="CM" stationCode="URMC" locationCode="00" channelCode="HHZ">
        <resourceURI>smi:local/CM.URMC.00.HHZ</resourceURI>
      </waveformID>
      <methodID>smi:local/PhaseNet</methodID>
      <phaseHint>S</phaseHint>
      <evaluationMode>automatic</evaluationMode>
      <creationInfo>
        <author>PhaseNet</author>
        <creationTime>2023-01-19T14:19:08.626904Z</creationTime>
      </creationInfo>
      <comment>
        <text>{"probability": 0.6721147, "GaMMA_probability": 4.428122102475832e-06}</text>
        <id>smi:local/8da20d12-1ccc-4010-8d47-855a6efc4078</id>
      </comment>
    </pick>
    <pick publicID="smi:local/20191224.195355.18-P-CM.ORTC.00.HH">
      <time>
        <value>2019-12-24T19:53:55.188393Z</value>
        <uncertainty>0.2</uncertainty>
        <confidenceLevel>87.94163999999999</confidenceLevel>
      </time>
      <waveformID networkCode="CM" stationCode="ORTC" locationCode="00" channelCode="HHZ">
        <resourceURI>smi:local/CM.ORTC.00.HHZ</resourceURI>
      </waveformID>
      <methodID>smi:local/PhaseNet</methodID>
      <phaseHint>P</phaseHint>
      <evaluationMode>automatic</evaluationMode>
      <creationInfo>
        <author>PhaseNet</author>
        <creationTime>2023-01-19T14:19:08.627401Z</creationTime>
      </creationInfo>
      <comment>
        <text>{"probability": 0.8794164, "GaMMA_probability": 5.6457404771063765e-06}</text>
        <id>smi:local/90310d9f-5553-4ef5-90f8-6028ab3c1f96</id>
      </comment>
    </pick>
    <pick publicID="smi:local/20191224.195357.49-P-CM.CHI.00.HH">
      <time>
        <value>2019-12-24T19:53:57.498393Z</value>
        <uncertainty>0.2</uncertainty>
        <confidenceLevel>90.04247</confidenceLevel>
      </time>
      <waveformID networkCode="CM" stationCode="CHI" locationCode="00" channelCode="HHZ">
        <resourceURI>smi:local/CM.CHI.00.HHZ</resourceURI>
      </waveformID>
      <methodID>smi:local/PhaseNet</methodID>
      <phaseHint>P</phaseHint>
      <evaluationMode>automatic</evaluationMode>
      <creationInfo>
        <author>PhaseNet</author>
        <creationTime>2023-01-19T14:19:08.627864Z</creationTime>
      </creationInfo>
      <comment>
        <text>{"probability": 0.9004247, "GaMMA_probability": 7.64358984363595e-06}</text>
        <id>smi:local/b421891e-1742-4536-91ff-4e2737615251</id>
      </comment>
    </pick>
    <pick publicID="smi:local/20191224.195415.80-S-CM.ORTC.00.HH">
      <time>
        <value>2019-12-24T19:54:15.808393Z</value>
        <uncertainty>0.2</uncertainty>
        <confidenceLevel>75.2254</confidenceLevel>
      </time>
      <waveformID networkCode="CM" stationCode="ORTC" locationCode="00" channelCode="HHZ">
        <resourceURI>smi:local/CM.ORTC.00.HHZ</resourceURI>
      </waveformID>
      <methodID>smi:local/PhaseNet</methodID>
      <phaseHint>S</phaseHint>
      <evaluationMode>automatic</evaluationMode>
      <creationInfo>
        <author>PhaseNet</author>
        <creationTime>2023-01-19T14:19:08.628436Z</creationTime>
      </creationInfo>
      <comment>
        <text>{"probability": 0.752254, "GaMMA_probability": 8.809264191329742e-06}</text>
        <id>smi:local/d6af8b46-2679-45ed-afe3-005dc1be1922</id>
      </comment>
    </pick>
    <pick publicID="smi:local/20191224.195851.62-P-CM.URMC.00.HH">
      <time>
        <value>2019-12-24T19:58:51.628394Z</value>
        <uncertainty>0.2</uncertainty>
        <confidenceLevel>97.05776</confidenceLevel>
      </time>
      <waveformID networkCode="CM" stationCode="URMC" locationCode="00" channelCode="HHZ">
        <resourceURI>smi:local/CM.URMC.00.HHZ</resourceURI>
      </waveformID>
      <methodID>smi:local/PhaseNet</methodID>
      <phaseHint>P</phaseHint>
      <evaluationMode>automatic</evaluationMode>
      <creationInfo>
        <author>PhaseNet</author>
        <creationTime>2023-01-19T14:19:08.645680Z</creationTime>
      </creationInfo>
      <comment>
        <text>{"probability": 0.9705776, "GaMMA_probability": 5.201637313177043e-06}</text>
        <id>smi:local/9e151666-debd-4155-8aa2-969a9d7d19fd</id>
      </comment>
    </pick>
    <pick publicID="smi:local/20191224.195856.04-S-CM.URMC.00.HH">
      <time>
        <value>2019-12-24T19:58:56.048394Z</value>
        <uncertainty>0.2</uncertainty>
        <confidenceLevel>72.555536</confidenceLevel>
      </time>
      <waveformID networkCode="CM" stationCode="URMC" locationCode="00" channelCode="HHZ">
        <resourceURI>smi:local/CM.URMC.00.HHZ</resourceURI>
      </waveformID>
      <methodID>smi:local/PhaseNet</methodID>
      <phaseHint>S</phaseHint>
      <evaluationMode>automatic</evaluationMode>
      <creationInfo>
        <author>PhaseNet</author>
        <creationTime>2023-01-19T14:19:08.646207Z</creationTime>
      </creationInfo>
      <comment>
        <text>{"probability": 0.72555536, "GaMMA_probability": 4.428122102475832e-06}</text>
        <id>smi:local/8cd80730-a19a-4f77-aab7-2ba1e1a7be76</id>
      </comment>
    </pick>
    <pick publicID="smi:local/20191224.195906.54-P-CM.ORTC.00.HH">
      <time>
        <value>2019-12-24T19:59:06.548393Z</value>
        <uncertainty>0.2</uncertainty>
        <confidenceLevel>89.14113</confidenceLevel>
      </time>
      <waveformID networkCode="CM" stationCode="ORTC" locationCode="00" channelCode="HHZ">
        <resourceURI>smi:local/CM.ORTC.00.HHZ</resourceURI>
      </waveformID>
      <methodID>smi:local/PhaseNet</methodID>
      <phaseHint>P</phaseHint>
      <evaluationMode>automatic</evaluationMode>
      <creationInfo>
        <author>PhaseNet</author>
        <creationTime>2023-01-19T14:19:08.646686Z</creationTime>
      </creationInfo>
      <comment>
        <text>{"probability": 0.8914113, "GaMMA_probability": 5.6457404771063765e-06}</text>
        <id>smi:local/469720a8-c1b3-4c77-9f8e-763815448add</id>
      </comment>
    </pick>
    <pick publicID="smi:local/20191224.195908.68-P-CM.CHI.00.HH">
      <time>
        <value>2019-12-24T19:59:08.688393Z</value>
        <uncertainty>0.2</uncertainty>
        <confidenceLevel>77.216065</confidenceLevel>
      </time>
      <waveformID networkCode="CM" stationCode="CHI" locationCode="00" channelCode="HHZ">
        <resourceURI>smi:local/CM.CHI.00.HHZ</resourceURI>
      </waveformID>
      <methodID>smi:local/PhaseNet</methodID>
      <phaseHint>P</phaseHint>
      <evaluationMode>automatic</evaluationMode>
      <creationInfo>
        <author>PhaseNet</author>
        <creationTime>2023-01-19T14:19:08.647141Z</creationTime>
      </creationInfo>
      <comment>
        <text>{"probability": 0.77216065, "GaMMA_probability": 7.64358984363595e-06}</text>
        <id>smi:local/56c8b844-9c9a-4711-841d-1f01b00f94a8</id>
      </comment>
    </pick>
    <pick publicID="smi:local/20191224.195925.84-S-CM.ORTC.00.HH">
      <time>
        <value>2019-12-24T19:59:25.848393Z</value>
        <uncertainty>0.2</uncertainty>
        <confidenceLevel>67.43254</confidenceLevel>
      </time>
      <waveformID networkCode="CM" stationCode="ORTC" locationCode="00" channelCode="HHZ">
        <resourceURI>smi:local/CM.ORTC.00.HHZ</resourceURI>
      </waveformID>
      <methodID>smi:local/PhaseNet</methodID>
      <phaseHint>S</phaseHint>
      <evaluationMode>automatic</evaluationMode>
      <creationInfo>
        <author>PhaseNet</author>
        <creationTime>2023-01-19T14:19:08.647628Z</creationTime>
      </creationInfo>
      <comment>
        <text>{"probability": 0.6743254, "GaMMA_probability": 8.809264191329742e-06}</text>
        <id>smi:local/9e8ad32c-cd5f-49cc-8685-a547eb5d5c23</id>
      </comment>
    </pick>
    <pick publicID="smi:local/20191224.195640.50-P-CM.URMC.00.HH">
      <time>
        <value>2019-12-24T19:56:40.508394Z</value>
        <uncertainty>0.2</uncertainty>
        <confidenceLevel>97.49333</confidenceLevel>
      </time>
      <waveformID networkCode="CM" stationCode="URMC" locationCode="00" channelCode="HHZ">
        <resourceURI>smi:local/CM.URMC.00.HHZ</resourceURI>
      </waveformID>
      <methodID>smi:local/PhaseNet</methodID>
      <phaseHint>P</phaseHint>
      <evaluationMode>automatic</evaluationMode>
      <creationInfo>
        <author>PhaseNet</author>
        <creationTime>2023-01-19T14:19:08.664315Z</creationTime>
      </creationInfo>
      <comment>
        <text>{"probability": 0.9749333, "GaMMA_probability": 5.201637313177043e-06}</text>
        <id>smi:local/c1073322-8889-4cfb-a00f-d5862dfe5682</id>
      </comment>
    </pick>
    <pick publicID="smi:local/20191224.195644.67-S-CM.URMC.00.HH">
      <time>
        <value>2019-12-24T19:56:44.678393Z</value>
        <uncertainty>0.2</uncertainty>
        <confidenceLevel>69.17173</confidenceLevel>
      </time>
      <waveformID networkCode="CM" stationCode="URMC" locationCode="00" channelCode="HHZ">
        <resourceURI>smi:local/CM.URMC.00.HHZ</resourceURI>
      </waveformID>
      <methodID>smi:local/PhaseNet</methodID>
      <phaseHint>S</phaseHint>
      <evaluationMode>automatic</evaluationMode>
      <creationInfo>
        <author>PhaseNet</author>
        <creationTime>2023-01-19T14:19:08.664834Z</creationTime>
      </creationInfo>
      <comment>
        <text>{"probability": 0.6917173, "GaMMA_probability": 4.428122102475832e-06}</text>
        <id>smi:local/d65cef5b-6d99-444a-9281-dbc9c525b2bc</id>
      </comment>
    </pick>
    <pick publicID="smi:local/20191224.195655.78-P-CM.ORTC.00.HH">
      <time>
        <value>2019-12-24T19:56:55.788393Z</value>
        <uncertainty>0.2</uncertainty>
        <confidenceLevel>94.193286</confidenceLevel>
      </time>
      <waveformID networkCode="CM" stationCode="ORTC" locationCode="00" channelCode="HHZ">
        <resourceURI>smi:local/CM.ORTC.00.HHZ</resourceURI>
      </waveformID>
      <methodID>smi:local/PhaseNet</methodID>
