<?xml version="1.0" encoding="UTF-8"?>
<seiscomp xmlns="http://geofon.gfz-potsdam.de/ns/seiscomp3-schema/0.12" version="0.12">
  <EventParameters publicID="smi:local/catalog/f8d7c956-e13f-42d2-bc7b-b625c4ca027f">
    <pick publicID="smi:local/20191224.195640.49-P-CM.URMC.00.HH">
      <time>
        <value>2019-12-24T19:56:40.498393Z</value>
        <uncertainty>0.2</uncertainty>
        <confidenceLevel>79.0</confidenceLevel>
      </time>
      <waveformID networkCode="CM" stationCode="URMC" locationCode="00" channelCode="HHZ">
        <resourceURI>smi:local/CM.URMC.00.HHZ</resourceURI>
      </waveformID>
      <methodID>smi:local/EQTransformer</methodID>
      <phaseHint>P</phaseHint>
      <evaluationMode>automatic</evaluationMode>
      <creationInfo>
        <author>EQTransformer</author>
        <creationTime>2023-01-18T21:15:33.085370Z</creationTime>
      </creationInfo>
      <comment>
        <text>{"probability": 0.79, "GaMMA_probability": 1.965125602997957e-06, "snr": 27.0, "detection_probability": 0.87, "event_start_time": "2019-12-24 19:56:40.338393", "event_end_time": "2019-12-24 19:56:46.028393"}</text>
        <id>smi:local/7ccef71f-af62-43ba-84a6-8a5cb027e13d</id>
      </comment>
    </pick>
    <pick publicID="smi:local/20191224.195644.42-S-CM.URMC.00.HH">
      <time>
        <value>2019-12-24T19:56:44.428393Z</value>
        <uncertainty>0.2</uncertainty>
        <confidenceLevel>62.0</confidenceLevel>
      </time>
      <waveformID networkCode="CM" stationCode="URMC" locationCode="00" channelCode="HHZ">
        <resourceURI>smi:local/CM.URMC.00.HHZ</resourceURI>
      </waveformID>
      <methodID>smi:local/EQTransformer</methodID>
      <phaseHint>S</phaseHint>
      <evaluationMode>automatic</evaluationMode>
      <creationInfo>
        <author>EQTransformer</author>
        <creationTime>2023-01-18T21:15:33.086039Z</creationTime>
      </creationInfo>
      <comment>
        <text>{"probability": 0.62, "GaMMA_probability": 2.4283749093416853e-06, "snr": 11.8, "detection_probability": 0.87, "event_start_time": "2019-12-24 19:56:40.338393", "event_end_time": "2019-12-24 19:56:46.028393"}</text>
        <id>smi:local/6959b3dc-d21e-4d85-ab0b-2e9f65374ad9</id>
      </comment>
    </pick>
    <pick publicID="smi:local/20191224.195655.86-P-CM.ORTC.00.HH">
      <time>
        <value>2019-12-24T19:56:55.868393Z</value>
        <uncertainty>0.2</uncertainty>
        <confidenceLevel>65.0</confidenceLevel>
      </time>
      <waveformID networkCode="CM" stationCode="ORTC" locationCode="00" channelCode="HHZ">
        <resourceURI>smi:local/CM.ORTC.00.HHZ</resourceURI>
      </waveformID>
      <methodID>smi:local/EQTransformer</methodID>
      <phaseHint>P</phaseHint>
      <evaluationMode>automatic</evaluationMode>
      <creationInfo>
        <author>EQTransformer</author>
        <creationTime>2023-01-18T21:15:33.086606Z</creationTime>
      </creationInfo>
      <comment>
        <text>{"probability": 0.65, "GaMMA_probability": 8.232169860340049e-06, "snr": 11.9, "detection_probability": 0.96, "event_start_time": "2019-12-24 19:56:55.498393", "event_end_time": "2019-12-24 19:57:22.998393"}</text>
        <id>smi:local/4d73fc04-ad51-48cf-a085-f64fcc7986ce</id>
      </comment>
    </pick>
    <pick publicID="smi:local/20191224.195657.64-P-CM.CHI.00.HH">
      <time>
        <value>2019-12-24T19:56:57.648394Z</value>
        <uncertainty>0.2</uncertainty>
        <confidenceLevel>54.0</confidenceLevel>
      </time>
      <waveformID networkCode="CM" stationCode="CHI" locationCode="00" channelCode="HHZ">
        <resourceURI>smi:local/CM.CHI.00.HHZ</resourceURI>
      </waveformID>
      <methodID>smi:local/EQTransformer</methodID>
      <phaseHint>P</phaseHint>
      <evaluationMode>automatic</evaluationMode>
      <creationInfo>
        <author>EQTransformer</author>
        <creationTime>2023-01-18T21:15:33.087244Z</creationTime>
      </creationInfo>
      <comment>
        <text>{"probability": 0.54, "GaMMA_probability": 1.083986087858577e-05, "snr": 18.1, "detection_probability": 0.88, "event_start_time": "2019-12-24 19:56:57.348394", "event_end_time": "2019-12-24 19:57:22.168394"}</text>
        <id>smi:local/6d6d7edc-7f60-4528-97b4-6339de141a34</id>
      </comment>
    </pick>
    <pick publicID="smi:local/20191224.195710.48-S-CM.CHI.00.HH">
      <time>
        <value>2019-12-24T19:57:10.488394Z</value>
        <uncertainty>0.2</uncertainty>
        <confidenceLevel>4.0</confidenceLevel>
      </time>
      <waveformID networkCode="CM" stationCode="CHI" locationCode="00" channelCode="HHZ">
        <resourceURI>smi:local/CM.CHI.00.HHZ</resourceURI>
      </waveformID>
      <methodID>smi:local/EQTransformer</methodID>
      <phaseHint>S</phaseHint>
      <evaluationMode>automatic</evaluationMode>
      <creationInfo>
        <author>EQTransformer</author>
        <creationTime>2023-01-18T21:15:33.087788Z</creationTime>
      </creationInfo>
      <comment>
        <text>{"probability": 0.04, "GaMMA_probability": 7.70645104884309e-06, "snr": 2.7, "detection_probability": 0.88, "event_start_time": "2019-12-24 19:56:57.348394", "event_end_time": "2019-12-24 19:57:22.168394"}</text>
        <id>smi:local/2330f96b-c67b-4a27-89e0-6bec6f2a5084</id>
      </comment>
    </pick>
    <pick publicID="smi:local/20191224.191035.99-P-CM.ORTC.00.HH">
      <time>
        <value>2019-12-24T19:10:35.998393Z</value>
        <uncertainty>0.2</uncertainty>
        <confidenceLevel>92.0</confidenceLevel>
      </time>
      <waveformID networkCode="CM" stationCode="ORTC" locationCode="00" channelCode="HHZ">
        <resourceURI>smi:local/CM.ORTC.00.HHZ</resourceURI>
      </waveformID>
      <methodID>smi:local/EQTransformer</methodID>
      <phaseHint>P</phaseHint>
      <evaluationMode>automatic</evaluationMode>
      <creationInfo>
        <author>EQTransformer</author>
        <creationTime>2023-01-18T21:15:33.104744Z</creationTime>
      </creationInfo>
      <comment>
        <text>{"probability": 0.92, "GaMMA_probability": 1.965125602997957e-06, "snr": 2.5, "detection_probability": 0.99, "event_start_time": "2019-12-24 19:10:35.948393", "event_end_time": "2019-12-24 19:11:04.798393"}</text>
        <id>smi:local/76f9e80c-5474-47ce-8849-126a63f89d58</id>
      </comment>
    </pick>
    <pick publicID="smi:local/20191224.191038.10-P-CM.CHI.00.HH">
      <time>
        <value>2019-12-24T19:10:38.108394Z</value>
        <uncertainty>0.2</uncertainty>
        <confidenceLevel>46.0</confidenceLevel>
      </time>
      <waveformID networkCode="CM" stationCode="CHI" locationCode="00" channelCode="HHZ">
        <resourceURI>smi:local/CM.CHI.00.HHZ</resourceURI>
      </waveformID>
      <methodID>smi:local/EQTransformer</methodID>
      <phaseHint>P</phaseHint>
      <evaluationMode>automatic</evaluationMode>
      <creationInfo>
        <author>EQTransformer</author>
        <creationTime>2023-01-18T21:15:33.105360Z</creationTime>
      </creationInfo>
      <comment>
        <text>{"probability": 0.46, "GaMMA_probability": 2.4283749093416853e-06, "snr": 2.6, "detection_probability": 0.93, "event_start_time": "2019-12-24 19:10:37.918394", "event_end_time": "2019-12-24 19:11:03.618394"}</text>
        <id>smi:local/cb8ef732-e4a4-499e-9576-9888dbf589d8</id>
      </comment>
    </pick>
    <pick publicID="smi:local/20191224.191055.92-S-CM.CHI.00.HH">
      <time>
        <value>2019-12-24T19:10:55.928394Z</value>
        <uncertainty>0.2</uncertainty>
        <confidenceLevel>18.0</confidenceLevel>
      </time>
      <waveformID networkCode="CM" stationCode="CHI" locationCode="00" channelCode="HHZ">
        <resourceURI>smi:local/CM.CHI.00.HHZ</resourceURI>
      </waveformID>
      <methodID>smi:local/EQTransformer</methodID>
      <phaseHint>S</phaseHint>
      <evaluationMode>automatic</evaluationMode>
      <creationInfo>
        <author>EQTransformer</author>
        <creationTime>2023-01-18T21:15:33.105915Z</creationTime>
      </creationInfo>
      <comment>
        <text>{"probability": 0.18, "GaMMA_probability": 8.232169860340049e-06, "snr": 1.6, "detection_probability": 0.93, "event_start_time": "2019-12-24 19:10:37.918394", "event_end_time": "2019-12-24 19:11:03.618394"}</text>
        <id>smi:local/e8196789-87a2-4861-8895-71a05fc84ca2</id>
      </comment>
    </pick>
    <pick publicID="smi:local/20191224.191056.33-S-CM.ORTC.00.HH">
      <time>
        <value>2019-12-24T19:10:56.338393Z</value>
        <uncertainty>0.2</uncertainty>
        <confidenceLevel>54.0</confidenceLevel>
      </time>
      <waveformID networkCode="CM" stationCode="ORTC" locationCode="00" channelCode="HHZ">
        <resourceURI>smi:local/CM.ORTC.00.HHZ</resourceURI>
      </waveformID>
      <methodID>smi:local/EQTransformer</methodID>
      <phaseHint>S</phaseHint>
      <evaluationMode>automatic</evaluationMode>
      <creationInfo>
        <author>EQTransformer</author>
        <creationTime>2023-01-18T21:15:33.106486Z</creationTime>
      </creationInfo>
      <comment>
        <text>{"probability": 0.54, "GaMMA_probability": 1.083986087858577e-05, "snr": 13.2, "detection_probability": 0.99, "event_start_time": "2019-12-24 19:10:35.948393", "event_end_time": "2019-12-24 19:11:04.798393"}</text>
        <id>smi:local/335feda7-e1c5-4859-9c8d-f5cc00def3f7</id>
      </comment>
    </pick>
    <pick publicID="smi:local/20191224.191111.34-S-CM.URMC.00.HH">
      <time>
        <value>2019-12-24T19:11:11.348393Z</value>
        <uncertainty>0.2</uncertainty>
        <confidenceLevel>46.0</confidenceLevel>
      </time>
      <waveformID networkCode="CM" stationCode="URMC" locationCode="00" channelCode="HHZ">
        <resourceURI>smi:local/CM.URMC.00.HHZ</resourceURI>
      </waveformID>
      <methodID>smi:local/EQTransformer</methodID>
      <phaseHint>S</phaseHint>
      <evaluationMode>automatic</evaluationMode>
      <creationInfo>
        <author>EQTransformer</author>
        <creationTime>2023-01-18T21:15:33.107086Z</creationTime>
      </creationInfo>
      <comment>
        <text>{"probability": 0.46, "GaMMA_probability": 7.70645104884309e-06, "snr": 18.0, "detection_probability": 0.89, "event_start_time": "2019-12-24 19:11:06.968393", "event_end_time": "2019-12-24 19:11:13.388393"}</text>
        <id>smi:local/9c12a31e-fa0b-4085-bac2-26ed149f9c43</id>
      </comment>
    </pick>
    <pick publicID="smi:local/20191224.193210.98-P-CM.ORTC.00.HH">
      <time>
        <value>2019-12-24T19:32:10.988393Z</value>
        <uncertainty>0.2</uncertainty>
        <confidenceLevel>72.0</confidenceLevel>
      </time>
      <waveformID networkCode="CM" stationCode="ORTC" locationCode="00" channelCode="HHZ">
        <resourceURI>smi:local/CM.ORTC.00.HHZ</resourceURI>
      </waveformID>
      <methodID>smi:local/EQTransformer</methodID>
      <phaseHint>P</phaseHint>
      <evaluationMode>automatic</evaluationMode>
      <creationInfo>
        <author>EQTransformer</author>
        <creationTime>2023-01-18T21:15:33.123475Z</creationTime>
      </creationInfo>
      <comment>
        <text>{"probability": 0.72, "GaMMA_probability": 1.965125602997957e-06, "snr": 12.1, "detection_probability": 0.3, "event_start_time": "2019-12-24 19:32:10.958393", "event_end_time": "2019-12-24 19:32:29.988393"}</text>
        <id>smi:local/09894caa-f001-4f0a-8bb2-a22db2676622</id>
      </comment>
    </pick>
    <pick publicID="smi:local/20191224.193216.08-P-CM.CHI.00.HH">
      <time>
        <value>2019-12-24T19:32:16.088394Z</value>
        <uncertainty>0.2</uncertainty>
        <confidenceLevel>10.0</confidenceLevel>
      </time>
      <waveformID networkCode="CM" stationCode="CHI" locationCode="00" channelCode="HHZ">
        <resourceURI>smi:local/CM.CHI.00.HHZ</resourceURI>
      </waveformID>
      <methodID>smi:local/EQTransformer</methodID>
      <phaseHint>P</phaseHint>
      <evaluationMode>automatic</evaluationMode>
      <creationInfo>
        <author>EQTransformer</author>
        <creationTime>2023-01-18T21:15:33.124120Z</creationTime>
      </creationInfo>
      <comment>
        <text>{"probability": 0.1, "GaMMA_probability": 2.4283749093416853e-06, "snr": 2.9, "detection_probability": 0.61, "event_start_time": "2019-12-24 19:32:11.998394", "event_end_time": "2019-12-24 19:32:37.278394"}</text>
        <id>smi:local/cdbfe792-e157-4f08-aea7-ba09521a8450</id>
      </comment>
    </pick>
    <pick publicID="smi:local/20191224.193222.13-P-CM.URMC.00.HH">
      <time>
        <value>2019-12-24T19:32:22.138393Z</value>
        <uncertainty>0.2</uncertainty>
        <confidenceLevel>49.0</confidenceLevel>
      </time>
      <waveformID networkCode="CM" stationCode="URMC" locationCode="00" channelCode="HHZ">
        <resourceURI>smi:local/CM.URMC.00.HHZ</resourceURI>
      </waveformID>
      <methodID>smi:local/EQTransformer</methodID>
      <phaseHint>P</phaseHint>
      <evaluationMode>automatic</evaluationMode>
      <creationInfo>
        <author>EQTransformer</author>
        <creationTime>2023-01-18T21:15:33.124689Z</creationTime>
      </creationInfo>
      <comment>
        <text>{"probability": 0.49, "GaMMA_probability": 8.232169860340049e-06, "snr": 13.9, "detection_probability": 0.94, "event_start_time": "2019-12-24 19:32:21.958393", "event_end_time": "2019-12-24 19:32:28.438393"}</text>
        <id>smi:local/d5d59e0d-eca9-479a-8dfe-062045dd56e6</id>
      </comment>
    </pick>
    <pick publicID="smi:local/20191224.193226.24-S-CM.ORTC.00.HH">
      <time>
        <value>2019-12-24T19:32:26.248393Z</value>
        <uncertainty>0.2</uncertainty>
        <confidenceLevel>6.0</confidenceLevel>
      </time>
      <waveformID networkCode="CM" stationCode="ORTC" locationCode="00" channelCode="HHZ">
        <resourceURI>smi:local/CM.ORTC.00.HHZ</resourceURI>
      </waveformID>
      <methodID>smi:local/EQTransformer</methodID>
      <phaseHint>S</phaseHint>
      <evaluationMode>automatic</evaluationMode>
      <creationInfo>
        <author>EQTransformer</author>
        <creationTime>2023-01-18T21:15:33.125247Z</creationTime>
      </creationInfo>
      <comment>
        <text>{"probability": 0.06, "GaMMA_probability": 1.083986087858577e-05, "snr": 5.0, "detection_probability": 0.3, "event_start_time": "2019-12-24 19:32:10.958393", "event_end_time": "2019-12-24 19:32:29.988393"}</text>
        <id>smi:local/79161550-8c8c-4a94-8011-185129dcdd99</id>
      </comment>
    </pick>
    <pick publicID="smi:local/20191224.193230.59-S-CM.CHI.00.HH">
      <time>
        <value>2019-12-24T19:32:30.598394Z</value>
        <uncertainty>0.2</uncertainty>
        <confidenceLevel>35.0</confidenceLevel>
      </time>
      <waveformID networkCode="CM" stationCode="CHI" locationCode="00" channelCode="HHZ">
        <resourceURI>smi:local/CM.CHI.00.HHZ</resourceURI>
      </waveformID>
      <methodID>smi:local/EQTransformer</methodID>
      <phaseHint>S</phaseHint>
      <evaluationMode>automatic</evaluationMode>
      <creationInfo>
        <author>EQTransformer</author>
        <creationTime>2023-01-18T21:15:33.125791Z</creationTime>
      </creationInfo>
      <comment>
        <text>{"probability": 0.35, "GaMMA_probability": 7.70645104884309e-06, "snr": 2.9, "detection_probability": 0.61, "event_start_time": "2019-12-24 19:32:11.998394", "event_end_time": "2019-12-24 19:32:37.278394"}</text>
        <id>smi:local/ba0ed52a-908e-4281-94f3-978e51a1a305</id>
      </comment>
    </pick>
    <pick publicID="smi:local/20191224.192527.94-P-CM.URMC.00.HH">
      <time>
        <value>2019-12-24T19:25:27.948393Z</value>
        <uncertainty>0.2</uncertainty>
        <confidenceLevel>78.0</confidenceLevel>
      </time>
      <waveformID networkCode="CM" stationCode="URMC" locationCode="00" channelCode="HHZ">
        <resourceURI>smi:local/CM.URMC.00.HHZ</resourceURI>
      </waveformID>
      <methodID>smi:local/EQTransformer</methodID>
      <phaseHint>P</phaseHint>
      <evaluationMode>automatic</evaluationMode>
      <creationInfo>
        <author>EQTransformer</author>
        <creationTime>2023-01-18T21:15:33.143415Z</creationTime>
      </creationInfo>
      <comment>
        <text>{"probability": 0.78, "GaMMA_probability": 1.965125602997957e-06, "snr": 17.2, "detection_probability": 0.9, "event_start_time": "2019-12-24 19:25:27.828393", "event_end_time": "2019-12-24 19:25:33.848393"}</text>
        <id>smi:local/e0933df2-e6a6-4201-9bcb-b784ff4388c9</id>
      </comment>
    </pick>
    <pick publicID="smi:local/20191224.192531.73-S-CM.URMC.00.HH">
      <time>
        <value>2019-12-24T19:25:31.738393Z</value>
        <uncertainty>0.2</uncertainty>
        <confidenceLevel>28.999999999999996</confidenceLevel>
      </time>
      <waveformID networkCode="CM" stationCode="URMC" locationCode="00" channelCode="HHZ">
        <resourceURI>smi:local/CM.URMC.00.HHZ</resourceURI>
      </waveformID>
      <methodID>smi:local/EQTransformer</methodID>
      <phaseHint>S</phaseHint>
      <evaluationMode>automatic</evaluationMode>
      <creationInfo>
        <author>EQTransformer</author>
        <creationTime>2023-01-18T21:15:33.143963Z</creationTime>
      </creationInfo>
      <comment>
        <text>{"probability": 0.29, "GaMMA_probability": 2.4283749093416853e-06, "snr": 17.1, "detection_probability": 0.9, "event_start_time": "2019-12-24 19:25:27.828393", "event_end_time": "2019-12-24 19:25:33.848393"}</text>
        <id>smi:local/7ee955a8-cf72-4a36-94aa-50cf7bf91448</id>
      </comment>
    </pick>
    <pick publicID="smi:local/20191224.192542.83-P-CM.ORTC.00.HH">
      <time>
        <value>2019-12-24T19:25:42.838393Z</value>
        <uncertainty>0.2</uncertainty>
        <confidenceLevel>72.0</confidenceLevel>
      </time>
      <waveformID networkCode="CM" stationCode="ORTC" locationCode="00" channelCode="HHZ">
        <resourceURI>smi:local/CM.ORTC.00.HHZ</resourceURI>
      </waveformID>
      <methodID>smi:local/EQTransformer</methodID>
      <phaseHint>P</phaseHint>
      <evaluationMode>automatic</evaluationMode>
      <creationInfo>
        <author>EQTransformer</author>
        <creationTime>2023-01-18T21:15:33.144508Z</creationTime>
      </creationInfo>
      <comment>
        <text>{"probability": 0.72, "GaMMA_probability": 8.232169860340049e-06, "snr": 14.7, "detection_probability": 0.86, "event_start_time": "2019-12-24 19:25:42.748393", "event_end_time": "2019-12-24 19:26:04.598393"}</text>
        <id>smi:local/30773712-4163-47ee-b283-3d5278da25be</id>
      </comment>
    </pick>
    <pick publicID="smi:local/20191224.192545.43-P-CM.CHI.00.HH">
      <time>
        <value>2019-12-24T19:25:45.438394Z</value>
        <uncertainty>0.2</uncertainty>
        <confidenceLevel>7.000000000000001</confidenceLevel>
      </time>
      <waveformID networkCode="CM" stationCode="CHI" locationCode="00" channelCode="HHZ">
        <resourceURI>smi:local/CM.CHI.00.HHZ</resourceURI>
      </waveformID>
      <methodID>smi:local/EQTransformer</methodID>
      <phaseHint>P</phaseHint>
      <evaluationMode>automatic</evaluationMode>
      <creationInfo>
        <author>EQTransformer</author>
        <creationTime>2023-01-18T21:15:33.145017Z</creationTime>
      </creationInfo>
      <comment>
        <text>{"probability": 0.07, "GaMMA_probability": 1.083986087858577e-05, "snr": 6.7, "detection_probability": 0.11, "event_start_time": "2019-12-24 19:25:45.518394", "event_end_time": "2019-12-24 19:25:49.348394"}</text>
        <id>smi:local/11255255-ecb6-4c46-bb61-f6ab41378bcf</id>
      </comment>
    </pick>
    <pick publicID="smi:local/20191224.192558.24-S-CM.ORTC.00.HH">
      <time>
        <value>2019-12-24T19:25:58.248393Z</value>
        <uncertainty>0.2</uncertainty>
        <confidenceLevel>45.0</confidenceLevel>
      </time>
      <waveformID networkCode="CM" stationCode="ORTC" locationCode="00" channelCode="HHZ">
        <resourceURI>smi:local/CM.ORTC.00.HHZ</resourceURI>
      </waveformID>
