<?xml version='1.0' encoding='utf-8'?>
<q:quakeml xmlns:q="http://quakeml.org/xmlns/quakeml/1.2" xmlns="http://quakeml.org/xmlns/bed/1.2">
  <eventParameters publicID="smi:org.gfz-potsdam.de/geofon/NA">
    <event publicID="smi:org.gfz-potsdam.de/geofon/SGC2022kszqlt">
      <preferredOriginID>smi:org.gfz-potsdam.de/geofon/NLL.20220603003258.897482.40051</preferredOriginID>
      <preferredMagnitudeID>smi:local/92e5ad5d-b04f-4339-baed-4f1511d6ac5f</preferredMagnitudeID>
      <type>earthquake</type>
      <typeCertainty>known</typeCertainty>
      <description>
        <text>Lenguazaque - Cundinamarca, Colombia</text>
        <type>region name</type>
      </description>
      <creationInfo>
        <agencyID>SGC</agencyID>
        <creationTime>2022-06-01T23:38:32.936941Z</creationTime>
      </creationInfo>
      <origin publicID="smi:org.gfz-potsdam.de/geofon/NLL.20220603003258.897482.40051">
        <time>
          <value>2022-06-01T23:37:32.868726Z</value>
        </time>
        <latitude>
          <value>5.294137796</value>
          <uncertainty>3.177906413</uncertainty>
        </latitude>
        <longitude>
          <value>-73.73576165</value>
          <uncertainty>3.840061927</uncertainty>
        </longitude>
        <depth>
          <value>142070.3125</value>
          <uncertainty>6773.377671</uncertainty>
        </depth>
        <methodID>smi:org.gfz-potsdam.de/geofon/NonLinLoc</methodID>
        <earthModelID>smi:org.gfz-potsdam.de/geofon/Poveda_et_al_2018</earthModelID>
        <quality>
          <associatedPhaseCount>60</associatedPhaseCount>
          <usedPhaseCount>52</usedPhaseCount>
          <usedStationCount>29</usedStationCount>
          <standardError>1.164558059</standardError>
          <azimuthalGap>52.87860671</azimuthalGap>
          <secondaryAzimuthalGap>52.87860671</secondaryAzimuthalGap>
          <groundTruthLevel>-</groundTruthLevel>
          <minimumDistance>0.4898777714</minimumDistance>
          <maximumDistance>4.414569936</maximumDistance>
          <medianDistance>1.935629551</medianDistance>
        </quality>
        <evaluationMode>manual</evaluationMode>
        <evaluationStatus>confirmed</evaluationStatus>
        <creationInfo>
          <agencyID>SGC</agencyID>
          <creationTime>2022-06-03T00:33:19.022689Z</creationTime>
        </creationInfo>
        <originUncertainty>
          <horizontalUncertainty>5904.448302</horizontalUncertainty>
          <minHorizontalUncertainty>4720.314526</minHorizontalUncertainty>
          <maxHorizontalUncertainty>5904.448302</maxHorizontalUncertainty>
          <azimuthMaxHorizontalUncertainty>105.9196529</azimuthMaxHorizontalUncertainty>
          <confidenceEllipsoid>
            <semiMajorAxisLength>12786351.65</semiMajorAxisLength>
            <semiMinorAxisLength>5723119.561</semiMinorAxisLength>
            <semiIntermediateAxisLength>7308225.692</semiIntermediateAxisLength>
            <majorAxisPlunge>6.263093026</majorAxisPlunge>
            <majorAxisAzimuth>-122.1428501</majorAxisAzimuth>
            <majorAxisRotation>83.95542075</majorAxisRotation>
          </confidenceEllipsoid>
        </originUncertainty>
        <arrival publicID="smi:org.gfz-potsdam.de/geofon/Pick/20220602003250.215066.35138_NLL.20220603003258.897482.40051">
          <pickID>smi:org.gfz-potsdam.de/geofon/Pick/20220602003250.215066.35138</pickID>
          <phase>P</phase>
          <timeCorrection>0.0</timeCorrection>
          <azimuth>316.9516663</azimuth>
          <distance>0.4898777714</distance>
          <takeoffAngle>
            <value>156.2</value>
          </takeoffAngle>
          <timeResidual>0.6862198499</timeResidual>
          <timeWeight>1.173530236</timeWeight>
        </arrival>
        <arrival publicID="smi:org.gfz-potsdam.de/geofon/Pick/20220602003250.214997.35137_NLL.20220603003258.897482.40051">
          <pickID>smi:org.gfz-potsdam.de/geofon/Pick/20220602003250.214997.35137</pickID>
          <phase>S</phase>
          <timeCorrection>0.0</timeCorrection>
          <azimuth>316.9516663</azimuth>
          <distance>0.4898777714</distance>
          <takeoffAngle>
            <value>156.3</value>
          </takeoffAngle>
          <timeResidual>-0.1907734241</timeResidual>
          <timeWeight>1.065874927</timeWeight>
        </arrival>
        <arrival publicID="smi:org.gfz-potsdam.de/geofon/Pick/20220602003250.214752.35135_NLL.20220603003258.897482.40051">
          <pickID>smi:org.gfz-potsdam.de/geofon/Pick/20220602003250.214752.35135</pickID>
          <phase>P</phase>
          <timeCorrection>0.0</timeCorrection>
          <azimuth>180.1786337</azimuth>
          <distance>0.6645106299</distance>
          <takeoffAngle>
            <value>149.8</value>
          </takeoffAngle>
          <timeResidual>0.1681187299</timeResidual>
          <timeWeight>1.243424707</timeWeight>
        </arrival>
        <arrival publicID="smi:org.gfz-potsdam.de/geofon/Pick/20220602003250.214911.35136_NLL.20220603003258.897482.40051">
          <pickID>smi:org.gfz-potsdam.de/geofon/Pick/20220602003250.214911.35136</pickID>
          <phase>S</phase>
          <timeCorrection>0.0</timeCorrection>
          <azimuth>180.1786337</azimuth>
          <distance>0.6645106299</distance>
          <takeoffAngle>
            <value>149.9</value>
          </takeoffAngle>
          <timeResidual>-1.121958068</timeResidual>
          <timeWeight>1.008967392</timeWeight>
        </arrival>
        <arrival publicID="smi:org.gfz-potsdam.de/geofon/Pick/20220603003134.544838.40040_NLL.20220603003258.897482.40051">
          <pickID>smi:org.gfz-potsdam.de/geofon/Pick/20220603003134.544838.40040</pickID>
          <phase>P</phase>
          <timeCorrection>0.0</timeCorrection>
          <azimuth>232.4241623</azimuth>
          <distance>0.7365391258</distance>
          <takeoffAngle>
            <value>147.5</value>
          </takeoffAngle>
          <timeResidual>1.102228828</timeResidual>
          <timeWeight>1.045009809</timeWeight>
        </arrival>
        <arrival publicID="smi:org.gfz-potsdam.de/geofon/Pick/20220602003752.076247.35164_NLL.20220603003258.897482.40051">
          <pickID>smi:org.gfz-potsdam.de/geofon/Pick/20220602003752.076247.35164</pickID>
          <phase>S</phase>
          <timeCorrection>0.0</timeCorrection>
          <azimuth>232.4241623</azimuth>
          <distance>0.7365391258</distance>
          <takeoffAngle>
            <value>147.6</value>
          </takeoffAngle>
          <timeResidual>1.594948811</timeResidual>
          <timeWeight>0.8167495774</timeWeight>
        </arrival>
        <arrival publicID="smi:org.gfz-potsdam.de/geofon/Pick/20220602003752.076513.35166_NLL.20220603003258.897482.40051">
          <pickID>smi:org.gfz-potsdam.de/geofon/Pick/20220602003752.076513.35166</pickID>
          <phase>P</phase>
          <timeCorrection>0.0</timeCorrection>
          <azimuth>203.6064618</azimuth>
          <distance>0.8434697225</distance>
          <takeoffAngle>
            <value>143.8</value>
          </takeoffAngle>
          <timeResidual>0.5409083844</timeResidual>
          <timeWeight>1.173133143</timeWeight>
        </arrival>
        <arrival publicID="smi:org.gfz-potsdam.de/geofon/Pick/20220602003752.076386.35165_NLL.20220603003258.897482.40051">
          <pickID>smi:org.gfz-potsdam.de/geofon/Pick/20220602003752.076386.35165</pickID>
          <phase>S</phase>
          <timeCorrection>0.0</timeCorrection>
          <azimuth>203.6064618</azimuth>
          <distance>0.8434697225</distance>
          <takeoffAngle>
            <value>144.0</value>
          </takeoffAngle>
          <timeResidual>0.1485315747</timeResidual>
          <timeWeight>1.024941421</timeWeight>
        </arrival>
        <arrival publicID="smi:org.gfz-potsdam.de/geofon/Pick/20220602003250.215134.35139_NLL.20220603003258.897482.40051">
          <pickID>smi:org.gfz-potsdam.de/geofon/Pick/20220602003250.215134.35139</pickID>
          <phase>P</phase>
          <timeCorrection>0.0</timeCorrection>
          <azimuth>47.36262145</azimuth>
          <distance>0.8832058409</distance>
          <takeoffAngle>
            <value>142.1</value>
          </takeoffAngle>
          <timeResidual>0.362841145</timeResidual>
          <timeWeight>1.194245334</timeWeight>
        </arrival>
        <arrival publicID="smi:org.gfz-potsdam.de/geofon/Pick/20220602003250.2152.35140_NLL.20220603003258.897482.40051">
          <pickID>smi:org.gfz-potsdam.de/geofon/Pick/20220602003250.2152.35140</pickID>
          <phase>S</phase>
          <timeCorrection>0.0</timeCorrection>
          <azimuth>47.36262145</azimuth>
          <distance>0.8832058409</distance>
          <takeoffAngle>
            <value>142.3</value>
          </takeoffAngle>
          <timeResidual>-0.7608109668</timeResidual>
          <timeWeight>1.033429173</timeWeight>
        </arrival>
        <arrival publicID="smi:org.gfz-potsdam.de/geofon/Pick/20220602003752.077001.35169_NLL.20220603003258.897482.40051">
          <pickID>smi:org.gfz-potsdam.de/geofon/Pick/20220602003752.077001.35169</pickID>
          <phase>P</phase>
          <timeCorrection>0.0</timeCorrection>
          <azimuth>283.4331217</azimuth>
          <distance>1.159266117</distance>
          <takeoffAngle>
            <value>135.1</value>
          </takeoffAngle>
          <timeResidual>0.3726806134</timeResidual>
          <timeWeight>1.176879234</timeWeight>
        </arrival>
        <arrival publicID="smi:org.gfz-potsdam.de/geofon/Pick/20220602003752.076876.35168_NLL.20220603003258.897482.40051">
          <pickID>smi:org.gfz-potsdam.de/geofon/Pick/20220602003752.076876.35168</pickID>
          <phase>S</phase>
          <timeCorrection>0.0</timeCorrection>
          <azimuth>283.4331217</azimuth>
          <distance>1.159266117</distance>
          <takeoffAngle>
            <value>135.4</value>
          </takeoffAngle>
          <timeResidual>-0.4287959033</timeResidual>
          <timeWeight>1.042300561</timeWeight>
        </arrival>
        <arrival publicID="smi:org.gfz-potsdam.de/geofon/Pick/20220602003250.215267.35141_NLL.20220603003258.897482.40051">
          <pickID>smi:org.gfz-potsdam.de/geofon/Pick/20220602003250.215267.35141</pickID>
          <phase>P</phase>
          <timeCorrection>0.0</timeCorrection>
          <azimuth>178.0180543</azimuth>
          <distance>1.182613339</distance>
          <takeoffAngle>
            <value>132.7</value>
          </takeoffAngle>
          <timeResidual>-0.2631050036</timeResidual>
          <timeWeight>1.217805293</timeWeight>
        </arrival>
        <arrival publicID="smi:org.gfz-potsdam.de/geofon/Pick/20220602003752.076743.35167_NLL.20220603003258.897482.40051">
          <pickID>smi:org.gfz-potsdam.de/geofon/Pick/20220602003752.076743.35167</pickID>
          <phase>S</phase>
          <timeCorrection>0.0</timeCorrection>
          <azimuth>178.0180543</azimuth>
          <distance>1.182613339</distance>
          <takeoffAngle>
            <value>133.0</value>
          </takeoffAngle>
          <timeResidual>-0.3400753528</timeResidual>
          <timeWeight>1.042360656</timeWeight>
        </arrival>
        <arrival publicID="smi:org.gfz-potsdam.de/geofon/Pick/20220602003752.077124.35170_NLL.20220603003258.897482.40051">
          <pickID>smi:org.gfz-potsdam.de/geofon/Pick/20220602003752.077124.35170</pickID>
          <phase>P</phase>
          <timeCorrection>0.0</timeCorrection>
          <azimuth>177.3272707</azimuth>
          <distance>1.353144523</distance>
          <takeoffAngle>
            <value>128.5</value>
          </takeoffAngle>
          <timeResidual>-0.2739660663</timeResidual>
          <timeWeight>1.198721199</timeWeight>
        </arrival>
        <arrival publicID="smi:org.gfz-potsdam.de/geofon/Pick/20220602003752.077246.35171_NLL.20220603003258.897482.40051">
          <pickID>smi:org.gfz-potsdam.de/geofon/Pick/20220602003752.077246.35171</pickID>
          <phase>S</phase>
          <timeCorrection>0.0</timeCorrection>
          <azimuth>177.3272707</azimuth>
          <distance>1.353144523</distance>
          <takeoffAngle>
            <value>128.7</value>
          </takeoffAngle>
          <timeResidual>-1.236726738</timeResidual>
          <timeWeight>0.9981813107</timeWeight>
        </arrival>
        <arrival publicID="smi:org.gfz-potsdam.de/geofon/Pick/20220603003134.545253.40041_NLL.20220603003258.897482.40051">
          <pickID>smi:org.gfz-potsdam.de/geofon/Pick/20220603003134.545253.40041</pickID>
          <phase>P</phase>
          <timeCorrection>0.0</timeCorrection>
          <azimuth>85.64598842</azimuth>
          <distance>1.353316317</distance>
          <takeoffAngle>
            <value>127.9</value>
          </takeoffAngle>
          <timeResidual>0.3346749555</timeResidual>
          <timeWeight>1.149842175</timeWeight>
        </arrival>
        <arrival publicID="smi:org.gfz-potsdam.de/geofon/Pick/20220602003250.215458.35144_NLL.20220603003258.897482.40051">
          <pickID>smi:org.gfz-potsdam.de/geofon/Pick/20220602003250.215458.35144</pickID>
          <phase>S</phase>
          <timeCorrection>0.0</timeCorrection>
          <azimuth>85.64598842</azimuth>
          <distance>1.353316317</distance>
          <takeoffAngle>
            <value>128.0</value>
          </takeoffAngle>
          <timeResidual>-2.409255547</timeResidual>
          <timeWeight>0.8230791295</timeWeight>
        </arrival>
        <arrival publicID="smi:org.gfz-potsdam.de/geofon/Pick/20220602003752.077428.35172_NLL.20220603003258.897482.40051">
          <pickID>smi:org.gfz-potsdam.de/geofon/Pick/20220602003752.077428.35172</pickID>
          <phase>P</phase>
          <timeCorrection>0.0</timeCorrection>
          <azimuth>23.034271</azimuth>
          <distance>1.410027702</distance>
          <takeoffAngle>
            <value>127.4</value>
          </takeoffAngle>
          <timeResidual>0.2673676526</timeResidual>
          <timeWeight>1.151921332</timeWeight>
        </arrival>
        <arrival publicID="smi:org.gfz-potsdam.de/geofon/Pick/20220602003752.077554.35173_NLL.20220603003258.897482.40051">
          <pickID>smi:org.gfz-potsdam.de/geofon/Pick/20220602003752.077554.35173</pickID>
          <phase>S</phase>
          <timeCorrection>0.0</timeCorrection>
          <azimuth>23.034271</azimuth>
          <distance>1.410027702</distance>
          <takeoffAngle>
            <value>127.6</value>
          </takeoffAngle>
          <timeResidual>-0.4878646655</timeResidual>
          <timeWeight>1.041714577</timeWeight>
        </arrival>
        <arrival publicID="smi:org.gfz-potsdam.de/geofon/Pick/20220602003752.077684.35174_NLL.20220603003258.897482.40051">
          <pickID>smi:org.gfz-potsdam.de/geofon/Pick/20220602003752.077684.35174</pickID>
          <phase>P</phase>
          <timeCorrection>0.0</timeCorrection>
          <azimuth>330.1661971</azimuth>
          <distance>1.435340539</distance>
          <takeoffAngle>
            <value>127.7</value>
          </takeoffAngle>
          <timeResidual>0.04798319216</timeResidual>
          <timeWeight>1.174217506</timeWeight>
        </arrival>
        <arrival publicID="smi:org.gfz-potsdam.de/geofon/Pick/20220602003752.077808.35175_NLL.20220603003258.897482.40051">
          <pickID>smi:org.gfz-potsdam.de/geofon/Pick/20220602003752.077808.35175</pickID>
          <phase>S</phase>
          <timeCorrection>0.0</timeCorrection>
          <azimuth>330.1661971</azimuth>
          <distance>1.435340539</distance>
          <takeoffAngle>
            <value>127.9</value>
          </takeoffAngle>
          <timeResidual>-0.7061873401</timeResidual>
          <timeWeight>1.035811258</timeWeight>
        </arrival>
        <arrival publicID="smi:org.gfz-potsdam.de/geofon/Pick/20220602003250.215524.35145_NLL.20220603003258.897482.40051">
          <pickID>smi:org.gfz-potsdam.de/geofon/Pick/20220602003250.215524.35145</pickID>
          <phase>P</phase>
          <timeCorrection>0.0</timeCorrection>
          <azimuth>255.7669713</azimuth>
          <distance>1.590544261</distance>
          <takeoffAngle>
            <value>124.4</value>
          </takeoffAngle>
          <timeResidual>-0.1204048907</timeResidual>
          <timeWeight>1.146905215</timeWeight>
        </arrival>
        <arrival publicID="smi:org.gfz-potsdam.de/geofon/Pick/20220602003250.21559.35146_NLL.20220603003258.897482.40051">
          <pickID>smi:org.gfz-potsdam.de/geofon/Pick/20220602003250.21559.35146</pickID>
          <phase>S</phase>
          <timeCorrection>0.0</timeCorrection>
          <azimuth>255.7669713</azimuth>
          <distance>1.590544261</distance>
          <takeoffAngle>
            <value>124.6</value>
          </takeoffAngle>
          <timeResidual>-1.937254668</timeResidual>
          <timeWeight>0.9055283636</timeWeight>
        </arrival>
        <arrival publicID="smi:org.gfz-potsdam.de/geofon/Pick/20220602003250.215653.35147_NLL.20220603003258.897482.40051">
          <pickID>smi:org.gfz-potsdam.de/geofon/Pick/20220602003250.215653.35147</pickID>
          <phase>P</phase>
          <timeCorrection>0.0</timeCorrection>
          <azimuth>267.531422</azimuth>
          <distance>1.623442401</distance>
          <takeoffAngle>
            <value>124.1</value>
          </takeoffAngle>
          <timeResidual>0.1815039838</timeResidual>
          <timeWeight>1.129819446</timeWeight>
        </arrival>
        <arrival publicID="smi:org.gfz-potsdam.de/geofon/Pick/20220602003250.215714.35148_NLL.20220603003258.897482.40051">
          <pickID>smi:org.gfz-potsdam.de/geofon/Pick/20220602003250.215714.35148</pickID>
          <phase>S</phase>
          <timeCorrection>0.0</timeCorrection>
          <azimuth>267.531422</azimuth>
          <distance>1.623442401</distance>
          <takeoffAngle>
            <value>124.3</value>
          </takeoffAngle>
          <timeResidual>0.2740155225</timeResidual>
          <timeWeight>1.015668821</timeWeight>
        </arrival>
        <arrival publicID="smi:org.gfz-potsdam.de/geofon/Pick/20220602003752.078043.35176_NLL.20220603003258.897482.40051">
          <pickID>smi:org.gfz-potsdam.de/geofon/Pick/20220602003752.078043.35176</pickID>
          <phase>P</phase>
          <timeCorrection>0.0</timeCorrection>
          <azimuth>359.7927953</azimuth>
          <distance>1.678743753</distance>
          <takeoffAngle>
            <value>122.2</value>
          </takeoffAngle>
          <timeResidual>0.927490202</timeResidual>
          <timeWeight>1.018544414</timeWeight>
        </arrival>
        <arrival publicID="smi:org.gfz-potsdam.de/geofon/Pick/20220602003752.078162.35177_NLL.20220603003258.897482.40051">
          <pickID>smi:org.gfz-potsdam.de/geofon/Pick/20220602003752.078162.35177</pickID>
          <phase>S</phase>
          <timeCorrection>0.0</timeCorrection>
          <azimuth>359.7927953</azimuth>
          <distance>1.678743753</distance>
          <takeoffAngle>
            <value>122.4</value>
          </takeoffAngle>
          <timeResidual>0.03654918947</timeResidual>
          <timeWeight>1.031578859</timeWeight>
        </arrival>
        <arrival publicID="smi:org.gfz-potsdam.de/geofon/Pick/20220602003752.078329.35178_NLL.20220603003258.897482.40051">
          <pickID>smi:org.gfz-potsdam.de/geofon/Pick/20220602003752.078329.35178</pickID>
          <phase>P</phase>
          <timeCorrection>0.0</timeCorrection>
          <azimuth>124.448664</azimuth>
          <distance>1.935629551</distance>
          <takeoffAngle>
            <value>117.6</value>
          </takeoffAngle>
          <timeResidual>-0.4576231494</timeResidual>
          <timeWeight>1.110820964</timeWeight>
        </arrival>
        <arrival publicID="smi:org.gfz-potsdam.de/geofon/Pick/20220602003250.215778.35149_NLL.20220603003258.897482.40051">
