<?xml version='1.0' encoding='utf-8'?>
<q:quakeml xmlns:q="http://quakeml.org/xmlns/quakeml/1.2" xmlns="http://quakeml.org/xmlns/bed/1.2">
  <eventParameters publicID="smi:org.gfz-potsdam.de/geofon/NA">
    <event publicID="smi:org.gfz-potsdam.de/geofon/SGC2022krnhiu">
      <preferredOriginID>smi:org.gfz-potsdam.de/geofon/NLL.20220601054020.688379.41188</preferredOriginID>
      <preferredMagnitudeID>smi:local/87aa5a03-5086-4ade-b834-8d1ce9def3ea</preferredMagnitudeID>
      <type>earthquake</type>
      <typeCertainty>known</typeCertainty>
      <description>
        <text>Zapatoca - Santander, Colombia</text>
        <type>region name</type>
      </description>
      <comment id="smi:org.gfz-potsdam.de/geofon/Operator">
        <text>DESTACADO</text>
        <creationInfo>
          <creationTime>2022-06-02T13:42:45.935877Z</creationTime>
        </creationInfo>
      </comment>
      <creationInfo>
        <agencyID>SGC</agencyID>
        <creationTime>2022-06-01T04:21:07.874351Z</creationTime>
      </creationInfo>
      <origin publicID="smi:org.gfz-potsdam.de/geofon/NLL.20220601054020.688379.41188">
        <time>
          <value>2022-06-01T04:20:24.816727Z</value>
        </time>
        <latitude>
          <value>6.796958378</value>
          <uncertainty>2.295197893</uncertainty>
        </latitude>
        <longitude>
          <value>-73.20242618</value>
          <uncertainty>3.167061267</uncertainty>
        </longitude>
        <depth>
          <value>149101.5625</value>
          <uncertainty>4625.643286</uncertainty>
        </depth>
        <methodID>smi:org.gfz-potsdam.de/geofon/NonLinLoc</methodID>
        <earthModelID>smi:org.gfz-potsdam.de/geofon/Poveda_et_al_2018</earthModelID>
        <quality>
          <associatedPhaseCount>147</associatedPhaseCount>
          <usedPhaseCount>118</usedPhaseCount>
          <usedStationCount>72</usedStationCount>
          <standardError>1.181990307</standardError>
          <azimuthalGap>60.5257798</azimuthalGap>
          <secondaryAzimuthalGap>60.5257798</secondaryAzimuthalGap>
          <groundTruthLevel>-</groundTruthLevel>
          <minimumDistance>0.2059116459</minimumDistance>
          <maximumDistance>6.255935745</maximumDistance>
          <medianDistance>3.528335119</medianDistance>
        </quality>
        <evaluationMode>manual</evaluationMode>
        <evaluationStatus>confirmed</evaluationStatus>
        <creationInfo>
          <agencyID>SGC</agencyID>
          <creationTime>2022-06-01T05:41:27.065351Z</creationTime>
        </creationInfo>
        <originUncertainty>
          <horizontalUncertainty>4929.162241</horizontalUncertainty>
          <minHorizontalUncertainty>3299.885393</minHorizontalUncertainty>
          <maxHorizontalUncertainty>4929.162241</maxHorizontalUncertainty>
          <azimuthMaxHorizontalUncertainty>107.6088772</azimuthMaxHorizontalUncertainty>
          <confidenceEllipsoid>
            <semiMajorAxisLength>8841274.97</semiMajorAxisLength>
            <semiMinorAxisLength>3970404.023</semiMinorAxisLength>
            <semiIntermediateAxisLength>5966602.404</semiIntermediateAxisLength>
            <majorAxisPlunge>166.5259965</majorAxisPlunge>
            <majorAxisAzimuth>-167.8227043</majorAxisAzimuth>
            <majorAxisRotation>82.6211136</majorAxisRotation>
          </confidenceEllipsoid>
        </originUncertainty>
        <arrival publicID="smi:org.gfz-potsdam.de/geofon/Pick/20220601042202.632994.33815_NLL.20220601054020.688379.41188">
          <pickID>smi:org.gfz-potsdam.de/geofon/Pick/20220601042202.632994.33815</pickID>
          <phase>S</phase>
          <timeCorrection>0.0</timeCorrection>
          <azimuth>288.1478234</azimuth>
          <distance>0.5657277211</distance>
          <takeoffAngle>
            <value>154.8</value>
          </takeoffAngle>
          <timeResidual>0.9952701808</timeResidual>
          <timeWeight>0.9886273279</timeWeight>
        </arrival>
        <arrival publicID="smi:org.gfz-potsdam.de/geofon/Pick/20220601042202.633292.33819_NLL.20220601054020.688379.41188">
          <pickID>smi:org.gfz-potsdam.de/geofon/Pick/20220601042202.633292.33819</pickID>
          <phase>S</phase>
          <timeCorrection>0.0</timeCorrection>
          <azimuth>172.5517585</azimuth>
          <distance>0.9119758405</distance>
          <takeoffAngle>
            <value>143.5</value>
          </takeoffAngle>
          <timeResidual>-1.769228739</timeResidual>
          <timeWeight>0.9504388775</timeWeight>
        </arrival>
        <arrival publicID="smi:org.gfz-potsdam.de/geofon/Pick/20220601042734.721497.38123_NLL.20220601054020.688379.41188">
          <pickID>smi:org.gfz-potsdam.de/geofon/Pick/20220601042734.721497.38123</pickID>
          <phase>S</phase>
          <timeCorrection>0.0</timeCorrection>
          <azimuth>43.9351281</azimuth>
          <distance>0.8080912858</distance>
          <takeoffAngle>
            <value>146.6</value>
          </takeoffAngle>
          <timeResidual>-0.9561926488</timeResidual>
          <timeWeight>1.045135921</timeWeight>
        </arrival>
        <arrival publicID="smi:org.gfz-potsdam.de/geofon/Pick/20220601042734.721778.38125_NLL.20220601054020.688379.41188">
          <pickID>smi:org.gfz-potsdam.de/geofon/Pick/20220601042734.721778.38125</pickID>
          <phase>S</phase>
          <azimuth>32.75910596</azimuth>
          <distance>1.277914756</distance>
        </arrival>
        <arrival publicID="smi:org.gfz-potsdam.de/geofon/Pick/20220601042734.722853.38133_NLL.20220601054020.688379.41188">
          <pickID>smi:org.gfz-potsdam.de/geofon/Pick/20220601042734.722853.38133</pickID>
          <phase>S</phase>
          <timeCorrection>0.0</timeCorrection>
          <azimuth>292.962175</azimuth>
          <distance>1.782013796</distance>
          <takeoffAngle>
            <value>123.1</value>
          </takeoffAngle>
          <timeResidual>0.08680633803</timeResidual>
          <timeWeight>1.065384371</timeWeight>
        </arrival>
        <arrival publicID="smi:org.gfz-potsdam.de/geofon/Pick/20220601042734.723052.38135_NLL.20220601054020.688379.41188">
          <pickID>smi:org.gfz-potsdam.de/geofon/Pick/20220601042734.723052.38135</pickID>
          <phase>S</phase>
          <timeCorrection>0.0</timeCorrection>
          <azimuth>233.3758493</azimuth>
          <distance>2.067201505</distance>
          <takeoffAngle>
            <value>118.4</value>
          </takeoffAngle>
          <timeResidual>-0.1569616063</timeResidual>
          <timeWeight>1.071841638</timeWeight>
        </arrival>
        <arrival publicID="smi:org.gfz-potsdam.de/geofon/Pick/20220601042734.723249.38137_NLL.20220601054020.688379.41188">
          <pickID>smi:org.gfz-potsdam.de/geofon/Pick/20220601042734.723249.38137</pickID>
          <phase>S</phase>
          <timeCorrection>0.0</timeCorrection>
          <azimuth>193.8327253</azimuth>
          <distance>2.231758875</distance>
          <takeoffAngle>
            <value>115.0</value>
          </takeoffAngle>
          <timeResidual>-1.808072605</timeResidual>
          <timeWeight>0.944512054</timeWeight>
        </arrival>
        <arrival publicID="smi:org.gfz-potsdam.de/geofon/Pick/20220601042734.724642.38151_NLL.20220601054020.688379.41188">
          <pickID>smi:org.gfz-potsdam.de/geofon/Pick/20220601042734.724642.38151</pickID>
          <phase>S</phase>
          <timeCorrection>0.0</timeCorrection>
          <azimuth>233.8630835</azimuth>
          <distance>2.666448913</distance>
          <takeoffAngle>
            <value>111.8</value>
          </takeoffAngle>
          <timeResidual>-0.1653978124</timeResidual>
          <timeWeight>1.071941411</timeWeight>
        </arrival>
        <arrival publicID="smi:org.gfz-potsdam.de/geofon/Pick/20220601042734.725238.38157_NLL.20220601054020.688379.41188">
          <pickID>smi:org.gfz-potsdam.de/geofon/Pick/20220601042734.725238.38157</pickID>
          <phase>S</phase>
          <timeCorrection>0.0</timeCorrection>
          <azimuth>227.5930325</azimuth>
          <distance>2.807842145</distance>
          <takeoffAngle>
            <value>110.3</value>
          </takeoffAngle>
          <timeResidual>-1.136376047</timeResidual>
          <timeWeight>1.029486181</timeWeight>
        </arrival>
        <arrival publicID="smi:org.gfz-potsdam.de/geofon/Pick/20220601042734.727871.38183_NLL.20220601054020.688379.41188">
          <pickID>smi:org.gfz-potsdam.de/geofon/Pick/20220601042734.727871.38183</pickID>
          <phase>P</phase>
          <timeCorrection>0.0</timeCorrection>
          <azimuth>303.3830114</azimuth>
          <distance>3.743571808</distance>
          <takeoffAngle>
            <value>103.3</value>
          </takeoffAngle>
          <timeResidual>-1.624463846</timeResidual>
          <timeWeight>0.9715245481</timeWeight>
        </arrival>
        <arrival publicID="smi:org.gfz-potsdam.de/geofon/Pick/20220601042734.728174.38186_NLL.20220601054020.688379.41188">
          <pickID>smi:org.gfz-potsdam.de/geofon/Pick/20220601042734.728174.38186</pickID>
          <phase>P</phase>
          <timeCorrection>0.0</timeCorrection>
          <azimuth>262.2384846</azimuth>
          <distance>4.219520557</distance>
          <takeoffAngle>
            <value>102.5</value>
          </takeoffAngle>
          <timeResidual>1.14400762</timeResidual>
          <timeWeight>0.95195097</timeWeight>
        </arrival>
        <arrival publicID="smi:org.gfz-potsdam.de/geofon/Pick/20220601042825.30963.38207_NLL.20220601054020.688379.41188">
          <pickID>smi:org.gfz-potsdam.de/geofon/Pick/20220601042825.30963.38207</pickID>
          <phase>P</phase>
          <timeCorrection>0.0</timeCorrection>
          <azimuth>227.9970743</azimuth>
          <distance>7.43053843</distance>
          <takeoffAngle>
            <value>96.1</value>
          </takeoffAngle>
          <timeResidual>-0.5115079076</timeResidual>
          <timeWeight>1.055767304</timeWeight>
        </arrival>
        <arrival publicID="smi:org.gfz-potsdam.de/geofon/Pick/20220601051527.990992.40739_NLL.20220601054020.688379.41188">
          <pickID>smi:org.gfz-potsdam.de/geofon/Pick/20220601051527.990992.40739</pickID>
          <phase>P</phase>
          <timeCorrection>0.0</timeCorrection>
          <azimuth>174.3694393</azimuth>
          <distance>0.2059116459</distance>
          <takeoffAngle>
            <value>169.0</value>
          </takeoffAngle>
          <timeResidual>0.809270367</timeResidual>
          <timeWeight>1.190513111</timeWeight>
        </arrival>
        <arrival publicID="smi:org.gfz-potsdam.de/geofon/Pick/20220601051527.991253.40740_NLL.20220601054020.688379.41188">
          <pickID>smi:org.gfz-potsdam.de/geofon/Pick/20220601051527.991253.40740</pickID>
          <phase>S</phase>
          <timeCorrection>0.0</timeCorrection>
          <azimuth>174.3694393</azimuth>
          <distance>0.2059116459</distance>
          <takeoffAngle>
            <value>169.1</value>
          </takeoffAngle>
          <timeResidual>-0.4640926122</timeResidual>
          <timeWeight>1.099989567</timeWeight>
        </arrival>
        <arrival publicID="smi:org.gfz-potsdam.de/geofon/Pick/20220601051527.991406.40741_NLL.20220601054020.688379.41188">
          <pickID>smi:org.gfz-potsdam.de/geofon/Pick/20220601051527.991406.40741</pickID>
          <phase>P</phase>
          <timeCorrection>0.0</timeCorrection>
          <azimuth>35.12047054</azimuth>
          <distance>0.2384066611</distance>
          <takeoffAngle>
            <value>167.1</value>
          </takeoffAngle>
          <timeResidual>0.7613697963</timeResidual>
          <timeWeight>1.200953861</timeWeight>
        </arrival>
        <arrival publicID="smi:org.gfz-potsdam.de/geofon/Pick/20220601051527.991535.40742_NLL.20220601054020.688379.41188">
          <pickID>smi:org.gfz-potsdam.de/geofon/Pick/20220601051527.991535.40742</pickID>
          <phase>S</phase>
          <timeCorrection>0.0</timeCorrection>
          <azimuth>35.12047054</azimuth>
          <distance>0.2384066611</distance>
          <takeoffAngle>
            <value>167.1</value>
          </takeoffAngle>
          <timeResidual>-0.5689672154</timeResidual>
          <timeWeight>1.099175612</timeWeight>
        </arrival>
        <arrival publicID="smi:org.gfz-potsdam.de/geofon/Pick/20220601051527.991692.40743_NLL.20220601054020.688379.41188">
          <pickID>smi:org.gfz-potsdam.de/geofon/Pick/20220601051527.991692.40743</pickID>
          <phase>P</phase>
          <timeCorrection>0.0</timeCorrection>
          <azimuth>288.1478234</azimuth>
          <distance>0.5657277211</distance>
          <takeoffAngle>
            <value>154.7</value>
          </takeoffAngle>
          <timeResidual>1.347977441</timeResidual>
          <timeWeight>1.053337613</timeWeight>
        </arrival>
        <arrival publicID="smi:org.gfz-potsdam.de/geofon/Pick/20220601051527.991806.40744_NLL.20220601054020.688379.41188">
          <pickID>smi:org.gfz-potsdam.de/geofon/Pick/20220601051527.991806.40744</pickID>
          <phase>P</phase>
          <timeCorrection>0.0</timeCorrection>
          <azimuth>42.60851233</azimuth>
          <distance>0.7370077998</distance>
          <takeoffAngle>
            <value>149.0</value>
          </takeoffAngle>
          <timeResidual>0.944629861</timeResidual>
          <timeWeight>1.138666153</timeWeight>
        </arrival>
        <arrival publicID="smi:org.gfz-potsdam.de/geofon/Pick/20220601051527.991914.40745_NLL.20220601054020.688379.41188">
          <pickID>smi:org.gfz-potsdam.de/geofon/Pick/20220601051527.991914.40745</pickID>
          <phase>S</phase>
          <timeCorrection>0.0</timeCorrection>
          <azimuth>42.60851233</azimuth>
          <distance>0.7370077998</distance>
          <takeoffAngle>
            <value>149.1</value>
          </takeoffAngle>
          <timeResidual>-1.024103946</timeResidual>
          <timeWeight>1.039627576</timeWeight>
        </arrival>
        <arrival publicID="smi:org.gfz-potsdam.de/geofon/Pick/20220601051527.992066.40746_NLL.20220601054020.688379.41188">
          <pickID>smi:org.gfz-potsdam.de/geofon/Pick/20220601051527.992066.40746</pickID>
          <phase>P</phase>
          <timeCorrection>0.0</timeCorrection>
          <azimuth>43.9351281</azimuth>
          <distance>0.8080912858</distance>
          <takeoffAngle>
            <value>146.4</value>
          </takeoffAngle>
          <timeResidual>0.8604427272</timeResidual>
          <timeWeight>1.152690449</timeWeight>
        </arrival>
        <arrival publicID="smi:org.gfz-potsdam.de/geofon/Pick/20220601051527.992217.40747_NLL.20220601054020.688379.41188">
          <pickID>smi:org.gfz-potsdam.de/geofon/Pick/20220601051527.992217.40747</pickID>
          <phase>P</phase>
          <timeCorrection>0.0</timeCorrection>
          <azimuth>172.5517585</azimuth>
          <distance>0.9119758405</distance>
          <takeoffAngle>
            <value>143.3</value>
          </takeoffAngle>
          <timeResidual>0.1831240596</timeResidual>
          <timeWeight>1.227763203</timeWeight>
        </arrival>
        <arrival publicID="smi:org.gfz-potsdam.de/geofon/Pick/20220601051527.99235.40748_NLL.20220601054020.688379.41188">
          <pickID>smi:org.gfz-potsdam.de/geofon/Pick/20220601051527.99235.40748</pickID>
          <phase>P</phase>
          <azimuth>32.75910596</azimuth>
          <distance>1.277914756</distance>
        </arrival>
        <arrival publicID="smi:org.gfz-potsdam.de/geofon/Pick/20220601051527.99247.40749_NLL.20220601054020.688379.41188">
          <pickID>smi:org.gfz-potsdam.de/geofon/Pick/20220601051527.99247.40749</pickID>
          <phase>P</phase>
          <timeCorrection>0.0</timeCorrection>
          <azimuth>258.3237625</azimuth>
          <distance>1.27189636</distance>
          <takeoffAngle>
            <value>133.0</value>
          </takeoffAngle>
          <timeResidual>0.604684991</timeResidual>
          <timeWeight>1.161400247</timeWeight>
        </arrival>
        <arrival publicID="smi:org.gfz-potsdam.de/geofon/Pick/20220601051527.992577.40750_NLL.20220601054020.688379.41188">
          <pickID>smi:org.gfz-potsdam.de/geofon/Pick/20220601051527.992577.40750</pickID>
          <phase>S</phase>
          <timeCorrection>0.0</timeCorrection>
          <azimuth>258.3237625</azimuth>
          <distance>1.27189636</distance>
          <takeoffAngle>
            <value>133.4</value>
          </takeoffAngle>
          <timeResidual>-0.05325379991</timeResidual>
          <timeWeight>1.069938087</timeWeight>
        </arrival>
        <arrival publicID="smi:org.gfz-potsdam.de/geofon/Pick/20220601051527.992698.40751_NLL.20220601054020.688379.41188">
          <pickID>smi:org.gfz-potsdam.de/geofon/Pick/20220601051527.992698.40751</pickID>
          <phase>P</phase>
          <timeCorrection>0.0</timeCorrection>
          <azimuth>104.4609079</azimuth>
          <distance>1.447574566</distance>
          <takeoffAngle>
            <value>127.2</value>
          </takeoffAngle>
          <timeResidual>0.115677563</timeResidual>
          <timeWeight>1.179112453</timeWeight>
        </arrival>
        <arrival publicID="smi:org.gfz-potsdam.de/geofon/Pick/20220601051527.992807.40752_NLL.20220601054020.688379.41188">
          <pickID>smi:org.gfz-potsdam.de/geofon/Pick/20220601051527.992807.40752</pickID>
          <phase>S</phase>
          <timeCorrection>0.0</timeCorrection>
          <azimuth>104.4609079</azimuth>
          <distance>1.447574566</distance>
          <takeoffAngle>
            <value>127.4</value>
          </takeoffAngle>
          <timeResidual>-2.131740836</timeResidual>
          <timeWeight>0.8911609682</timeWeight>
        </arrival>
        <arrival publicID="smi:org.gfz-potsdam.de/geofon/Pick/20220601051527.99293.40753_NLL.20220601054020.688379.41188">
          <pickID>smi:org.gfz-potsdam.de/geofon/Pick/20220601051527.99293.40753</pickID>
          <phase>P</phase>
          <timeCorrection>0.0</timeCorrection>
          <azimuth>355.439748</azimuth>
          <distance>1.446136813</distance>
          <takeoffAngle>
            <value>128.6</value>
          </takeoffAngle>
          <timeResidual>0.4636584346</timeResidual>
          <timeWeight>1.157816736</timeWeight>
        </arrival>
        <arrival publicID="smi:org.gfz-potsdam.de/geofon/Pick/20220601051527.993047.40754_NLL.20220601054020.688379.41188">
          <pickID>smi:org.gfz-potsdam.de/geofon/Pick/20220601051527.993047.40754</pickID>
          <phase>S</phase>
          <timeCorrection>0.0</timeCorrection>
          <azimuth>355.439748</azimuth>
          <distance>1.446136813</distance>
          <takeoffAngle>
            <value>128.8</value>
          </takeoffAngle>
          <timeResidual>-0.9670911778</timeResidual>
          <timeWeight>1.044284244</timeWeight>
        </arrival>
        <arrival publicID="smi:org.gfz-potsdam.de/geofon/Pick/20220601051527.993166.40755_NLL.20220601054020.688379.41188">
          <pickID>smi:org.gfz-potsdam.de/geofon/Pick/20220601051527.993166.40755</pickID>
          <phase>P</phase>
          <timeCorrection>0.0</timeCorrection>
          <azimuth>217.1098409</azimuth>
          <distance>1.435187504</distance>
          <takeoffAngle>
            <value>129.5</value>
          </takeoffAngle>
          <timeResidual>0.6944307674</timeResidual>
          <timeWeight>1.125554499</timeWeight>
        </arrival>
        <arrival publicID="smi:org.gfz-potsdam.de/geofon/Pick/20220601051527.993271.40756_NLL.20220601054020.688379.41188">
          <pickID>smi:org.gfz-potsdam.de/geofon/Pick/20220601051527.993271.40756</pickID>
          <phase>S</phase>
          <timeCorrection>0.0</timeCorrection>
          <azimuth>217.1098409</azimuth>
          <distance>1.435187504</distance>
          <takeoffAngle>
