<?xml version="1.0" encoding="UTF-8"?>
<seiscomp xmlns="http://geofon.gfz-potsdam.de/ns/seiscomp3-schema/0.12" version="0.12">
  <EventParameters publicID="smi:local/catalog/fbd9b79f-30a4-41ff-936c-4002683c6f89">
    <pick publicID="smi:local/20191224.195640.49-P-CM.URMC.00.HH">
      <time>
        <value>2019-12-24T19:56:40.498393Z</value>
        <uncertainty>0.2</uncertainty>
        <confidenceLevel>79.0</confidenceLevel>
      </time>
      <waveformID networkCode="CM" stationCode="URMC" locationCode="00" channelCode="HHZ">
        <resourceURI>smi:local/CM.URMC.00.HHZ</resourceURI>
      </waveformID>
      <methodID>smi:local/EQTransformer</methodID>
      <phaseHint>P</phaseHint>
      <evaluationMode>automatic</evaluationMode>
      <creationInfo>
        <author>EQTransformer</author>
        <creationTime>2023-01-19T13:14:19.892574Z</creationTime>
      </creationInfo>
      <comment>
        <text>{"probability": 0.79, "GaMMA_probability": 1.965125602997957e-06, "snr": 27.0, "detection_probability": 0.87, "event_start_time": "2019-12-24 19:56:40.338393", "event_end_time": "2019-12-24 19:56:46.028393"}</text>
        <id>smi:local/c4eb7239-ddc6-455e-b18c-13781f3be39e</id>
      </comment>
    </pick>
    <pick publicID="smi:local/20191224.195644.42-S-CM.URMC.00.HH">
      <time>
        <value>2019-12-24T19:56:44.428393Z</value>
        <uncertainty>0.2</uncertainty>
        <confidenceLevel>62.0</confidenceLevel>
      </time>
      <waveformID networkCode="CM" stationCode="URMC" locationCode="00" channelCode="HHZ">
        <resourceURI>smi:local/CM.URMC.00.HHZ</resourceURI>
      </waveformID>
      <methodID>smi:local/EQTransformer</methodID>
      <phaseHint>S</phaseHint>
      <evaluationMode>automatic</evaluationMode>
      <creationInfo>
        <author>EQTransformer</author>
        <creationTime>2023-01-19T13:14:19.893296Z</creationTime>
      </creationInfo>
      <comment>
        <text>{"probability": 0.62, "GaMMA_probability": 2.4283749093416853e-06, "snr": 11.8, "detection_probability": 0.87, "event_start_time": "2019-12-24 19:56:40.338393", "event_end_time": "2019-12-24 19:56:46.028393"}</text>
        <id>smi:local/4fad3af1-a93d-42f9-9c7a-e0ab2af853a9</id>
      </comment>
    </pick>
    <pick publicID="smi:local/20191224.195655.86-P-CM.ORTC.00.HH">
      <time>
        <value>2019-12-24T19:56:55.868393Z</value>
        <uncertainty>0.2</uncertainty>
        <confidenceLevel>65.0</confidenceLevel>
      </time>
      <waveformID networkCode="CM" stationCode="ORTC" locationCode="00" channelCode="HHZ">
        <resourceURI>smi:local/CM.ORTC.00.HHZ</resourceURI>
      </waveformID>
      <methodID>smi:local/EQTransformer</methodID>
      <phaseHint>P</phaseHint>
      <evaluationMode>automatic</evaluationMode>
      <creationInfo>
        <author>EQTransformer</author>
        <creationTime>2023-01-19T13:14:19.893875Z</creationTime>
      </creationInfo>
      <comment>
        <text>{"probability": 0.65, "GaMMA_probability": 8.232169860340049e-06, "snr": 11.9, "detection_probability": 0.96, "event_start_time": "2019-12-24 19:56:55.498393", "event_end_time": "2019-12-24 19:57:22.998393"}</text>
        <id>smi:local/5846fa45-08c6-47df-9557-177a6f1c1e3b</id>
      </comment>
    </pick>
    <pick publicID="smi:local/20191224.195657.64-P-CM.CHI.00.HH">
      <time>
        <value>2019-12-24T19:56:57.648394Z</value>
        <uncertainty>0.2</uncertainty>
        <confidenceLevel>54.0</confidenceLevel>
      </time>
      <waveformID networkCode="CM" stationCode="CHI" locationCode="00" channelCode="HHZ">
        <resourceURI>smi:local/CM.CHI.00.HHZ</resourceURI>
      </waveformID>
      <methodID>smi:local/EQTransformer</methodID>
      <phaseHint>P</phaseHint>
      <evaluationMode>automatic</evaluationMode>
      <creationInfo>
        <author>EQTransformer</author>
        <creationTime>2023-01-19T13:14:19.894431Z</creationTime>
      </creationInfo>
      <comment>
        <text>{"probability": 0.54, "GaMMA_probability": 1.083986087858577e-05, "snr": 18.1, "detection_probability": 0.88, "event_start_time": "2019-12-24 19:56:57.348394", "event_end_time": "2019-12-24 19:57:22.168394"}</text>
        <id>smi:local/4428d516-e2c9-49d4-8665-1dc4c5b971b4</id>
      </comment>
    </pick>
    <pick publicID="smi:local/20191224.195710.48-S-CM.CHI.00.HH">
      <time>
        <value>2019-12-24T19:57:10.488394Z</value>
        <uncertainty>0.2</uncertainty>
        <confidenceLevel>4.0</confidenceLevel>
      </time>
      <waveformID networkCode="CM" stationCode="CHI" locationCode="00" channelCode="HHZ">
        <resourceURI>smi:local/CM.CHI.00.HHZ</resourceURI>
      </waveformID>
      <methodID>smi:local/EQTransformer</methodID>
      <phaseHint>S</phaseHint>
      <evaluationMode>automatic</evaluationMode>
      <creationInfo>
        <author>EQTransformer</author>
        <creationTime>2023-01-19T13:14:19.895057Z</creationTime>
      </creationInfo>
      <comment>
        <text>{"probability": 0.04, "GaMMA_probability": 7.70645104884309e-06, "snr": 2.7, "detection_probability": 0.88, "event_start_time": "2019-12-24 19:56:57.348394", "event_end_time": "2019-12-24 19:57:22.168394"}</text>
        <id>smi:local/902a6bd6-1fd7-4463-a46d-79142fa5c4cc</id>
      </comment>
    </pick>
    <pick publicID="smi:local/20191224.191035.99-P-CM.ORTC.00.HH">
      <time>
        <value>2019-12-24T19:10:35.998393Z</value>
        <uncertainty>0.2</uncertainty>
        <confidenceLevel>92.0</confidenceLevel>
      </time>
      <waveformID networkCode="CM" stationCode="ORTC" locationCode="00" channelCode="HHZ">
        <resourceURI>smi:local/CM.ORTC.00.HHZ</resourceURI>
      </waveformID>
      <methodID>smi:local/EQTransformer</methodID>
      <phaseHint>P</phaseHint>
      <evaluationMode>automatic</evaluationMode>
      <creationInfo>
        <author>EQTransformer</author>
        <creationTime>2023-01-19T13:14:19.911642Z</creationTime>
      </creationInfo>
      <comment>
        <text>{"probability": 0.92, "GaMMA_probability": 1.965125602997957e-06, "snr": 2.5, "detection_probability": 0.99, "event_start_time": "2019-12-24 19:10:35.948393", "event_end_time": "2019-12-24 19:11:04.798393"}</text>
        <id>smi:local/5895e124-1cc8-4917-91de-b49f28814b9b</id>
      </comment>
    </pick>
    <pick publicID="smi:local/20191224.191038.10-P-CM.CHI.00.HH">
      <time>
        <value>2019-12-24T19:10:38.108394Z</value>
        <uncertainty>0.2</uncertainty>
        <confidenceLevel>46.0</confidenceLevel>
      </time>
      <waveformID networkCode="CM" stationCode="CHI" locationCode="00" channelCode="HHZ">
        <resourceURI>smi:local/CM.CHI.00.HHZ</resourceURI>
      </waveformID>
      <methodID>smi:local/EQTransformer</methodID>
      <phaseHint>P</phaseHint>
      <evaluationMode>automatic</evaluationMode>
      <creationInfo>
        <author>EQTransformer</author>
        <creationTime>2023-01-19T13:14:19.912339Z</creationTime>
      </creationInfo>
      <comment>
        <text>{"probability": 0.46, "GaMMA_probability": 2.4283749093416853e-06, "snr": 2.6, "detection_probability": 0.93, "event_start_time": "2019-12-24 19:10:37.918394", "event_end_time": "2019-12-24 19:11:03.618394"}</text>
        <id>smi:local/a1c1ce7c-f427-466e-be0a-e4e1ea33fc67</id>
      </comment>
    </pick>
    <pick publicID="smi:local/20191224.191055.92-S-CM.CHI.00.HH">
      <time>
        <value>2019-12-24T19:10:55.928394Z</value>
        <uncertainty>0.2</uncertainty>
        <confidenceLevel>18.0</confidenceLevel>
      </time>
      <waveformID networkCode="CM" stationCode="CHI" locationCode="00" channelCode="HHZ">
        <resourceURI>smi:local/CM.CHI.00.HHZ</resourceURI>
      </waveformID>
      <methodID>smi:local/EQTransformer</methodID>
      <phaseHint>S</phaseHint>
      <evaluationMode>automatic</evaluationMode>
      <creationInfo>
        <author>EQTransformer</author>
        <creationTime>2023-01-19T13:14:19.913098Z</creationTime>
      </creationInfo>
      <comment>
        <text>{"probability": 0.18, "GaMMA_probability": 8.232169860340049e-06, "snr": 1.6, "detection_probability": 0.93, "event_start_time": "2019-12-24 19:10:37.918394", "event_end_time": "2019-12-24 19:11:03.618394"}</text>
        <id>smi:local/2222ceaf-f094-4480-a0b4-eefdddc95785</id>
      </comment>
    </pick>
    <pick publicID="smi:local/20191224.191056.33-S-CM.ORTC.00.HH">
      <time>
        <value>2019-12-24T19:10:56.338393Z</value>
        <uncertainty>0.2</uncertainty>
        <confidenceLevel>54.0</confidenceLevel>
      </time>
      <waveformID networkCode="CM" stationCode="ORTC" locationCode="00" channelCode="HHZ">
        <resourceURI>smi:local/CM.ORTC.00.HHZ</resourceURI>
      </waveformID>
      <methodID>smi:local/EQTransformer</methodID>
      <phaseHint>S</phaseHint>
      <evaluationMode>automatic</evaluationMode>
      <creationInfo>
        <author>EQTransformer</author>
        <creationTime>2023-01-19T13:14:19.913602Z</creationTime>
      </creationInfo>
      <comment>
        <text>{"probability": 0.54, "GaMMA_probability": 1.083986087858577e-05, "snr": 13.2, "detection_probability": 0.99, "event_start_time": "2019-12-24 19:10:35.948393", "event_end_time": "2019-12-24 19:11:04.798393"}</text>
        <id>smi:local/5c56e5d3-77a3-4bc5-b24e-1cbdada76552</id>
      </comment>
    </pick>
    <pick publicID="smi:local/20191224.191111.34-S-CM.URMC.00.HH">
      <time>
        <value>2019-12-24T19:11:11.348393Z</value>
        <uncertainty>0.2</uncertainty>
        <confidenceLevel>46.0</confidenceLevel>
      </time>
      <waveformID networkCode="CM" stationCode="URMC" locationCode="00" channelCode="HHZ">
        <resourceURI>smi:local/CM.URMC.00.HHZ</resourceURI>
      </waveformID>
      <methodID>smi:local/EQTransformer</methodID>
      <phaseHint>S</phaseHint>
      <evaluationMode>automatic</evaluationMode>
      <creationInfo>
        <author>EQTransformer</author>
        <creationTime>2023-01-19T13:14:19.914360Z</creationTime>
      </creationInfo>
      <comment>
        <text>{"probability": 0.46, "GaMMA_probability": 7.70645104884309e-06, "snr": 18.0, "detection_probability": 0.89, "event_start_time": "2019-12-24 19:11:06.968393", "event_end_time": "2019-12-24 19:11:13.388393"}</text>
        <id>smi:local/8073026b-1392-44ea-92eb-148ee7c8bdfc</id>
      </comment>
    </pick>
    <pick publicID="smi:local/20191224.193210.98-P-CM.ORTC.00.HH">
      <time>
        <value>2019-12-24T19:32:10.988393Z</value>
        <uncertainty>0.2</uncertainty>
        <confidenceLevel>72.0</confidenceLevel>
      </time>
      <waveformID networkCode="CM" stationCode="ORTC" locationCode="00" channelCode="HHZ">
        <resourceURI>smi:local/CM.ORTC.00.HHZ</resourceURI>
      </waveformID>
      <methodID>smi:local/EQTransformer</methodID>
      <phaseHint>P</phaseHint>
      <evaluationMode>automatic</evaluationMode>
      <creationInfo>
        <author>EQTransformer</author>
        <creationTime>2023-01-19T13:14:19.930368Z</creationTime>
      </creationInfo>
      <comment>
        <text>{"probability": 0.72, "GaMMA_probability": 1.965125602997957e-06, "snr": 12.1, "detection_probability": 0.3, "event_start_time": "2019-12-24 19:32:10.958393", "event_end_time": "2019-12-24 19:32:29.988393"}</text>
        <id>smi:local/f1664f85-c6e0-4b0a-b4ed-82d5aebdc421</id>
      </comment>
    </pick>
    <pick publicID="smi:local/20191224.193216.08-P-CM.CHI.00.HH">
      <time>
        <value>2019-12-24T19:32:16.088394Z</value>
        <uncertainty>0.2</uncertainty>
        <confidenceLevel>10.0</confidenceLevel>
      </time>
      <waveformID networkCode="CM" stationCode="CHI" locationCode="00" channelCode="HHZ">
        <resourceURI>smi:local/CM.CHI.00.HHZ</resourceURI>
      </waveformID>
      <methodID>smi:local/EQTransformer</methodID>
      <phaseHint>P</phaseHint>
      <evaluationMode>automatic</evaluationMode>
      <creationInfo>
        <author>EQTransformer</author>
        <creationTime>2023-01-19T13:14:19.930969Z</creationTime>
      </creationInfo>
      <comment>
        <text>{"probability": 0.1, "GaMMA_probability": 2.4283749093416853e-06, "snr": 2.9, "detection_probability": 0.61, "event_start_time": "2019-12-24 19:32:11.998394", "event_end_time": "2019-12-24 19:32:37.278394"}</text>
        <id>smi:local/04ad35dc-f062-4f76-a4b5-71bd295ee024</id>
      </comment>
    </pick>
    <pick publicID="smi:local/20191224.193222.13-P-CM.URMC.00.HH">
      <time>
        <value>2019-12-24T19:32:22.138393Z</value>
        <uncertainty>0.2</uncertainty>
        <confidenceLevel>49.0</confidenceLevel>
      </time>
      <waveformID networkCode="CM" stationCode="URMC" locationCode="00" channelCode="HHZ">
        <resourceURI>smi:local/CM.URMC.00.HHZ</resourceURI>
      </waveformID>
      <methodID>smi:local/EQTransformer</methodID>
      <phaseHint>P</phaseHint>
      <evaluationMode>automatic</evaluationMode>
      <creationInfo>
        <author>EQTransformer</author>
        <creationTime>2023-01-19T13:14:19.931528Z</creationTime>
      </creationInfo>
      <comment>
        <text>{"probability": 0.49, "GaMMA_probability": 8.232169860340049e-06, "snr": 13.9, "detection_probability": 0.94, "event_start_time": "2019-12-24 19:32:21.958393", "event_end_time": "2019-12-24 19:32:28.438393"}</text>
        <id>smi:local/5ee5e598-e85f-4e23-bcea-f99f9890a960</id>
      </comment>
    </pick>
    <pick publicID="smi:local/20191224.193226.24-S-CM.ORTC.00.HH">
      <time>
        <value>2019-12-24T19:32:26.248393Z</value>
        <uncertainty>0.2</uncertainty>
        <confidenceLevel>6.0</confidenceLevel>
      </time>
      <waveformID networkCode="CM" stationCode="ORTC" locationCode="00" channelCode="HHZ">
        <resourceURI>smi:local/CM.ORTC.00.HHZ</resourceURI>
      </waveformID>
      <methodID>smi:local/EQTransformer</methodID>
      <phaseHint>S</phaseHint>
      <evaluationMode>automatic</evaluationMode>
      <creationInfo>
        <author>EQTransformer</author>
        <creationTime>2023-01-19T13:14:19.932322Z</creationTime>
      </creationInfo>
      <comment>
        <text>{"probability": 0.06, "GaMMA_probability": 1.083986087858577e-05, "snr": 5.0, "detection_probability": 0.3, "event_start_time": "2019-12-24 19:32:10.958393", "event_end_time": "2019-12-24 19:32:29.988393"}</text>
        <id>smi:local/94181345-7cbe-4174-a904-838fc537f27a</id>
      </comment>
    </pick>
    <pick publicID="smi:local/20191224.193230.59-S-CM.CHI.00.HH">
      <time>
        <value>2019-12-24T19:32:30.598394Z</value>
        <uncertainty>0.2</uncertainty>
        <confidenceLevel>35.0</confidenceLevel>
      </time>
      <waveformID networkCode="CM" stationCode="CHI" locationCode="00" channelCode="HHZ">
        <resourceURI>smi:local/CM.CHI.00.HHZ</resourceURI>
      </waveformID>
      <methodID>smi:local/EQTransformer</methodID>
      <phaseHint>S</phaseHint>
      <evaluationMode>automatic</evaluationMode>
      <creationInfo>
        <author>EQTransformer</author>
        <creationTime>2023-01-19T13:14:19.932829Z</creationTime>
      </creationInfo>
      <comment>
        <text>{"probability": 0.35, "GaMMA_probability": 7.70645104884309e-06, "snr": 2.9, "detection_probability": 0.61, "event_start_time": "2019-12-24 19:32:11.998394", "event_end_time": "2019-12-24 19:32:37.278394"}</text>
        <id>smi:local/7cb2c996-895f-4bae-8940-faff394d9364</id>
      </comment>
    </pick>
    <pick publicID="smi:local/20191224.192527.94-P-CM.URMC.00.HH">
      <time>
        <value>2019-12-24T19:25:27.948393Z</value>
        <uncertainty>0.2</uncertainty>
        <confidenceLevel>78.0</confidenceLevel>
      </time>
      <waveformID networkCode="CM" stationCode="URMC" locationCode="00" channelCode="HHZ">
        <resourceURI>smi:local/CM.URMC.00.HHZ</resourceURI>
      </waveformID>
      <methodID>smi:local/EQTransformer</methodID>
      <phaseHint>P</phaseHint>
      <evaluationMode>automatic</evaluationMode>
      <creationInfo>
        <author>EQTransformer</author>
        <creationTime>2023-01-19T13:14:19.950264Z</creationTime>
      </creationInfo>
      <comment>
        <text>{"probability": 0.78, "GaMMA_probability": 1.965125602997957e-06, "snr": 17.2, "detection_probability": 0.9, "event_start_time": "2019-12-24 19:25:27.828393", "event_end_time": "2019-12-24 19:25:33.848393"}</text>
        <id>smi:local/9325fc1b-bca6-49ef-b969-94f14c77da84</id>
      </comment>
    </pick>
    <pick publicID="smi:local/20191224.192531.73-S-CM.URMC.00.HH">
      <time>
        <value>2019-12-24T19:25:31.738393Z</value>
        <uncertainty>0.2</uncertainty>
        <confidenceLevel>28.999999999999996</confidenceLevel>
      </time>
      <waveformID networkCode="CM" stationCode="URMC" locationCode="00" channelCode="HHZ">
        <resourceURI>smi:local/CM.URMC.00.HHZ</resourceURI>
      </waveformID>
      <methodID>smi:local/EQTransformer</methodID>
      <phaseHint>S</phaseHint>
      <evaluationMode>automatic</evaluationMode>
      <creationInfo>
        <author>EQTransformer</author>
        <creationTime>2023-01-19T13:14:19.950839Z</creationTime>
      </creationInfo>
      <comment>
        <text>{"probability": 0.29, "GaMMA_probability": 2.4283749093416853e-06, "snr": 17.1, "detection_probability": 0.9, "event_start_time": "2019-12-24 19:25:27.828393", "event_end_time": "2019-12-24 19:25:33.848393"}</text>
        <id>smi:local/4c92f5c7-0d71-4ce2-924b-17200157f11d</id>
      </comment>
    </pick>
    <pick publicID="smi:local/20191224.192542.83-P-CM.ORTC.00.HH">
      <time>
        <value>2019-12-24T19:25:42.838393Z</value>
        <uncertainty>0.2</uncertainty>
        <confidenceLevel>72.0</confidenceLevel>
      </time>
      <waveformID networkCode="CM" stationCode="ORTC" locationCode="00" channelCode="HHZ">
        <resourceURI>smi:local/CM.ORTC.00.HHZ</resourceURI>
      </waveformID>
      <methodID>smi:local/EQTransformer</methodID>
      <phaseHint>P</phaseHint>
      <evaluationMode>automatic</evaluationMode>
      <creationInfo>
        <author>EQTransformer</author>
        <creationTime>2023-01-19T13:14:19.951717Z</creationTime>
      </creationInfo>
      <comment>
        <text>{"probability": 0.72, "GaMMA_probability": 8.232169860340049e-06, "snr": 14.7, "detection_probability": 0.86, "event_start_time": "2019-12-24 19:25:42.748393", "event_end_time": "2019-12-24 19:26:04.598393"}</text>
        <id>smi:local/eb20aec4-1147-4d7a-9ac3-71b97a5763b4</id>
      </comment>
    </pick>
    <pick publicID="smi:local/20191224.192545.43-P-CM.CHI.00.HH">
      <time>
        <value>2019-12-24T19:25:45.438394Z</value>
        <uncertainty>0.2</uncertainty>
        <confidenceLevel>7.000000000000001</confidenceLevel>
      </time>
      <waveformID networkCode="CM" stationCode="CHI" locationCode="00" channelCode="HHZ">
        <resourceURI>smi:local/CM.CHI.00.HHZ</resourceURI>
      </waveformID>
      <methodID>smi:local/EQTransformer</methodID>
      <phaseHint>P</phaseHint>
      <evaluationMode>automatic</evaluationMode>
      <creationInfo>
        <author>EQTransformer</author>
        <creationTime>2023-01-19T13:14:19.952353Z</creationTime>
      </creationInfo>
      <comment>
        <text>{"probability": 0.07, "GaMMA_probability": 1.083986087858577e-05, "snr": 6.7, "detection_probability": 0.11, "event_start_time": "2019-12-24 19:25:45.518394", "event_end_time": "2019-12-24 19:25:49.348394"}</text>
        <id>smi:local/a088492b-3900-4491-aaaa-d7234692c575</id>
      </comment>
    </pick>
    <pick publicID="smi:local/20191224.192558.24-S-CM.ORTC.00.HH">
      <time>
        <value>2019-12-24T19:25:58.248393Z</value>
        <uncertainty>0.2</uncertainty>
        <confidenceLevel>45.0</confidenceLevel>
      </time>
      <waveformID networkCode="CM" stationCode="ORTC" locationCode="00" channelCode="HHZ">
        <resourceURI>smi:local/CM.ORTC.00.HHZ</resourceURI>
      </waveformID>
