<?xml version="1.0" encoding="UTF-8"?>
<seiscomp xmlns="http://geofon.gfz-potsdam.de/ns/seiscomp3-schema/0.10" version="0.10"><EventParameters><pick publicID="Pick/20220530004041.790091.34983"><time><value>2022-05-30T00:39:08.874893Z</value></time><waveformID networkCode="CM" stationCode="YOT" locationCode="00" channelCode="HHZ"/><phaseHint>P</phaseHint><evaluationMode>manual</evaluationMode><creationInfo><agencyID>SGC</agencyID><creationTime>2022-05-30T00:40:41.790182Z</creationTime></creationInfo></pick><pick publicID="Pick/20220530004041.790254.34984"><time><value>2022-05-30T00:39:22.294163Z</value></time><waveformID networkCode="CM" stationCode="YOT" locationCode="00" channelCode="HHE"/><phaseHint>S</phaseHint><evaluationMode>manual</evaluationMode><creationInfo><agencyID>SGC</agencyID><creationTime>2022-05-30T00:40:41.790289Z</creationTime></creationInfo></pick><pick publicID="Pick/20220530004137.582335.35475"><time><value>2022-05-30T00:39:09.510753Z</value><lowerUncertainty>0.1000000015</lowerUncertainty><upperUncertainty>0.1000000015</upperUncertainty></time><waveformID networkCode="CM" stationCode="RAC2C" locationCode="10" channelCode="HNZ"/><filterID>BW(3,5,10)</filterID><phaseHint>P</phaseHint><evaluationMode>manual</evaluationMode><creationInfo><agencyID>SGC</agencyID><creationTime>2022-05-30T00:41:37.582491Z</creationTime></creationInfo></pick><pick publicID="Pick/20220530004137.582593.35476"><time><value>2022-05-30T00:39:24.186343Z</value><lowerUncertainty>0.1000000015</lowerUncertainty><upperUncertainty>0.1000000015</upperUncertainty></time><waveformID networkCode="CM" stationCode="RAC2C" locationCode="10" channelCode="HNN"/><filterID>BW(3,5,10)</filterID><phaseHint>S</phaseHint><evaluationMode>manual</evaluationMode><creationInfo><agencyID>SGC</agencyID><creationTime>2022-05-30T00:41:37.58267Z</creationTime></creationInfo></pick><pick publicID="Pick/20220601142904.260974.44246"><time><value>2022-05-30T00:39:10.326461Z</value></time><waveformID networkCode="CM" stationCode="JAMC" locationCode="00" channelCode="HHN"/><phaseHint>P</phaseHint><polarity>positive</polarity><evaluationMode>manual</evaluationMode><creationInfo><agencyID>SGC</agencyID><creationTime>2022-06-01T14:29:04.261113Z</creationTime></creationInfo></pick><pick publicID="Pick/20220530004137.582875.35478"><time><value>2022-05-30T00:39:25.342605Z</value></time><waveformID networkCode="CM" stationCode="JAMC" locationCode="00" channelCode="HHN"/><phaseHint>S</phaseHint><evaluationMode>manual</evaluationMode><creationInfo><agencyID>SGC</agencyID><creationTime>2022-05-30T00:41:37.582939Z</creationTime></creationInfo></pick><pick publicID="Pick/20220601142904.261215.44247"><time><value>2022-05-30T00:39:12.785976Z</value></time><waveformID networkCode="CM" stationCode="MAL" locationCode="20" channelCode="EHZ"/><phaseHint>P</phaseHint><evaluationMode>manual</evaluationMode><creationInfo><agencyID>SGC</agencyID><creationTime>2022-06-01T14:29:04.261281Z</creationTime></creationInfo></pick><pick publicID="Pick/20220530004041.790394.34986"><time><value>2022-05-30T00:39:30.187854Z</value></time><waveformID networkCode="CM" stationCode="MAL" locationCode="20" channelCode="EHN"/><phaseHint>S</phaseHint><evaluationMode>manual</evaluationMode><creationInfo><agencyID>SGC</agencyID><creationTime>2022-05-30T00:40:41.790425Z</creationTime></creationInfo></pick><pick publicID="Pick/20220530004137.58307.35479"><time><value>2022-05-30T00:39:14.936277Z</value></time><waveformID networkCode="CM" stationCode="PLNC" locationCode="20" channelCode="EHZ"/><phaseHint>P</phaseHint><evaluationMode>manual</evaluationMode><creationInfo><agencyID>SGC</agencyID><creationTime>2022-05-30T00:41:37.583138Z</creationTime></creationInfo></pick><pick publicID="Pick/20220530004137.583201.35480"><time><value>2022-05-30T00:39:33.080644Z</value></time><waveformID networkCode="CM" stationCode="PLNC" locationCode="20" channelCode="EHZ"/><phaseHint>S</phaseHint><evaluationMode>manual</evaluationMode><creationInfo><agencyID>SGC</agencyID><creationTime>2022-05-30T00:41:37.583265Z</creationTime></creationInfo></pick><pick publicID="Pick/20220601142904.261571.44249"><time><value>2022-05-30T00:39:14.044703Z</value></time><waveformID networkCode="CM" stationCode="PAL" locationCode="00" channelCode="HH"/><phaseHint>P</phaseHint><polarity>negative</polarity><evaluationMode>manual</evaluationMode><creationInfo><agencyID>SGC</agencyID><creationTime>2022-06-01T14:29:04.261629Z</creationTime></creationInfo></pick><pick publicID="Pick/20220530004041.790533.34988"><time><value>2022-05-30T00:39:31.699885Z</value></time><waveformID networkCode="CM" stationCode="PAL" locationCode="00" channelCode="HHN"/><phaseHint>S</phaseHint><evaluationMode>manual</evaluationMode><creationInfo><agencyID>SGC</agencyID><creationTime>2022-05-30T00:40:41.790563Z</creationTime></creationInfo></pick><pick publicID="Pick/20220601142904.261422.44248"><time><value>2022-05-30T00:39:15.71848Z</value></time><waveformID networkCode="CM" stationCode="MARO" locationCode="00" channelCode="HHN"/><phaseHint>P</phaseHint><polarity>positive</polarity><evaluationMode>manual</evaluationMode><creationInfo><agencyID>SGC</agencyID><creationTime>2022-06-01T14:29:04.261486Z</creationTime></creationInfo></pick><pick publicID="Pick/20220530004041.790659.34990"><time><value>2022-05-30T00:39:34.190288Z</value></time><waveformID networkCode="CM" stationCode="MARO" locationCode="00" channelCode="HHN"/><phaseHint>S</phaseHint><evaluationMode>manual</evaluationMode><creationInfo><agencyID>SGC</agencyID><creationTime>2022-05-30T00:40:41.790688Z</creationTime></creationInfo></pick><pick publicID="Pick/20220530004137.583597.35483"><time><value>2022-05-30T00:39:14.424855Z</value></time><waveformID networkCode="CM" stationCode="CCALA" locationCode="10" channelCode="HNZ"/><phaseHint>P</phaseHint><evaluationMode>manual</evaluationMode><creationInfo><agencyID>SGC</agencyID><creationTime>2022-05-30T00:41:37.583659Z</creationTime></creationInfo></pick><pick publicID="Pick/20220530004137.583716.35484"><time><value>2022-05-30T00:39:32.747107Z</value></time><waveformID networkCode="CM" stationCode="CCALA" locationCode="10" channelCode="HNE"/><phaseHint>S</phaseHint><evaluationMode>manual</evaluationMode><creationInfo><agencyID>SGC</agencyID><creationTime>2022-05-30T00:41:37.583776Z</creationTime></creationInfo></pick><pick publicID="Pick/20220530004137.583831.35485"><time><value>2022-05-30T00:39:14.71392Z</value></time><waveformID networkCode="CM" stationCode="ARMEC" locationCode="10" channelCode="HNZ"/><phaseHint>P</phaseHint><evaluationMode>manual</evaluationMode><creationInfo><agencyID>SGC</agencyID><creationTime>2022-05-30T00:41:37.583893Z</creationTime></creationInfo></pick><pick publicID="Pick/20220530004137.583948.35486"><time><value>2022-05-30T00:39:33.458651Z</value></time><waveformID networkCode="CM" stationCode="ARMEC" locationCode="10" channelCode="HNN"/><phaseHint>S</phaseHint><evaluationMode>manual</evaluationMode><creationInfo><agencyID>SGC</agencyID><creationTime>2022-05-30T00:41:37.584008Z</creationTime></creationInfo></pick><pick publicID="Pick/20220601142904.261967.44251"><time><value>2022-05-30T00:39:16.957692Z</value></time><waveformID networkCode="CM" stationCode="ORTC" locationCode="00" channelCode="HHZ"/><phaseHint>P</phaseHint><polarity>negative</polarity><evaluationMode>manual</evaluationMode><creationInfo><agencyID>SGC</agencyID><creationTime>2022-06-01T14:29:04.262028Z</creationTime></creationInfo></pick><pick publicID="Pick/20220530004041.790781.34992"><time><value>2022-05-30T00:39:36.280448Z</value></time><waveformID networkCode="CM" stationCode="ORTC" locationCode="00" channelCode="HHN"/><phaseHint>S</phaseHint><evaluationMode>manual</evaluationMode><creationInfo><agencyID>SGC</agencyID><creationTime>2022-05-30T00:40:41.79081Z</creationTime></creationInfo></pick><pick publicID="Pick/20220601142904.262074.44252"><time><value>2022-05-30T00:39:18.206364Z</value></time><waveformID networkCode="CM" stationCode="PIZC" locationCode="00" channelCode="HHZ"/><phaseHint>P</phaseHint><polarity>positive</polarity><evaluationMode>manual</evaluationMode><creationInfo><agencyID>SGC</agencyID><creationTime>2022-06-01T14:29:04.262135Z</creationTime></creationInfo></pick><pick publicID="Pick/20220601142904.262174.44253"><time><value>2022-05-30T00:39:39.074406Z</value></time><waveformID networkCode="CM" stationCode="PIZC" locationCode="00" channelCode="HHN"/><phaseHint>S</phaseHint><evaluationMode>manual</evaluationMode><creationInfo><agencyID>SGC</agencyID><creationTime>2022-06-01T14:29:04.262231Z</creationTime></creationInfo></pick><pick publicID="Pick/20220530004041.790842.34993"><time><value>2022-05-30T00:39:19.648111Z</value></time><waveformID networkCode="CM" stationCode="COBO" locationCode="00" channelCode="HHZ"/><phaseHint>P</phaseHint><evaluationMode>manual</evaluationMode><creationInfo><agencyID>SGC</agencyID><creationTime>2022-05-30T00:40:41.790872Z</creationTime></creationInfo></pick><pick publicID="Pick/20220530004041.790899.34994"><time><value>2022-05-30T00:39:40.638654Z</value></time><waveformID networkCode="CM" stationCode="COBO" locationCode="00" channelCode="HHN"/><phaseHint>S</phaseHint><evaluationMode>manual</evaluationMode><creationInfo><agencyID>SGC</agencyID><creationTime>2022-05-30T00:40:41.790927Z</creationTime></creationInfo></pick><pick publicID="Pick/20220601143049.525615.44264"><time><value>2022-05-30T00:39:20.155051Z</value></time><waveformID networkCode="CM" stationCode="BET" locationCode="20" channelCode="EHN"/><phaseHint>P</phaseHint><evaluationMode>manual</evaluationMode><creationInfo><agencyID>SGC</agencyID><creationTime>2022-06-01T14:30:49.525746Z</creationTime></creationInfo></pick><pick publicID="Pick/20220530004325.535241.36517"><time><value>2022-05-30T00:39:42.13059Z</value></time><waveformID networkCode="CM" stationCode="BET" locationCode="20" channelCode="EHN"/><phaseHint>S</phaseHint><evaluationMode>manual</evaluationMode><creationInfo><agencyID>SGC</agencyID><creationTime>2022-05-30T00:43:25.535312Z</creationTime></creationInfo></pick><pick publicID="Pick/20220530004325.535384.36518"><time><value>2022-05-30T00:39:20.673098Z</value></time><waveformID networkCode="CM" stationCode="NIZA" locationCode="10" channelCode="HNZ"/><phaseHint>P</phaseHint><evaluationMode>manual</evaluationMode><creationInfo><agencyID>SGC</agencyID><creationTime>2022-05-30T00:43:25.535452Z</creationTime></creationInfo></pick><pick publicID="Pick/20220530004041.791083.34997"><time><value>2022-05-30T00:39:21.426975Z</value></time><waveformID networkCode="CM" stationCode="SOTO" locationCode="00" channelCode="HHZ"/><phaseHint>P</phaseHint><evaluationMode>manual</evaluationMode><creationInfo><agencyID>SGC</agencyID><creationTime>2022-05-30T00:40:41.791112Z</creationTime></creationInfo></pick><pick publicID="Pick/20220530004041.791143.34998"><time><value>2022-05-30T00:39:43.796134Z</value></time><waveformID networkCode="CM" stationCode="SOTO" locationCode="00" channelCode="HHN"/><phaseHint>S</phaseHint><evaluationMode>manual</evaluationMode><creationInfo><agencyID>SGC</agencyID><creationTime>2022-05-30T00:40:41.791171Z</creationTime></creationInfo></pick><pick publicID="Pick/20220601143049.52594.44265"><time><value>2022-05-30T00:39:21.42697Z</value></time><waveformID networkCode="CM" stationCode="PRA" locationCode="00" channelCode="HH"/><phaseHint>P</phaseHint><polarity>positive</polarity><evaluationMode>manual</evaluationMode><creationInfo><agencyID>SGC</agencyID><creationTime>2022-06-01T14:30:49.526001Z</creationTime></creationInfo></pick><pick publicID="Pick/20220530004041.791021.34996"><time><value>2022-05-30T00:39:43.929544Z</value></time><waveformID networkCode="CM" stationCode="PRA" locationCode="00" channelCode="HHN"/><phaseHint>S</phaseHint><evaluationMode>manual</evaluationMode><creationInfo><agencyID>SGC</agencyID><creationTime>2022-05-30T00:40:41.791049Z</creationTime></creationInfo></pick><pick publicID="Pick/20220530004325.535581.36519"><time><value>2022-05-30T00:39:21.65147Z</value></time><waveformID networkCode="CM" stationCode="PIRM" locationCode="00" channelCode="HHZ"/><phaseHint>P</phaseHint><evaluationMode>manual</evaluationMode><creationInfo><agencyID>SGC</agencyID><creationTime>2022-05-30T00:43:25.535648Z</creationTime></creationInfo></pick><pick publicID="Pick/20220530004325.535712.36520"><time><value>2022-05-30T00:39:43.309078Z</value><lowerUncertainty>0.1000000015</lowerUncertainty><upperUncertainty>0.1000000015</upperUncertainty></time><waveformID networkCode="CM" stationCode="PIRM" locationCode="00" channelCode="HHN"/><filterID>BW(3,0.1,1))</filterID><phaseHint>S</phaseHint><evaluationMode>manual</evaluationMode><creationInfo><agencyID>SGC</agencyID><creationTime>2022-05-30T00:43:25.535781Z</creationTime></creationInfo></pick><pick publicID="Pick/20220530004041.791203.34999"><time><value>2022-05-30T00:39:23.027948Z</value></time><waveformID networkCode="CM" stationCode="GUY2C" locationCode="00" channelCode="HHZ"/><phaseHint>P</phaseHint><evaluationMode>manual</evaluationMode><creationInfo><agencyID>SGC</agencyID><creationTime>2022-05-30T00:40:41.791232Z</creationTime></creationInfo></pick><pick publicID="Pick/20220530004041.791261.35000"><time><value>2022-05-30T00:39:46.775724Z</value></time><waveformID networkCode="CM" stationCode="GUY2C" locationCode="00" channelCode="HHN"/><phaseHint>S</phaseHint><evaluationMode>manual</evaluationMode><creationInfo><agencyID>SGC</agencyID><creationTime>2022-05-30T00:40:41.791291Z</creationTime></creationInfo></pick><pick publicID="Pick/20220530004325.536781.36527"><time><value>2022-05-30T00:39:23.163495Z</value></time><waveformID networkCode="CM" stationCode="BBAC" locationCode="00" channelCode="HHZ"/><phaseHint>P</phaseHint><evaluationMode>manual</evaluationMode><creationInfo><agencyID>SGC</agencyID><creationTime>2022-05-30T00:43:25.536844Z</creationTime></creationInfo></pick><pick publicID="Pick/20220530004325.536906.36528"><time><value>2022-05-30T00:39:47.711755Z</value></time><waveformID networkCode="CM" stationCode="BBAC" locationCode="00" channelCode="HHN"/><phaseHint>S</phaseHint><evaluationMode>manual</evaluationMode><creationInfo><agencyID>SGC</agencyID><creationTime>2022-05-30T00:43:25.536969Z</creationTime></creationInfo></pick><pick publicID="Pick/20220530004325.536534.36525"><time><value>2022-05-30T00:39:22.71878Z</value></time><waveformID networkCode="CM" stationCode="QUBC" locationCode="00" channelCode="HHZ"/><phaseHint>P</phaseHint><evaluationMode>manual</evaluationMode><creationInfo><agencyID>SGC</agencyID><creationTime>2022-05-30T00:43:25.536599Z</creationTime></creationInfo></pick><pick publicID="Pick/20220601143049.526361.44267"><time><value>2022-05-30T00:39:24.038233Z</value></time><waveformID networkCode="CM" stationCode="GARC" locationCode="00" channelCode="HHZ"/><phaseHint>P</phaseHint><evaluationMode>manual</evaluationMode><creationInfo><agencyID>SGC</agencyID><creationTime>2022-06-01T14:30:49.526415Z</creationTime></creationInfo></pick><pick publicID="Pick/20220530004041.791382.35002"><time><value>2022-05-30T00:39:48.732469Z</value></time><waveformID networkCode="CM" stationCode="GARC" locationCode="00" channelCode="HHE"/><phaseHint>S</phaseHint><evaluationMode>manual</evaluationMode><creationInfo><agencyID>SGC</agencyID><creationTime>2022-05-30T00:40:41.791411Z</creationTime></creationInfo></pick><pick publicID="Pick/20220601143049.526517.44268"><time><value>2022-05-30T00:39:26.32097Z</value></time><waveformID networkCode="CM" stationCode="CBOC" locationCode="00" channelCode="HH"/><phaseHint>P</phaseHint><polarity>negative</polarity><evaluationMode>manual</evaluationMode><creationInfo><agencyID>SGC</agencyID><creationTime>2022-06-01T14:30:49.526568Z</creationTime></creationInfo></pick><pick publicID="Pick/20220530004325.537145.36530"><time><value>2022-05-30T00:39:52.914919Z</value></time><waveformID networkCode="CM" stationCode="CBOC" locationCode="00" channelCode="HHN"/><phaseHint>S</phaseHint><evaluationMode>manual</evaluationMode><creationInfo><agencyID>SGC</agencyID><creationTime>2022-05-30T00:43:25.537205Z</creationTime></creationInfo></pick><pick publicID="Pick/20220530004325.537271.36531"><time><value>2022-05-30T00:39:27.877472Z</value></time><waveformID networkCode="CM" stationCode="URMC" locationCode="00" channelCode="HHZ"/><phaseHint>P</phaseHint><evaluationMode>manual</evaluationMode><creationInfo><agencyID>SGC</agencyID><creationTime>2022-05-30T00:43:25.537338Z</creationTime></creationInfo></pick><pick publicID="Pick/20220601143049.526671.44269"><time><value>2022-05-30T00:39:29.624196Z</value></time><waveformID networkCode="CM" stationCode="FLO2" locationCode="00" channelCode="HHZ"/><phaseHint>P</phaseHint><polarity>positive</polarity><evaluationMode>manual</evaluationMode><creationInfo><agencyID>SGC</agencyID><creationTime>2022-06-01T14:30:49.526723Z</creationTime></creationInfo></pick><pick publicID="Pick/20220601143049.526785.44270"><time><value>2022-05-30T00:39:30.14447Z</value></time><waveformID networkCode="CM" stationCode="NOR" locationCode="00" channelCode="HHZ"/><phaseHint>P</phaseHint><polarity>negative</polarity><evaluationMode>manual</evaluationMode><creationInfo><agencyID>SGC</agencyID><creationTime>2022-06-01T14:30:49.526836Z</creationTime></creationInfo></pick><pick publicID="Pick/20220530004325.53766.36534"><time><value>2022-05-30T00:39:59.763528Z</value><lowerUncertainty>0.1000000015</lowerUncertainty><upperUncertainty>0.1000000015</upperUncertainty></time><waveformID networkCode="CM" stationCode="NOR" locationCode="00" channelCode="HHN"/><filterID>BW(3,0.1,1))</filterID><phaseHint>S</phaseHint><evaluationMode>manual</evaluationMode><creationInfo><agencyID>SGC</agencyID><creationTime>2022-05-30T00:43:25.537726Z</creationTime></creationInfo></pick><pick publicID="Pick/20220601143049.526901.44271"><time><value>2022-05-30T00:39:32.54721Z</value></time><waveformID networkCode="CM" stationCode="ROSC" channelCode="BHZ"/><phaseHint>P</phaseHint><polarity>negative</polarity><evaluationMode>manual</evaluationMode><creationInfo><agencyID>SGC</agencyID><creationTime>2022-06-01T14:30:49.526953Z</creationTime></creationInfo></pick><pick publicID="Pick/20220530004325.538837.36543"><time><value>2022-05-30T00:39:34.815024Z</value></time><waveformID networkCode="CM" stationCode="SOL" locationCode="20" channelCode="EHZ"/><filterID>BW(3,1,5)</filterID><phaseHint>P</phaseHint><evaluationMode>manual</evaluationMode><creationInfo><agencyID>SGC</agencyID><creationTime>2022-05-30T00:43:25.538902Z</creationTime></creationInfo></pick><pick publicID="Pick/20220530004325.538964.36544"><time><value>2022-05-30T00:40:01.853687Z</value></time><waveformID networkCode="CM" stationCode="SOL" locationCode="20" channelCode="EHN"/><filterID>BW(3,1,5)</filterID><phaseHint>S</phaseHint><evaluationMode>manual</evaluationMode><creationInfo><agencyID>SGC</agencyID><creationTime>2022-05-30T00:43:25.539027Z</creationTime></creationInfo></pick><pick publicID="Pick/20220601143049.527056.44272"><time><value>2022-05-30T00:39:33.493185Z</value></time><waveformID networkCode="CM" stationCode="CVER" locationCode="00" channelCode="HHZ"/><phaseHint>P</phaseHint><polarity>negative</polarity><evaluationMode>manual</evaluationMode><creationInfo><agencyID>SGC</agencyID><creationTime>2022-06-01T14:30:49.527108Z</creationTime></creationInfo></pick><pick publicID="Pick/20220530004325.538437.36540"><time><value>2022-05-30T00:40:05.189049Z</value></time><waveformID networkCode="CM" stationCode="CVER" locationCode="00" channelCode="HHN"/><phaseHint>S</phaseHint><evaluationMode>manual</evaluationMode><creationInfo><agencyID>SGC</agencyID><creationTime>2022-05-30T00:43:25.538512Z</creationTime></creationInfo></pick><pick publicID="Pick/20220530004325.538581.36541"><time><value>2022-05-30T00:39:32.280149Z</value></time><waveformID networkCode="CM" stationCode="HEL" locationCode="00" channelCod